{"version": 0.6, "generator": "Overpass API 0.7.62.8 e802775f", "osm3s": {"timestamp_osm_base": "2025-11-20T22:57:17Z", "copyright": "The data included in this document is from www.openstreetmap.org. The data is made available under ODbL."}, "elements": [{"type": "node", "id": 30384902, "lat": 19.3533412, "lon": -99.1449619, "tags": {"name": "General Anaya", "network": "STC Metro", "opening_hours": "Mo-Fr 05:00-24:00; Sa 06:00-24:00; Su 07:00-24:00", "operator": "Sistema de Transporte Colectivo", "public_transport": "station", "railway": "station", "station": "subway", "subway": "yes", "wikidata": "Q3356888", "wikimedia_commons": "Category:Estaci\u00f3n General Anaya (Metro de M\u00e9xico)", "wikipedia": "es:General Anaya (estaci\u00f3n)"}}, {"type": "node", "id": 30385126, "lat": 19.369771, "lon": -99.1415858, "tags": {"name": "Portales", "network": "STC Metro", "opening_hours": "Mo-Fr 05:00-24:00; Sa 06:00-24:00; Su 07:00-24:00", "operator": "Sistema de Transporte Colectivo", "railway": "station", "station": "subway", "subway": "yes", "wikidata": "Q3356960", "wikimedia_commons": "Category:Estaci\u00f3n Portales (Metro de M\u00e9xico)", "wikipedia": "es:Portales (estaci\u00f3n del Metro de Ciudad de M\u00e9xico)"}}, {"type": "node", "id": 30385133, "lat": 19.3793936, "lon": -99.1402, "tags": {"name": "Nativitas", "network": "STC Metro", "opening_hours": "Mo-Fr 05:00-24:00; Sa 06:00-24:00; Su 07:00-24:00", "operator": "Sistema de Transporte Colectivo", "public_transport": "station", "railway": "station", "station": "subway", "subway": "yes", "wikidata": "Q3356904", "wikimedia_commons": "Category:Estaci\u00f3n Nativitas (Metro de M\u00e9xico)", "wikipedia": "es:Nativitas (estaci\u00f3n)"}}, {"type": "node", "id": 30385139, "lat": 19.3875657, "lon": -99.1389557, "tags": {"internet_access": "wlan", "internet_access:fee": "no", "name": "Villa de Cort\u00e9s", "network": "STC Metro", "opening_hours": "Mo-Fr 05:00-24:00; Sa 06:00-24:00; Su 07:00-24:00", "operator": "Sistema de Transporte Colectivo", "public_transport": "station", "railway": "station", "station": "subway", "subway": "yes", "wikidata": "Q3356965", "wikimedia_commons": "Category:Estaci\u00f3n Villa de Cort\u00e9s (Metro de M\u00e9xico)", "wikipedia": "es:Villa de Cort\u00e9s (estaci\u00f3n)"}}, {"type": "node", "id": 30385145, "lat": 19.3951932, "lon": -99.1378126, "tags": {"name": "Xola", "network": "STC Metro", "opening_hours": "Mo-Fr 05:00-24:00; Sa 06:00-24:00; Su 07:00-24:00", "operator": "Sistema de Transporte Colectivo", "public_transport": "station", "railway": "station", "station": "subway", "subway": "yes", "wikidata": "Q3356924", "wikimedia_commons": "Category:Estaci\u00f3n Xola (Metro de M\u00e9xico)", "wikipedia": "es:Xola (estaci\u00f3n)"}}, {"type": "node", "id": 30385148, "lat": 19.4007878, "lon": -99.1369072, "tags": {"name": "Viaducto", "network": "STC Metro", "opening_hours": "Mo-Fr 05:00-24:00; Sa 06:00-24:00; Su 07:00-24:00", "operator": "Sistema de Transporte Colectivo", "public_transport": "station", "railway": "station", "station": "subway", "subway": "yes", "wikidata": "Q3357024", "wikimedia_commons": "Category:Estaci\u00f3n Viaducto (Metro de M\u00e9xico)", "wikipedia": "es:Viaducto (estaci\u00f3n)"}}, {"type": "node", "id": 30385186, "lat": 19.4361674, "lon": -99.1411221, "tags": {"name": "Bellas Artes", "network": "STC Metro", "network:wikidata": "Q735042", "public_transport": "stop_position", "railway": "stop", "station": "subway", "subway": "yes"}}, {"type": "node", "id": 294082204, "lat": 19.407137, "lon": -99.1444476, "tags": {"name": "L\u00e1zaro C\u00e1rdenas", "network": "STC Metro", "opening_hours": "Mo-Fr 05:00-24:00; Sa 06:00-24:00; Su 07:00-24:00", "operator": "Sistema de Transporte Colectivo", "public_transport": "station", "railway": "station", "station": "subway", "subway": "yes", "wikidata": "Q6824617", "wikimedia_commons": "Category:Estaci\u00f3n L\u00e1zaro C\u00e1rdenas (Metro de M\u00e9xico)", "wikipedia": "es:L\u00e1zaro C\u00e1rdenas (estaci\u00f3n)"}}, {"type": "node", "id": 294086737, "lat": 19.4164089, "lon": -99.0902724, "tags": {"name": "G\u00f3mez Far\u00edas", "network": "STC Metro", "public_transport": "station", "railway": "station", "station": "subway", "subway": "yes", "wikidata": "Q3356988", "wikimedia_commons": "Category:Estaci\u00f3n G\u00f3mez Far\u00edas (Metro de M\u00e9xico)", "wikipedia": "es:G\u00f3mez Far\u00edas (estaci\u00f3n)"}}, {"type": "node", "id": 294088991, "lat": 19.4267538, "lon": -99.1420543, "tags": {"name": "Salto del Agua", "network": "STC Metro", "opening_hours": "Mo-Fr 05:00-24:00; Sa 06:00-24:00; Su 07:00-24:00", "operator": "Sistema de Transporte Colectivo", "public_transport": "station", "railway": "station", "station": "subway", "subway": "yes", "wheelchair": "yes", "wikidata": "Q740243", "wikimedia_commons": "Category:Estaci\u00f3n Salto del Agua (Metro de M\u00e9xico)", "wikipedia": "es:Salto del Agua (estaci\u00f3n)"}}, {"type": "node", "id": 302324984, "lat": 19.4850096, "lon": -99.1042528, "tags": {"name": "Mart\u00edn Carrera", "public_transport": "stop_position", "railway": "stop", "station": "subway", "subway": "yes"}}, {"type": "node", "id": 308554084, "lat": 19.3615527, "lon": -99.1892568, "tags": {"description": "Last public station on line", "electrified": "rail", "frequency": "0", "gauge": "1435", "name": "Barranca del Muerto", "network": "STC Metro", "opening_hours": "Mo-Fr 05:00-24:00; Sa 06:00-24:00; Su 07:00-24:00", "operator": "Sistema de Transporte Colectivo", "public_transport": "station", "railway": "station", "service": "yard", "station": "subway", "subway": "yes", "voltage": "1500", "wikidata": "Q2885482", "wikimedia_commons": "Category:Estaci\u00f3n Barranca del Muerto (Metro de M\u00e9xico)", "wikipedia": "es:Barranca del Muerto (estaci\u00f3n)"}}, {"type": "node", "id": 308556308, "lat": 19.3845079, "lon": -99.1866332, "tags": {"electrified": "rail", "frequency": "0", "gauge": "1435", "name": "San Antonio", "network": "STC Metro", "opening_hours": "Mo-Fr 05:00-24:00; Sa 06:00-24:00; Su 07:00-24:00", "operator": "Sistema de Transporte Colectivo", "public_transport": "station", "railway": "station", "service": "yard", "station": "subway", "subway": "yes", "voltage": "1500", "wikidata": "Q6824698", "wikimedia_commons": "Category:Estaci\u00f3n San Antonio (Metro de M\u00e9xico)", "wikipedia": "es:San Antonio (estaci\u00f3n del Metro de Ciudad de M\u00e9xico)"}}, {"type": "node", "id": 308557541, "lat": 19.4117501, "lon": -99.1913845, "tags": {"electrified": "rail", "frequency": "0", "gauge": "1435", "name": "Constituyentes", "network": "STC Metro", "opening_hours": "Mo-Fr 05:00-24:00; Sa 06:00-24:00; Su 07:00-24:00", "operator": "Sistema de Transporte Colectivo", "public_transport": "station", "railway": "station", "service": "yard", "station": "subway", "subway": "yes", "voltage": "1500", "wikidata": "Q5944586", "wikimedia_commons": "Category:Estaci\u00f3n Constituyentes (Metro de M\u00e9xico)", "wikipedia": "es:Constituyentes (estaci\u00f3n)"}}, {"type": "node", "id": 308561119, "lat": 19.4249847, "lon": -99.1922567, "tags": {"electrified": "rail", "frequency": "0", "gauge": "1435", "name": "Auditorio", "network": "STC Metro", "network:wikidata": "Q735042", "opening_hours": "Mo-Fr 05:00-24:00; Sa 06:00-24:00; Su 07:00-24:00", "operator": "Sistema de Transporte Colectivo", "public_transport": "station", "railway": "station", "service": "yard", "station": "subway", "subway": "yes", "voltage": "1500", "wikidata": "Q6824492", "wikimedia_commons": "Category:Estaci\u00f3n Auditorio (Metro de M\u00e9xico)", "wikipedia": "es:Auditorio (estaci\u00f3n)"}}, {"type": "node", "id": 308561120, "lat": 19.43353, "lon": -99.190915, "tags": {"electrified": "rail", "frequency": "0", "gauge": "1435", "name": "Polanco", "network": "STC Metro", "opening_hours": "Mo-Fr 05:00-24:00; Sa 06:00-24:00; Su 07:00-24:00", "operator": "Sistema de Transporte Colectivo", "public_transport": "station", "railway": "station", "service": "yard", "station": "subway", "subway": "yes", "train": "yes", "voltage": "1500", "wikidata": "Q6824672", "wikimedia_commons": "Category:Estaci\u00f3n Polanco (Metro de M\u00e9xico)", "wikipedia": "es:Polanco (estaci\u00f3n, Metro de la Ciudad de M\u00e9xico)"}}, {"type": "node", "id": 308562800, "lat": 19.4696029, "lon": -99.1904631, "tags": {"electrified": "rail", "frequency": "0", "gauge": "1435", "name": "Refiner\u00eda", "network": "STC Metro", "opening_hours": "Mo-Fr 05:00-24:00; Sa 06:00-24:00; Su 07:00-24:00", "operator": "Sistema de Transporte Colectivo", "public_transport": "station", "railway": "station", "service": "yard", "station": "subway", "subway": "yes", "voltage": "1500", "wikidata": "Q9067431", "wikimedia_commons": "Category:Estaci\u00f3n Refiner\u00eda (Metro de M\u00e9xico)", "wikipedia": "es:Refiner\u00eda (estaci\u00f3n)"}}, {"type": "node", "id": 308564178, "lat": 19.4791036, "lon": -99.1900262, "tags": {"electrified": "rail", "frequency": "0", "gauge": "1435", "name": "Camarones", "network": "STC Metro", "opening_hours": "Mo-Fr 05:00-24:00; Sa 06:00-24:00; Su 07:00-24:00", "operator": "Sistema de Transporte Colectivo", "public_transport": "station", "railway": "station", "service": "yard", "station": "subway", "subway": "yes", "train": "yes", "voltage": "1500", "wikidata": "Q6824514", "wikimedia_commons": "Category:Estaci\u00f3n Camarones (Metro de M\u00e9xico)", "wikipedia": "es:Camarones (estaci\u00f3n)"}}, {"type": "node", "id": 308564186, "lat": 19.4905558, "lon": -99.1952293, "tags": {"electrified": "rail", "frequency": "0", "gauge": "1435", "name": "Aquiles Serd\u00e1n", "network": "STC Metro", "opening_hours": "Mo-Fr 05:00-24:00; Sa 06:00-24:00; Su 07:00-24:00", "operator": "Sistema de Transporte Colectivo", "public_transport": "station", "railway": "station", "service": "yard", "station": "subway", "subway": "yes", "train": "yes", "voltage": "1500", "wikidata": "Q6824477", "wikimedia_commons": "Category:Estaci\u00f3n Aquiles Serd\u00e1n (Metro de M\u00e9xico)", "wikipedia": "es:Aquiles Serd\u00e1n (estaci\u00f3n)"}}, {"type": "node", "id": 313766837, "lat": 19.4703076, "lon": -99.136996}, {"type": "node", "id": 331418388, "lat": 19.3761724, "lon": -99.1873605}, {"type": "node", "id": 331418390, "lat": 19.3761041, "lon": -99.1870945}, {"type": "node", "id": 331418396, "lat": 19.376081, "lon": -99.187387}, {"type": "node", "id": 331418399, "lat": 19.3760122, "lon": -99.1871218}, {"type": "node", "id": 331992516, "lat": 19.3763244, "lon": -99.187892}, {"type": "node", "id": 331992517, "lat": 19.3764141, "lon": -99.1878808}, {"type": "node", "id": 331992518, "lat": 19.3764461, "lon": -99.18817}, {"type": "node", "id": 331992519, "lat": 19.3763563, "lon": -99.1881815}, {"type": "node", "id": 332582398, "lat": 19.4356463, "lon": -99.0836015, "tags": {"monorail": "yes", "name": "Terminal 1", "public_transport": "station", "railway": "station", "station": "monorail"}}, {"type": "node", "id": 351113759, "lat": 19.4880621, "lon": -99.1350725, "tags": {"name": "Lindavista", "network": "STC Metro", "opening_hours": "Mo-Fr 05:00-24:00; Sa 06:00-24:00; Su 07:00-24:00", "operator": "Sistema de Transporte Colectivo", "public_transport": "station", "railway": "station", "station": "subway", "subway": "yes", "wheelchair": "yes", "wikidata": "Q6824614", "wikimedia_commons": "Category:Estaci\u00f3n Lindavista (Metro de M\u00e9xico)", "wikipedia": "es:Lindavista (estaci\u00f3n)"}}, {"type": "node", "id": 351114417, "lat": 19.4949382, "lon": -99.1960298, "tags": {"name": "Tezoz\u00f3moc", "network": "STC Metro", "opening_hours": "Mo-Fr 05:00-24:00; Sa 06:00-24:00; Su 07:00-24:00", "operator": "Sistema de Transporte Colectivo", "public_transport": "station", "railway": "station", "station": "subway", "subway": "yes", "wikidata": "Q6824734", "wikimedia_commons": "Category:Estaci\u00f3n Tezoz\u00f3moc (Metro de M\u00e9xico)", "wikipedia": "es:Tezoz\u00f3moc (estaci\u00f3n)"}}, {"type": "node", "id": 351114595, "lat": 19.4908969, "lon": -99.1862889, "tags": {"name": "UAM-Azcapotzalco", "network": "STC Metro", "opening_hours": "Mo-Fr 05:00-24:00; Sa 06:00-24:00; Su 07:00-24:00", "operator": "Sistema de Transporte Colectivo", "public_transport": "station", "railway": "station", "station": "subway", "subway": "yes", "wikidata": "Q6824498", "wikimedia_commons": "Category:Estaci\u00f3n UAM-Azcapotzalco (Metro de M\u00e9xico)", "wikipedia": "es:UAM-Azcapotzalco (estaci\u00f3n)"}}, {"type": "node", "id": 351114805, "lat": 19.4906783, "lon": -99.173913, "tags": {"name": "Ferrer\u00eda/Arena Ciudad de M\u00e9xico", "network": "STC Metro", "opening_hours": "Mo-Fr 05:00-24:00; Sa 06:00-24:00; Su 07:00-24:00", "operator": "Sistema de Transporte Colectivo", "public_transport": "station", "railway": "station", "station": "subway", "subway": "yes", "wheelchair": "no", "wikidata": "Q619422", "wikimedia_commons": "Category:Estaci\u00f3n Ferrer\u00eda/Arena Ciudad de M\u00e9xico (Metro de M\u00e9xico)", "wikipedia": "es:Ferrer\u00eda/Arena Ciudad de M\u00e9xico (estaci\u00f3n)"}}, {"type": "node", "id": 351114820, "lat": 19.4886464, "lon": -99.1629873, "tags": {"name": "Norte 45", "network": "STC Metro", "opening_hours": "Mo-Fr 05:00-24:00; Sa 06:00-24:00; Su 07:00-24:00", "operator": "Sistema de Transporte Colectivo", "public_transport": "station", "railway": "station", "station": "subway", "subway": "yes", "wikidata": "Q6824650", "wikimedia_commons": "Category:Estaci\u00f3n Norte 45 (Metro de M\u00e9xico)", "wikipedia": "es:Norte 45 (estaci\u00f3n)"}}, {"type": "node", "id": 351114867, "lat": 19.4897759, "lon": -99.1561238, "tags": {"name": "Vallejo", "network": "STC Metro", "opening_hours": "Mo-Fr 05:00-24:00; Sa 06:00-24:00; Su 07:00-24:00", "operator": "Sistema de Transporte Colectivo", "public_transport": "station", "railway": "station", "station": "subway", "subway": "yes", "wikidata": "Q6824762", "wikimedia_commons": "Category:Estaci\u00f3n Vallejo (Metro de M\u00e9xico)", "wikipedia": "es:Vallejo (estaci\u00f3n)"}}, {"type": "node", "id": 351115062, "lat": 19.4816035, "lon": -99.1184474, "tags": {"name": "La Villa-Bas\u00edlica", "network": "STC Metro", "opening_hours": "Mo-Fr 05:00-24:00; Sa 06:00-24:00; Su 07:00-24:00", "operator": "Sistema de Transporte Colectivo", "public_transport": "station", "railway": "station", "station": "subway", "subway": "yes", "train": "yes", "wikidata": "Q2836136", "wikimedia_commons": "Category:Estaci\u00f3n La Villa-Bas\u00edlica (Metro de M\u00e9xico)", "wikipedia": "es:La Villa-Bas\u00edlica (estaci\u00f3n)"}}, {"type": "node", "id": 506035217, "lat": 19.3459153, "lon": -99.0637399, "tags": {"name": "Constituci\u00f3n de 1917", "network": "STC Metro", "opening_hours": "Mo-Fr 05:00-24:00; Sa 06:00-24:00; Su 07:00-24:00", "operator": "Sistema de Transporte Colectivo", "public_transport": "station", "railway": "station", "station": "subway", "subway": "yes", "wheelchair": "yes", "wikidata": "Q6824546", "wikimedia_commons": "Category:Estaci\u00f3n Constituci\u00f3n de 1917 (Metro de M\u00e9xico)", "wikipedia": "es:Constituci\u00f3n de 1917 (estaci\u00f3n)"}}, {"type": "node", "id": 554750099, "lat": 19.3559895, "lon": -99.0856882, "tags": {"name": "Cerro de la Estrella", "network": "STC Metro", "opening_hours": "Mo-Fr 05:00-24:00; Sa 06:00-24:00; Su 07:00-24:00", "operator": "Sistema de Transporte Colectivo", "public_transport": "station", "railway": "station", "station": "subway", "subway": "yes", "wikidata": "Q8344273", "wikimedia_commons": "Category:Estaci\u00f3n Cerro de la Estrella (Metro de M\u00e9xico)", "wikipedia": "es:Cerro de la Estrella (estaci\u00f3n)"}}, {"type": "node", "id": 554754754, "lat": 19.351, "lon": -99.0747979, "tags": {"name": "UAM-I", "network": "STC Metro", "opening_hours": "Mo-Fr 05:00-24:00; Sa 06:00-24:00; Su 07:00-24:00", "operator": "Sistema de Transporte Colectivo", "public_transport": "station", "railway": "station", "station": "subway", "subway": "yes", "wikidata": "Q6824756", "wikimedia_commons": "Category:Estaci\u00f3n UAM-I (Metro de M\u00e9xico)", "wikipedia": "es:UAM-I (estaci\u00f3n)"}}, {"type": "node", "id": 555064969, "lat": 19.3791527, "lon": -99.1095076, "tags": {"name": "Apatlaco", "network": "STC Metro", "opening_hours": "Mo-Fr 05:00-24:00; Sa 06:00-24:00; Su 07:00-24:00", "operator": "Sistema de Transporte Colectivo", "public_transport": "station", "railway": "station", "station": "subway", "subway": "yes", "wikidata": "Q6824476", "wikimedia_commons": "Category:Estaci\u00f3n Apatlaco (Metro de M\u00e9xico)", "wikipedia": "es:Apatlaco (estaci\u00f3n)"}}, {"type": "node", "id": 555065028, "lat": 19.3880913, "lon": -99.1120396, "tags": {"name": "Iztacalco", "network": "STC Metro", "opening_hours": "Mo-Fr 05:00-24:00; Sa 06:00-24:00; Su 07:00-24:00", "operator": "Sistema de Transporte Colectivo", "public_transport": "station", "railway": "station", "station": "subway", "subway": "yes", "wheelchair": "yes", "wikidata": "Q3431125", "wikimedia_commons": "Category:Estaci\u00f3n Iztacalco (Metro de M\u00e9xico)", "wikipedia": "es:Iztacalco (estaci\u00f3n)"}}, {"type": "node", "id": 555066276, "lat": 19.3649049, "lon": -99.1095471, "tags": {"name": "Escuadr\u00f3n 201", "network": "STC Metro", "opening_hours": "Mo-Fr 05:00-24:00; Sa 06:00-24:00; Su 07:00-24:00", "operator": "Sistema de Transporte Colectivo", "public_transport": "station", "railway": "station", "station": "subway", "subway": "yes", "wikidata": "Q3431185", "wikimedia_commons": "Category:Estaci\u00f3n Escuadr\u00f3n 201 (Metro de M\u00e9xico)", "wikipedia": "es:Escuadr\u00f3n 201 (estaci\u00f3n)"}}, {"type": "node", "id": 555066702, "lat": 19.3733127, "lon": -99.1076646, "tags": {"name": "Aculco", "network": "STC Metro", "opening_hours": "Mo-Fr 05:00-24:00; Sa 06:00-24:00; Su 07:00-24:00", "operator": "Sistema de Transporte Colectivo", "public_transport": "station", "railway": "station", "station": "subway", "subway": "yes", "wikidata": "Q6824471", "wikimedia_commons": "Category:Estaci\u00f3n Aculco (Metro de M\u00e9xico)", "wikipedia": "es:Aculco (estaci\u00f3n)"}}, {"type": "node", "id": 555069072, "lat": 19.4083782, "lon": -99.1125396, "tags": {"name": "Mixiuhca", "network": "STC Metro", "opening_hours": "Mo-Fr 05:00-24:00; Sa 06:00-24:00; Su 07:00-24:00", "operator": "Sistema de Transporte Colectivo", "public_transport": "station", "railway": "station", "station": "subway", "subway": "yes", "wikidata": "Q3431067", "wikimedia_commons": "Category:Estaci\u00f3n Mixiuhca (Metro de M\u00e9xico)", "wikipedia": "es:Mixiuhca (estaci\u00f3n)"}}, {"type": "node", "id": 555079051, "lat": 19.4066635, "lon": -99.12626, "tags": {"name": "La Viga", "network": "STC Metro", "opening_hours": "Mo-Fr 05:00-24:00; Sa 06:00-24:00; Su 07:00-24:00", "operator": "Sistema de Transporte Colectivo", "public_transport": "station", "railway": "station", "station": "subway", "subway": "yes", "wikidata": "Q9019049", "wikimedia_commons": "Category:Estaci\u00f3n La Viga (Metro de M\u00e9xico)", "wikipedia": "es:La Viga (estaci\u00f3n)"}}, {"type": "node", "id": 555079073, "lat": 19.4132002, "lon": -99.1440487, "tags": {"name": "Obrera", "network": "STC Metro", "opening_hours": "Mo-Fr 05:00-24:00; Sa 06:00-24:00; Su 07:00-24:00", "operator": "Sistema de Transporte Colectivo", "public_transport": "station", "railway": "station", "station": "subway", "subway": "yes", "wikidata": "Q6824651", "wikimedia_commons": "Category:Estaci\u00f3n Obrera (Metro de M\u00e9xico)", "wikipedia": "es:Obrera (estaci\u00f3n)"}}, {"type": "node", "id": 555079083, "lat": 19.4214424, "lon": -99.14322, "tags": {"name": "Doctores", "network": "STC Metro", "opening_hours": "Mo-Fr 05:00-24:00; Sa 06:00-24:00; Su 07:00-24:00", "operator": "Sistema de Transporte Colectivo", "public_transport": "station", "railway": "station", "station": "subway", "subway": "yes", "wikidata": "Q2837042", "wikimedia_commons": "Category:Estaci\u00f3n Doctores (Metro de M\u00e9xico)", "wikipedia": "es:Doctores (estaci\u00f3n)"}}, {"type": "node", "id": 555081970, "lat": 19.4312856, "lon": -99.1413291, "tags": {"name": "San Juan de Letr\u00e1n", "network": "STC Metro", "opening_hours": "Mo-Fr 05:00-24:00; Sa 06:00-24:00; Su 07:00-24:00", "operator": "Sistema de Transporte Colectivo", "public_transport": "station", "railway": "station", "station": "subway", "subway": "yes", "train": "yes", "wikidata": "Q5691609", "wikimedia_commons": "Category:Estaci\u00f3n San Juan de Letr\u00e1n (Metro de M\u00e9xico)", "wikipedia": "es:San Juan de Letr\u00e1n (estaci\u00f3n)"}}, {"type": "node", "id": 681448501, "lat": 19.4449744, "lon": -99.1917953, "tags": {"electrified": "rail", "frequency": "0", "gauge": "1435", "name": "San Joaqu\u00edn", "network": "STC Metro", "opening_hours": "Mo-Fr 05:00-24:00; Sa 06:00-24:00; Su 07:00-24:00", "operator": "Sistema de Transporte Colectivo", "public_transport": "station", "railway": "station", "service": "yard", "station": "subway", "subway": "yes", "voltage": "1500", "wikidata": "Q6824700", "wikimedia_commons": "Category:Estaci\u00f3n San Joaqu\u00edn (Metro de M\u00e9xico)", "wikipedia": "es:San Joaqu\u00edn (estaci\u00f3n del Metro de Ciudad de M\u00e9xico)"}}, {"type": "node", "id": 681454741, "lat": 19.3911516, "lon": -99.1859103, "tags": {"electrified": "rail", "frequency": "0", "gauge": "1435", "name": "San Pedro de los Pinos", "network": "STC Metro", "opening_hours": "Mo-Fr 05:00-24:00; Sa 06:00-24:00; Su 07:00-24:00", "operator": "Sistema de Transporte Colectivo", "public_transport": "station", "railway": "station", "service": "yard", "station": "subway", "subway": "yes", "voltage": "1500", "wikidata": "Q5841189", "wikimedia_commons": "Category:Estaci\u00f3n San Pedro de los Pinos (Metro de M\u00e9xico)", "wikipedia": "es:San Pedro de los Pinos (estaci\u00f3n)"}}, {"type": "node", "id": 842889550, "lat": 19.4059029, "lon": -99.1685264, "tags": {"name": "Chilpancingo", "network": "STC Metro", "opening_hours": "Mo-Fr 05:00-24:00; Sa 06:00-24:00; Su 07:00-24:00", "operator": "Sistema de Transporte Colectivo", "public_transport": "station", "railway": "station", "station": "subway", "subway": "yes", "wikidata": "Q3431073", "wikimedia_commons": "Category:Estaci\u00f3n Chilpancingo (Metro de M\u00e9xico)", "wikipedia": "es:Chilpancingo (estaci\u00f3n)"}}, {"type": "node", "id": 1111845446, "lat": 19.4210421, "lon": -99.0789153, "tags": {"monorail": "yes", "name": "Terminal 2", "public_transport": "station", "railway": "station", "station": "monorail"}}, {"type": "node", "id": 1130113572, "lat": 19.3071806, "lon": -99.143096, "tags": {"covered": "yes", "light_rail": "yes", "name": "El Vergel", "network": "Tren Ligero", "operator": "Servicio de Transportes El\u00e9ctricos del D.F.", "public_transport": "station", "railway": "station", "station": "light_rail"}}, {"type": "node", "id": 1130113671, "lat": 19.2827408, "lon": -99.1396781, "tags": {"light_rail": "yes", "name": "Perif\u00e9rico", "network": "Tren Ligero", "operator": "Servicio de Transportes El\u00e9ctricos del D.F.", "public_transport": "station", "railway": "station", "station": "light_rail", "wheelchair": "no"}}, {"type": "node", "id": 1130113729, "lat": 19.3125522, "lon": -99.1405772, "tags": {"covered": "yes", "light_rail": "yes", "name": "Textitlan", "network": "Tren Ligero", "operator": "Servicio de Transportes El\u00e9ctricos del D.F.", "public_transport": "station", "railway": "station", "station": "light_rail"}}, {"type": "node", "id": 1130113733, "lat": 19.2887789, "lon": -99.146835, "tags": {"light_rail": "yes", "name": "Xomali", "network": "Tren Ligero", "operator": "Servicio de Transportes El\u00e9ctricos del D.F.", "public_transport": "station", "railway": "station", "station": "light_rail"}}, {"type": "node", "id": 1130113753, "lat": 19.2643906, "lon": -99.1186154, "tags": {"covered": "yes", "light_rail": "yes", "name": "Huichapan", "network": "Tren Ligero", "operator": "Servicio de Transportes El\u00e9ctricos del D.F.", "public_transport": "station", "railway": "station", "station": "light_rail"}}, {"type": "node", "id": 1130113790, "lat": 19.25946, "lon": -99.1081278, "tags": {"covered": "yes", "light_rail": "yes", "name": "Xochimilco", "network": "Tren Ligero", "operator": "Servicio de Transportes El\u00e9ctricos del D.F.", "public_transport": "station", "railway": "station", "station": "light_rail"}}, {"type": "node", "id": 1130113794, "lat": 19.267884, "lon": -99.1255474, "tags": {"covered": "yes", "light_rail": "yes", "name": "La Noria", "network": "Tren Ligero", "operator": "Servicio de Transportes El\u00e9ctricos del D.F.", "public_transport": "station", "railway": "station", "station": "light_rail"}}, {"type": "node", "id": 1130113803, "lat": 19.2794642, "lon": -99.1331288, "tags": {"covered": "yes", "light_rail": "yes", "name": "Tepepan", "network": "Tren Ligero", "operator": "Servicio de Transportes El\u00e9ctricos del D.F.", "public_transport": "station", "railway": "station", "station": "light_rail"}}, {"type": "node", "id": 1130113836, "lat": 19.2607304, "lon": -99.1112785, "tags": {"covered": "yes", "light_rail": "yes", "name": "Francisco Goitia", "network": "Tren Ligero", "operator": "Servicio de Transportes El\u00e9ctricos del D.F.", "public_transport": "station", "railway": "station", "station": "light_rail"}}, {"type": "node", "id": 1130113868, "lat": 19.3436739, "lon": -99.1404751, "tags": {"alt_name": "Taxque\u00f1a", "covered": "yes", "light_rail": "yes", "name": "Tasque\u00f1a", "network": "STE Tren Ligero", "operator": "Servicio de Transportes El\u00e9ctricos del D.F.", "public_transport": "station", "railway": "station", "station": "light_rail"}}, {"type": "node", "id": 1149526719, "lat": 19.3602817, "lon": -98.9952089, "tags": {"name": "Santa Marta", "network": "STC Metro", "opening_hours": "Mo-Fr 05:00-24:00; Sa 06:00-24:00; Su 07:00-24:00", "operator": "Sistema de Transporte Colectivo", "public_transport": "station", "railway": "station", "station": "subway", "subway": "yes", "wheelchair": "yes", "wikidata": "Q9074085", "wikimedia_commons": "Category:Estaci\u00f3n Santa Marta (Metro de M\u00e9xico)", "wikipedia": "es:Santa Marta (estaci\u00f3n)"}}, {"type": "node", "id": 1155147125, "lat": 19.3732744, "lon": -99.0170442, "tags": {"name": "Pe\u00f1\u00f3n Viejo", "network": "STC Metro", "opening_hours": "Mo-Fr 05:00-24:00; Sa 06:00-24:00; Su 07:00-24:00", "operator": "Sistema de Transporte Colectivo", "public_transport": "station", "railway": "station", "station": "subway", "subway": "yes", "wikidata": "Q9058930", "wikimedia_commons": "Category:Estaci\u00f3n Pe\u00f1\u00f3n Viejo (Metro de M\u00e9xico)", "wikipedia": "es:Pe\u00f1\u00f3n Viejo (estaci\u00f3n)"}}, {"type": "node", "id": 1155147244, "lat": 19.3851177, "lon": -99.0356205, "tags": {"name": "Guelatao", "network": "STC Metro", "opening_hours": "Mo-Fr 05:00-24:00; Sa 06:00-24:00; Su 07:00-24:00", "operator": "Sistema de Transporte Colectivo", "public_transport": "station", "railway": "station", "station": "subway", "subway": "yes", "wikidata": "Q6824577", "wikimedia_commons": "Category:Estaci\u00f3n Guelatao (Metro de M\u00e9xico)", "wikipedia": "es:Guelatao (estaci\u00f3n)"}}, {"type": "node", "id": 1155521581, "lat": 19.398764, "lon": -99.0594334, "tags": {"name": "Canal de San Juan", "network": "STC Metro", "opening_hours": "Mo-Fr 05:00-24:00; Sa 06:00-24:00; Su 07:00-24:00", "operator": "Sistema de Transporte Colectivo", "public_transport": "station", "railway": "station", "station": "subway", "subway": "yes", "wheelchair": "no", "wikidata": "Q6824517", "wikimedia_commons": "Category:Estaci\u00f3n Canal de San Juan (Metro de M\u00e9xico)", "wikipedia": "es:Canal de San Juan (estaci\u00f3n)"}}, {"type": "node", "id": 1155521678, "lat": 19.4045642, "lon": -99.0695045, "tags": {"name": "Agr\u00edcola Oriental", "network": "STC Metro", "opening_hours": "Mo-Fr 05:00-24:00; Sa 06:00-24:00; Su 07:00-24:00", "operator": "Sistema de Transporte Colectivo", "public_transport": "station", "railway": "station", "station": "subway", "subway": "yes", "wikidata": "Q8191806", "wikimedia_commons": "Category:Estaci\u00f3n Agr\u00edcola Oriental (Metro de M\u00e9xico)", "wikipedia": "es:Agr\u00edcola Oriental (estaci\u00f3n)"}}, {"type": "node", "id": 1155521764, "lat": 19.3907727, "lon": -99.0456431}, {"type": "node", "id": 1155638742, "lat": 19.4198663, "lon": -99.0963172, "tags": {"name": "Boulevard Puerto A\u00e9reo", "network": "STC Metro", "old_name": "Aeropuerto", "public_transport": "station", "railway": "station", "subway": "yes", "wheelchair": "yes", "wikidata": "Q2630441", "wikimedia_commons": "Category:Estaci\u00f3n Boulevard Puerto A\u00e9reo (Metro de M\u00e9xico)", "wikipedia": "es:Bulevar Puerto A\u00e9reo (estaci\u00f3n)"}}, {"type": "node", "id": 1155638781, "lat": 19.4120659, "lon": -99.0827131, "tags": {"name": "Zaragoza", "network": "STC Metro", "public_transport": "station", "railway": "station", "station": "subway", "subway": "yes", "wheelchair": "yes", "wikidata": "Q3356989", "wikimedia_commons": "Category:Estaci\u00f3n Zaragoza (Metro de M\u00e9xico)", "wikipedia": "es:Zaragoza (estaci\u00f3n)"}}, {"type": "node", "id": 1155680835, "lat": 19.4255407, "lon": -99.1255053, "tags": {"name": "Merced", "network": "STC Metro", "public_transport": "station", "railway": "station", "station": "subway", "subway": "yes", "wikidata": "Q3356980", "wikimedia_commons": "Category:Estaci\u00f3n Merced (Metro de M\u00e9xico)", "wikipedia": "es:Merced (estaci\u00f3n)"}}, {"type": "node", "id": 1158001795, "lat": 19.4263577, "lon": -99.1378401, "tags": {"name": "Isabel la Cat\u00f3lica", "network": "STC Metro", "public_transport": "station", "railway": "station", "station": "subway", "subway": "yes", "wikidata": "Q3356870", "wikimedia_commons": "Category:Estaci\u00f3n Isabel la Cat\u00f3lica (Metro de M\u00e9xico)", "wikipedia": "es:Isabel la Cat\u00f3lica (estaci\u00f3n)"}}, {"type": "node", "id": 1991237943, "lat": 19.2943676, "lon": -99.0240388, "tags": {"name": "Tlaltenco", "network": "STC Metro", "opening_hours": "Mo-Fr 05:00-24:00; Sa 06:00-24:00; Su 07:00-24:00", "operator": "Sistema de Transporte Colectivo", "public_transport": "station", "railway": "station", "station": "subway", "subway": "yes", "wikidata": "Q2883637", "wikimedia_commons": "Category:Estaci\u00f3n Tlaltenco (Metro de M\u00e9xico)", "wikipedia": "es:Tlaltenco (estaci\u00f3n)"}}, {"type": "node", "id": 2081866441, "lat": 19.3613563, "lon": -99.151486, "tags": {"name": "Eje Central", "network": "STC Metro", "opening_hours": "Mo-Fr 05:00-24:00; Sa 06:00-24:00; Su 07:00-24:00", "operator": "Sistema de Transporte Colectivo", "public_transport": "station", "railway": "station", "station": "subway", "subway": "yes", "toilets:wheelchair": "yes", "wheelchair": "yes", "wikidata": "Q5644140", "wikimedia_commons": "Category:Estaci\u00f3n Eje Central (Metro de M\u00e9xico)", "wikipedia": "es:Eje central (estaci\u00f3n)"}}, {"type": "node", "id": 2081866443, "lat": 19.3719536, "lon": -99.1707596, "tags": {"name": "Hospital 20 de Noviembre", "network": "STC Metro", "opening_hours": "Mo-Fr 05:00-24:00; Sa 06:00-24:00; Su 07:00-24:00", "operator": "Sistema de Transporte Colectivo", "public_transport": "station", "railway": "station", "station": "subway", "subway": "yes", "wheelchair": "yes", "wikidata": "Q5902535", "wikimedia_commons": "Category:Estaci\u00f3n Hospital 20 de Noviembre (Metro de M\u00e9xico)", "wikipedia": "es:Hospital 20 de Noviembre (estaci\u00f3n)"}}, {"type": "node", "id": 2081866445, "lat": 19.3221728, "lon": -99.0956838, "tags": {"name": "Lomas Estrella", "network": "STC Metro", "opening_hours": "Mo-Fr 05:00-24:00; Sa 06:00-24:00; Su 07:00-24:00", "operator": "Sistema de Transporte Colectivo", "public_transport": "station", "railway": "station", "station": "subway", "subway": "yes", "wheelchair": "yes", "wikidata": "Q5978599", "wikimedia_commons": "Category:Estaci\u00f3n Lomas Estrella (Metro de M\u00e9xico)", "wikipedia": "es:Lomas Estrella (estaci\u00f3n)"}}, {"type": "node", "id": 2081866446, "lat": 19.3205052, "lon": -99.0858929, "tags": {"name": "Calle 11", "network": "STC Metro", "opening_hours": "Mo-Fr 05:00-24:00; Sa 06:00-24:00; Su 07:00-24:00", "operator": "Sistema de Transporte Colectivo", "public_transport": "station", "railway": "station", "station": "subway", "subway": "yes", "wheelchair": "yes", "wikidata": "Q5740298", "wikimedia_commons": "Category:Estaci\u00f3n Calle 11 (Metro de M\u00e9xico)", "wikipedia": "es:Calle 11 (estaci\u00f3n)"}}, {"type": "node", "id": 2081866456, "lat": 19.357663, "lon": -99.1226854, "tags": {"name": "Mexicaltzingo", "network": "STC Metro", "opening_hours": "Mo-Fr 05:00-24:00; Sa 06:00-24:00; Su 07:00-24:00", "operator": "Sistema de Transporte Colectivo", "public_transport": "station", "railway": "station", "station": "subway", "subway": "yes", "wheelchair": "yes", "wikidata": "Q6012160", "wikimedia_commons": "Category:Estaci\u00f3n Mexicaltzingo (Metro de M\u00e9xico)", "wikipedia": "es:Mexicaltzingo (estaci\u00f3n)"}}, {"type": "node", "id": 2081866459, "lat": 19.3736688, "lon": -99.1788103, "tags": {"layer": "-1", "level": "-2", "name": "Insurgentes Sur", "network": "Metro CDMX", "opening_hours": "Mo-Fr 05:00-00:00; Sa 06:00-00:00; Su 07:00-00:00", "operator": "Sistema de Transporte Colectivo", "public_transport": "stop_position", "railway": "stop", "station": "subway", "subway": "yes"}}, {"type": "node", "id": 2081866461, "lat": 19.336909, "lon": -99.1089421, "tags": {"name": "Culhuac\u00e1n", "network": "STC Metro", "opening_hours": "Mo-Fr 05:00-24:00; Sa 06:00-24:00; Su 07:00-24:00", "operator": "Sistema de Transporte Colectivo", "public_transport": "station", "railway": "station", "station": "subway", "subway": "yes", "wheelchair": "yes", "wikidata": "Q5794406", "wikimedia_commons": "Category:Estaci\u00f3n Culhuac\u00e1n (Metro de M\u00e9xico)", "wikipedia": "es:Culhuac\u00e1n (estaci\u00f3n)"}}, {"type": "node", "id": 2084929420, "lat": 19.4492099, "lon": -99.1718924, "tags": {"name": "Colegio Militar", "network": "STC Metro", "public_transport": "station", "railway": "station", "station": "subway", "subway": "yes", "wikidata": "Q3356873", "wikimedia_commons": "Category:Estaci\u00f3n Colegio Militar (Metro de M\u00e9xico)", "wikipedia": "es:Colegio Militar (estaci\u00f3n)"}}, {"type": "node", "id": 2160084598, "lat": 19.4488073, "lon": -99.116142, "tags": {"name": "Canal del Norte", "network": "STC Metro", "opening_hours": "Mo-Fr 05:00-24:00; Sa 06:00-24:00; Su 07:00-24:00", "operator": "Sistema de Transporte Colectivo", "public_transport": "station", "railway": "station", "station": "subway", "subway": "yes", "wikidata": "Q6824521", "wikimedia_commons": "Category:Estaci\u00f3n Canal del Norte (Metro de M\u00e9xico)", "wikipedia": "es:Canal del Norte (estaci\u00f3n)"}}, {"type": "node", "id": 2160084601, "lat": 19.4547688, "lon": -99.1131148, "tags": {"name": "Consulado L5", "network": "STC Metro", "network:wikidata": "Q735042", "public_transport": "stop_position", "railway": "stop", "station": "subway", "subway": "yes"}}, {"type": "node", "id": 2266072021, "lat": 19.429901, "lon": -99.1210422}, {"type": "node", "id": 2266072030, "lat": 19.4298932, "lon": -99.1207508}, {"type": "node", "id": 2266072053, "lat": 19.4292805, "lon": -99.1210587}, {"type": "node", "id": 2266078290, "lat": 19.4294377, "lon": -99.1194573}, {"type": "node", "id": 2266078294, "lat": 19.4294024, "lon": -99.1192011}, {"type": "node", "id": 2266097735, "lat": 19.4296575, "lon": -99.1210494}, {"type": "node", "id": 2266097736, "lat": 19.429424, "lon": -99.1207308}, {"type": "node", "id": 2266097737, "lat": 19.4294306, "lon": -99.1210542}, {"type": "node", "id": 2266097738, "lat": 19.4296584, "lon": -99.1210857}, {"type": "node", "id": 2266097740, "lat": 19.4294317, "lon": -99.1210924}, {"type": "node", "id": 2266097741, "lat": 19.4296522, "lon": -99.1207581}, {"type": "node", "id": 2266097743, "lat": 19.4296513, "lon": -99.120724}, {"type": "node", "id": 2266099010, "lat": 19.4399053, "lon": -99.1188262}, {"type": "node", "id": 2266104543, "lat": 19.4856667, "lon": -99.1037334}, {"type": "node", "id": 2266104544, "lat": 19.4843146, "lon": -99.1047834}, {"type": "node", "id": 2266104546, "lat": 19.4844591, "lon": -99.1049928}, {"type": "node", "id": 2266104547, "lat": 19.4858114, "lon": -99.1039431}, {"type": "node", "id": 2266111986, "lat": 19.4743767, "lon": -99.108026, "tags": {"name": "Talism\u00e1n", "network": "STC Metro", "public_transport": "station", "railway": "station"}}, {"type": "node", "id": 2266111991, "lat": 19.4646427, "lon": -99.111975, "tags": {"name": "Bondojito", "network": "STC Metro", "opening_hours": "Mo-Fr 05:00-24:00; Sa 06:00-24:00; Su 07:00-24:00", "operator": "Sistema de Transporte Colectivo", "public_transport": "station", "railway": "station", "station": "subway", "subway": "yes", "wikidata": "Q6824506", "wikimedia_commons": "Category:Estaci\u00f3n Bondojito (Metro de M\u00e9xico)", "wikipedia": "es:Bondojito (estaci\u00f3n)"}}, {"type": "node", "id": 2266125571, "lat": 19.4288048, "lon": -99.1193914, "tags": {"name": "Candelaria L4", "network": "STC Metro", "network:wikidata": "Q735042", "public_transport": "station", "railway": "station", "station": "subway", "subway": "yes"}}, {"type": "node", "id": 2266125613, "lat": 19.4215897, "lon": -99.1205069, "tags": {"name": "Fray Servando", "network": "STC Metro", "network:wikidata": "Q735042", "opening_hours": "Mo-Fr 05:00-24:00; Sa 06:00-24:00; Su 07:00-24:00", "operator": "Sistema de Transporte Colectivo", "public_transport": "station", "railway": "station", "station": "subway", "subway": "yes", "wikidata": "Q6824573", "wikimedia_commons": "Category:Estaci\u00f3n Fray Servando (Metro de M\u00e9xico)", "wikipedia": "es:Fray Servando (estaci\u00f3n)"}}, {"type": "node", "id": 2266125668, "lat": 19.4108977, "lon": -99.121726, "tags": {"name": "Jamaica", "network": "STC Metro", "network:wikidata": "Q735042", "public_transport": "station", "railway": "station", "station": "subway", "subway": "yes", "wikidata": "Q3377006", "wikimedia_commons": "Category:Estaci\u00f3n Jamaica (Metro de M\u00e9xico)", "wikipedia": "es:Jamaica (estaci\u00f3n del Metro de Ciudad de M\u00e9xico)"}}, {"type": "node", "id": 2266164095, "lat": 19.4060319, "lon": -99.178752, "tags": {"name": "Patriotismo", "network": "STC Metro", "opening_hours": "Mo-Fr 05:00-24:00; Sa 06:00-24:00; Su 07:00-24:00", "operator": "Sistema de Transporte Colectivo", "public_transport": "station", "railway": "station", "station": "subway", "subway": "yes", "wikidata": "Q6824665", "wikimedia_commons": "Category:Estaci\u00f3n Patriotismo (Metro de M\u00e9xico)", "wikipedia": "es:Patriotismo (estaci\u00f3n)"}}, {"type": "node", "id": 2266277419, "lat": 19.4619778, "lon": -99.0614842}, {"type": "node", "id": 2266277420, "lat": 19.4613748, "lon": -99.0611373}, {"type": "node", "id": 2266277421, "lat": 19.4613413, "lon": -99.0611259}, {"type": "node", "id": 2266277422, "lat": 19.4617337, "lon": -99.0614577}, {"type": "node", "id": 2266277423, "lat": 19.4616184, "lon": -99.0613694}, {"type": "node", "id": 2266277424, "lat": 19.4614049, "lon": -99.0621115}, {"type": "node", "id": 2266277425, "lat": 19.4618228, "lon": -99.0606814}, {"type": "node", "id": 2266277426, "lat": 19.4614462, "lon": -99.0622088}, {"type": "node", "id": 2266277427, "lat": 19.4617505, "lon": -99.0614064}, {"type": "node", "id": 2266277428, "lat": 19.4615275, "lon": -99.0621532}, {"type": "node", "id": 2266277429, "lat": 19.4616065, "lon": -99.0614118}, {"type": "node", "id": 2266277430, "lat": 19.4612846, "lon": -99.06131}, {"type": "node", "id": 2266277431, "lat": 19.4619122, "lon": -99.060641}, {"type": "node", "id": 2266277432, "lat": 19.4613319, "lon": -99.0612759}, {"type": "node", "id": 2266277433, "lat": 19.4619494, "lon": -99.0607219}, {"type": "node", "id": 2266277434, "lat": 19.4619638, "lon": -99.061533}, {"type": "node", "id": 2266867571, "lat": 19.3981107, "lon": -99.2001513}, {"type": "node", "id": 2266867575, "lat": 19.3984116, "lon": -99.2006773}, {"type": "node", "id": 2266867577, "lat": 19.3982043, "lon": -99.2011163}, {"type": "node", "id": 2266867578, "lat": 19.39851, "lon": -99.2002531}, {"type": "node", "id": 2266867579, "lat": 19.3983453, "lon": -99.1996767}, {"type": "node", "id": 2266867580, "lat": 19.3980126, "lon": -99.2005744}, {"type": "node", "id": 2266867581, "lat": 19.3984194, "lon": -99.2002295}, {"type": "node", "id": 2266867582, "lat": 19.3980199, "lon": -99.2010682}, {"type": "node", "id": 2266867589, "lat": 19.3981276, "lon": -99.2006043}, {"type": "node", "id": 2266867593, "lat": 19.3982281, "lon": -99.2001819}, {"type": "node", "id": 2266867595, "lat": 19.3985362, "lon": -99.1997264}, {"type": "node", "id": 2266867601, "lat": 19.3983122, "lon": -99.2006513}, {"type": "node", "id": 2266886791, "lat": 19.4266458, "lon": -99.1492016}, {"type": "node", "id": 2266886806, "lat": 19.4268468, "lon": -99.1493509}, {"type": "node", "id": 2266886810, "lat": 19.4266798, "lon": -99.1493868}, {"type": "node", "id": 2266886813, "lat": 19.4268145, "lon": -99.149172}, {"type": "node", "id": 2266969646, "lat": 19.4394214, "lon": -99.1540246}, {"type": "node", "id": 2266969648, "lat": 19.439228, "lon": -99.1538236}, {"type": "node", "id": 2266969650, "lat": 19.4393243, "lon": -99.1537805}, {"type": "node", "id": 2266969654, "lat": 19.4387508, "lon": -99.154399}, {"type": "node", "id": 2266969658, "lat": 19.4386994, "lon": -99.1542322}, {"type": "node", "id": 2266969660, "lat": 19.4389637, "lon": -99.1541417}, {"type": "node", "id": 2266969666, "lat": 19.4390145, "lon": -99.1543077}, {"type": "node", "id": 2270291510, "lat": 19.4595673, "lon": -99.1882893}, {"type": "node", "id": 2270291512, "lat": 19.4598419, "lon": -99.1880104}, {"type": "node", "id": 2270291523, "lat": 19.4595297, "lon": -99.1880709}, {"type": "node", "id": 2270291528, "lat": 19.4598795, "lon": -99.1882288}, {"type": "node", "id": 2270291557, "lat": 19.4585405, "lon": -99.1882827}, {"type": "node", "id": 2271070942, "lat": 19.4945393, "lon": -99.1195483}, {"type": "node", "id": 2271070943, "lat": 19.4959654, "lon": -99.1192157}, {"type": "node", "id": 2271070944, "lat": 19.4960208, "lon": -99.1194705}, {"type": "node", "id": 2271070945, "lat": 19.4945947, "lon": -99.1198085}, {"type": "node", "id": 2271074573, "lat": 19.48569, "lon": -99.1250577}, {"type": "node", "id": 2271074576, "lat": 19.4844622, "lon": -99.1259321}, {"type": "node", "id": 2271074580, "lat": 19.484545, "lon": -99.1260383}, {"type": "node", "id": 2271074590, "lat": 19.4856562, "lon": -99.1250081}, {"type": "node", "id": 2271077220, "lat": 19.4764192, "lon": -99.1325449}, {"type": "node", "id": 2271077239, "lat": 19.4765027, "lon": -99.1326535}, {"type": "node", "id": 2271077254, "lat": 19.4777733, "lon": -99.1316423}, {"type": "node", "id": 2271077258, "lat": 19.4776886, "lon": -99.1315136}, {"type": "node", "id": 2271087225, "lat": 19.4552178, "lon": -99.143301}, {"type": "node", "id": 2271087260, "lat": 19.45488, "lon": -99.1430097}, {"type": "node", "id": 2271087262, "lat": 19.4551391, "lon": -99.1429453}, {"type": "node", "id": 2271094761, "lat": 19.4332065, "lon": -99.1475563}, {"type": "node", "id": 2271094762, "lat": 19.4334357, "lon": -99.1478005}, {"type": "node", "id": 2271094763, "lat": 19.4331545, "lon": -99.1472241}, {"type": "node", "id": 2271094764, "lat": 19.4334713, "lon": -99.1480023}, {"type": "node", "id": 2271094766, "lat": 19.4331831, "lon": -99.1478507}, {"type": "node", "id": 2271094767, "lat": 19.4333886, "lon": -99.1475226}, {"type": "node", "id": 2271094768, "lat": 19.4333354, "lon": -99.1471923}, {"type": "node", "id": 2271094770, "lat": 19.4332186, "lon": -99.1480524}, {"type": "node", "id": 2272074900, "lat": 19.4700914, "lon": -99.1369076}, {"type": "node", "id": 2272074906, "lat": 19.4691986, "lon": -99.1362789}, {"type": "node", "id": 2272074909, "lat": 19.4691896, "lon": -99.1362933}, {"type": "node", "id": 2272074912, "lat": 19.4702792, "lon": -99.137041}, {"type": "node", "id": 2272074913, "lat": 19.4692777, "lon": -99.1361562}, {"type": "node", "id": 2272074914, "lat": 19.4703667, "lon": -99.1369023}, {"type": "node", "id": 2272074915, "lat": 19.4690601, "lon": -99.1360017}, {"type": "node", "id": 2272074923, "lat": 19.4689821, "lon": -99.1361252}, {"type": "node", "id": 2272074931, "lat": 19.4700801, "lon": -99.1369254}, {"type": "node", "id": 2272074934, "lat": 19.47018, "lon": -99.1367697}, {"type": "node", "id": 2272074937, "lat": 19.470189, "lon": -99.1367554}, {"type": "node", "id": 2272074938, "lat": 19.4692984, "lon": -99.1361235}, {"type": "node", "id": 2288627580, "lat": 19.463197, "lon": -99.1304452, "tags": {"name": "Misterios", "network": "STC Metro", "opening_hours": "Mo-Fr 05:00-24:00; Sa 06:00-24:00; Su 07:00-24:00", "operator": "Sistema de Transporte Colectivo", "public_transport": "station", "railway": "station", "station": "subway", "subway": "yes", "wikidata": "Q6824625", "wikimedia_commons": "Category:Estaci\u00f3n Misterios (Metro de M\u00e9xico)", "wikipedia": "es:Misterios (estaci\u00f3n)"}}, {"type": "node", "id": 2288627581, "lat": 19.4590353, "lon": -99.1200967, "tags": {"name": "Valle G\u00f3mez", "network": "STC Metro", "opening_hours": "Mo-Fr 05:00-24:00; Sa 06:00-24:00; Su 07:00-24:00", "operator": "Sistema de Transporte Colectivo", "public_transport": "station", "railway": "station", "station": "subway", "subway": "yes", "wikidata": "Q9092402", "wikimedia_commons": "Category:Estaci\u00f3n Valle G\u00f3mez (Metro de M\u00e9xico)", "wikipedia": "es:Valle G\u00f3mez (estaci\u00f3n)"}}, {"type": "node", "id": 2663332312, "lat": 19.3281071, "lon": -99.104439, "tags": {"name": "San Andr\u00e9s Tomatl\u00e1n", "network": "STC Metro", "opening_hours": "Mo-Fr 05:00-24:00; Sa 06:00-24:00; Su 07:00-24:00", "operator": "Sistema de Transporte Colectivo", "public_transport": "station", "railway": "station", "station": "subway", "subway": "yes", "wikidata": "Q6118305", "wikimedia_commons": "Category:Estaci\u00f3n San Andr\u00e9s Tomatl\u00e1n (Metro de M\u00e9xico)", "wikipedia": "es:San Andr\u00e9s Tomatl\u00e1n (estaci\u00f3n)"}}, {"type": "node", "id": 2811939107, "lat": 19.433027, "lon": -99.1324951, "tags": {"name": "Z\u00f3calo", "network": "STC Metro", "railway": "subway_entrance"}}, {"type": "node", "id": 2811939109, "lat": 19.4330639, "lon": -99.1320869, "tags": {"name": "Z\u00f3calo", "network": "STC Metro", "railway": "subway_entrance"}}, {"type": "node", "id": 2811939110, "lat": 19.4334362, "lon": -99.1325022, "tags": {"name": "Z\u00f3calo", "network": "STC Metro", "railway": "subway_entrance"}}, {"type": "node", "id": 3016464458, "lat": 19.3408028, "lon": -99.1434188, "tags": {"covered": "yes", "light_rail": "yes", "name": "Las Torres", "network": "Tren Ligero", "operator": "Servicio de Transportes El\u00e9ctricos del D.F.", "public_transport": "station", "railway": "station", "station": "light_rail"}}, {"type": "node", "id": 3016544532, "lat": 19.3357508, "lon": -99.1418589, "tags": {"covered": "yes", "light_rail": "yes", "name": "Ciudad Jard\u00edn", "network": "Tren Ligero", "operator": "Servicio de Transportes El\u00e9ctricos del D.F.", "public_transport": "station", "railway": "station", "station": "light_rail"}}, {"type": "node", "id": 3021939899, "lat": 19.3316668, "lon": -99.1405977, "tags": {"covered": "yes", "light_rail": "yes", "name": "La Virgen", "network": "Tren Ligero", "operator": "Servicio de Transportes El\u00e9ctricos del D.F.", "public_transport": "station", "railway": "station", "station": "light_rail"}}, {"type": "node", "id": 3021948067, "lat": 19.3274803, "lon": -99.1392952, "tags": {"covered": "yes", "light_rail": "yes", "name": "Xotepingo", "network": "Tren Ligero", "operator": "Servicio de Transportes El\u00e9ctricos del D.F.", "public_transport": "station", "railway": "station", "station": "light_rail"}}, {"type": "node", "id": 3021958260, "lat": 19.3238035, "lon": -99.1381552, "tags": {"covered": "yes", "light_rail": "yes", "name": "Nezahualpilli", "network": "Tren Ligero", "operator": "Servicio de Transportes El\u00e9ctricos del D.F.", "public_transport": "station", "railway": "station", "station": "light_rail"}}, {"type": "node", "id": 3021967669, "lat": 19.317876, "lon": -99.1388101, "tags": {"covered": "yes", "internet_access": "no", "light_rail": "yes", "name": "Registro Federal", "network": "Tren Ligero", "operator": "Servicio de Transportes El\u00e9ctricos del D.F.", "payment:cards": "yes", "payment:electronic_purses": "yes", "public_transport": "station", "railway": "station", "station": "light_rail", "website": "https://www.trenligero.com.mx"}}, {"type": "node", "id": 3649087197, "lat": 19.3437579, "lon": -99.1396585, "tags": {"alt_name": "Taxque\u00f1a", "name": "Tasque\u00f1a", "network": "STC Metro", "opening_hours": "Mo-Fr 05:00-24:00; Sa 06:00-24:00; Su 07:00-24:00", "operator": "Sistema de Transporte Colectivo", "public_transport": "station", "railway": "station", "station": "subway", "subway": "yes", "toilets:wheelchair": "yes", "train": "yes", "wheelchair": "yes", "wikidata": "Q3357320", "wikimedia_commons": "Category:Estaci\u00f3n Tasque\u00f1a (Metro de M\u00e9xico)", "wikipedia": "es:Tasque\u00f1a (estaci\u00f3n del metro)"}}, {"type": "node", "id": 3649370808, "lat": 19.4272197, "lon": -99.1419862, "tags": {"name": "Salto del Agua", "network": "STC Metro", "opening_hours": "Mo-Fr 05:00-24:00; Sa 06:00-24:00; Su 07:00-24:00", "operator": "Sistema de Transporte Colectivo", "public_transport": "stop_position", "railway": "stop", "station": "subway", "subway": "yes"}}, {"type": "node", "id": 3649370809, "lat": 19.398336, "lon": -99.1135033, "tags": {"name": "Coyuya", "network": "STC Metro", "opening_hours": "Mo-Fr 05:00-24:00; Sa 06:00-24:00; Su 07:00-24:00", "operator": "Sistema de Transporte Colectivo", "public_transport": "station", "railway": "station", "station": "subway", "subway": "yes", "wheelchair": "yes", "wikidata": "Q6824553", "wikimedia_commons": "Category:Estaci\u00f3n Coyuya (Metro de M\u00e9xico)", "wikipedia": "es:Coyuya (estaci\u00f3n)"}}, {"type": "node", "id": 3650765703, "lat": 19.3646704, "lon": -99.005643, "tags": {"name": "Acatitla", "network": "STC Metro", "opening_hours": "Mo-Fr 05:00-24:00;Sa 06:00-24:00;Su 07:00-24:00", "operator": "Sistema de Transporte Colectivo", "public_transport": "station", "railway": "station", "station": "subway", "subway": "yes", "wheelchair": "yes", "wikidata": "Q6824469", "wikimedia_commons": "Category:Estaci\u00f3n Acatitla (Metro de M\u00e9xico)", "wikipedia": "es:Acatitla (estaci\u00f3n)"}}, {"type": "node", "id": 3692692973, "lat": 19.3577446, "lon": -99.0935577, "tags": {"name": "Iztapalapa", "network": "STC Metro", "opening_hours": "Mo-Fr 05:00-24:00; Sa 06:00-24:00; Su 07:00-24:00", "operator": "Sistema de Transporte Colectivo", "public_transport": "station", "railway": "station", "station": "subway", "subway": "yes", "wikidata": "Q4204314", "wikimedia_commons": "Category:Estaci\u00f3n Iztapalapa (Metro de M\u00e9xico)", "wikipedia": "es:Iztapalapa (estaci\u00f3n)"}}, {"type": "node", "id": 4233846659, "lat": 19.428087, "lon": -99.1191814}, {"type": "node", "id": 4233846663, "lat": 19.4280342, "lon": -99.1198613}, {"type": "node", "id": 4233846671, "lat": 19.4280303, "lon": -99.1194138}, {"type": "node", "id": 4233846672, "lat": 19.4280656, "lon": -99.1196697}, {"type": "node", "id": 4523950460, "lat": 19.4083722, "lon": -99.1345802}, {"type": "node", "id": 4523950474, "lat": 19.4088008, "lon": -99.1342004}, {"type": "node", "id": 4523950477, "lat": 19.408839, "lon": -99.1344639}, {"type": "node", "id": 4575550185, "lat": 19.3849444, "lon": -99.2373474}, {"type": "node", "id": 4593462357, "lat": 19.3822384, "lon": -99.2003437, "tags": {"construction:railway": "station", "name": "Valent\u00edn Campa", "station": "subway", "subway": "yes"}}, {"type": "node", "id": 4593462358, "lat": 19.390232, "lon": -99.1968401, "tags": {"construction:railway": "station", "name": "\u00c1lvaro Obreg\u00f3n", "station": "subway", "subway": "yes"}}, {"type": "node", "id": 4613728134, "lat": 19.3761449, "lon": -99.1863277}, {"type": "node", "id": 4613728136, "lat": 19.3762128, "lon": -99.1864425}, {"type": "node", "id": 4688809545, "lat": 19.4219541, "lon": -99.1706287, "tags": {"name": "Sevilla", "network": "STC Metro", "network:wikidata": "Q735042", "public_transport": "station", "railway": "station", "station": "subway", "subway": "yes", "wheelchair": "yes", "wikidata": "Q3356943", "wikimedia_commons": "Category:Estaci\u00f3n Sevilla (Metro de M\u00e9xico)", "wikipedia": "es:Sevilla (estaci\u00f3n del Metro de Ciudad de M\u00e9xico)"}}, {"type": "node", "id": 4805301872, "lat": 19.4549587, "lon": -99.1433654}, {"type": "node", "id": 4923087436, "lat": 19.4264684, "lon": -99.1098256, "tags": {"name": "Moctezuma", "network": "STC Metro", "public_transport": "station", "railway": "station", "subway": "yes", "wheelchair": "yes", "wikidata": "Q3357017", "wikimedia_commons": "Category:Estaci\u00f3n Moctezuma (Metro de M\u00e9xico)", "wikipedia": "es:Moctezuma (estaci\u00f3n)"}}, {"type": "node", "id": 5144887283, "lat": 19.4269855, "lon": -99.1486003}, {"type": "node", "id": 5144887284, "lat": 19.4269242, "lon": -99.1485423}, {"type": "node", "id": 5144887285, "lat": 19.426863, "lon": -99.1486152}, {"type": "node", "id": 5144887286, "lat": 19.4269243, "lon": -99.1486731}, {"type": "node", "id": 5335244209, "lat": 19.4449101, "lon": -99.1451728, "tags": {"name": "Guerrero", "network": "STC Metro", "opening_hours": "Mo-Fr 05:00-24:00; Sa 06:00-24:00; Su 07:00-24:00", "operator": "Sistema de Transporte Colectivo", "public_transport": "station", "railway": "station", "station": "subway", "subway": "yes", "wikidata": "Q6824578", "wikimedia_commons": "Category:Estaci\u00f3n Guerrero (Metro de M\u00e9xico)", "wikipedia": "es:Guerrero (estaci\u00f3n)"}}, {"type": "node", "id": 5335249518, "lat": 19.3613817, "lon": -99.1708596, "tags": {"name": "Coyoac\u00e1n", "network": "STC Metro", "public_transport": "station", "railway": "station", "subway": "yes", "wikidata": "Q3366731", "wikimedia_commons": "Category:Estaci\u00f3n Coyoac\u00e1n (Metro de M\u00e9xico)", "wikipedia": "es:Coyoac\u00e1n (estaci\u00f3n)"}}, {"type": "node", "id": 5335255558, "lat": 19.354325, "lon": -99.1751123, "tags": {"name": "Viveros-Derechos Humanos", "network": "STC Metro", "old_name": "Viveros", "public_transport": "station", "railway": "station", "station": "subway", "subway": "yes", "wikidata": "Q7335651", "wikimedia_commons": "Category:Estaci\u00f3n Viveros / Derechos Humanos (Metro de M\u00e9xico)", "wikipedia": "es:Viveros-Derechos Humanos (estaci\u00f3n)"}}, {"type": "node", "id": 5335259535, "lat": 19.3462316, "lon": -99.1807881, "tags": {"name": "Miguel \u00c1ngel de Quevedo", "network": "STC Metro", "public_transport": "station", "railway": "station", "subway": "yes", "wikidata": "Q6824630", "wikimedia_commons": "Category:Estaci\u00f3n Miguel \u00c1ngel de Quevedo (Metro de M\u00e9xico)", "wikipedia": "es:Miguel \u00c1ngel de Quevedo (estaci\u00f3n)"}}, {"type": "node", "id": 5335263290, "lat": 19.3360586, "lon": -99.1770655, "tags": {"name": "Copilco", "network": "STC Metro", "public_transport": "station", "railway": "station", "station": "subway", "subway": "yes", "toilets:wheelchair": "yes", "wheelchair": "yes", "wikidata": "Q6824550", "wikimedia_commons": "Category:Estaci\u00f3n Copilco (Metro de M\u00e9xico)", "wikipedia": "es:Copilco (estaci\u00f3n)"}}, {"type": "node", "id": 5335271955, "lat": 19.3244753, "lon": -99.1739054, "tags": {"name": "Universidad", "network": "STC Metro", "public_transport": "station", "railway": "station", "station": "subway", "subway": "yes", "toilets:wheelchair": "yes", "wheelchair": "yes", "wikidata": "Q6824764", "wikimedia_commons": "Category:Estaci\u00f3n Universidad (Metro de M\u00e9xico)", "wikipedia": "es:Universidad (estaci\u00f3n de Metro de Ciudad de M\u00e9xico)"}}, {"type": "node", "id": 5335289466, "lat": 19.3706696, "lon": -99.1648064, "tags": {"name": "Zapata", "network": "STC Metro", "opening_hours": "Mo-Fr 05:00-24:00; Sa 06:00-24:00; Su 07:00-24:00", "operator": "Sistema de Transporte Colectivo", "railway": "station", "station": "subway", "subway": "yes", "wheelchair": "yes", "wikidata": "Q6824782", "wikimedia_commons": "Category:Estaci\u00f3n Zapata (Metro de M\u00e9xico)", "wikipedia": "es:Zapata (estaci\u00f3n)"}}, {"type": "node", "id": 5335301483, "lat": 19.3791517, "lon": -99.1595362, "tags": {"name": "Divisi\u00f3n del Norte", "network": "STC Metro", "public_transport": "station", "railway": "station", "subway": "yes", "wikidata": "Q6824558", "wikimedia_commons": "Category:Estaci\u00f3n Divisi\u00f3n del Norte (Metro de M\u00e9xico)", "wikipedia": "es:Divisi\u00f3n del Norte (estaci\u00f3n)"}}, {"type": "node", "id": 5335318010, "lat": 19.3861257, "lon": -99.1571902, "tags": {"name": "Eugenia", "network": "STC Metro", "public_transport": "station", "railway": "station", "station": "subway", "subway": "yes", "wikidata": "Q6824568", "wikimedia_commons": "Category:Estaci\u00f3n Eugenia (Metro de M\u00e9xico)", "wikipedia": "es:Eugenia (estaci\u00f3n)"}}, {"type": "node", "id": 5335683975, "lat": 19.419418, "lon": -99.150302, "tags": {"name": "Ni\u00f1os H\u00e9roes", "network": "STC Metro", "public_transport": "station", "railway": "station", "station": "subway", "subway": "yes", "wheelchair": "no", "wikidata": "Q6824647", "wikimedia_commons": "Category:Estaci\u00f3n Ni\u00f1os H\u00e9roes / Poder Judicial CDMX (Metro de M\u00e9xico)", "wikipedia": "es:Ni\u00f1os H\u00e9roes (estaci\u00f3n)"}}, {"type": "node", "id": 5335688062, "lat": 19.4271218, "lon": -99.1489658, "tags": {"name": "Balderas", "network": "STC Metro", "opening_hours": "Mo-Fr 05:00-24:00; Sa 06:00-24:00; Su 07:00-24:00", "operator": "Sistema de Transporte Colectivo", "public_transport": "station", "railway": "station", "station": "subway", "subway": "yes", "toilets:wheelchair": "yes", "wheelchair": "yes", "wikidata": "Q3356947", "wikimedia_commons": "Category:Estaci\u00f3n Balderas (Metro de M\u00e9xico)", "wikipedia": "es:Balderas (estaci\u00f3n)"}}, {"type": "node", "id": 5335704171, "lat": 19.455014, "lon": -99.1431694, "tags": {"name": "Tlatelolco", "network": "STC Metro", "public_transport": "station", "railway": "station", "station": "subway", "subway": "yes", "wikidata": "Q3431323", "wikimedia_commons": "Category:Estaci\u00f3n Tlatelolco (Metro de M\u00e9xico)", "wikipedia": "es:Tlatelolco (estaci\u00f3n)"}}, {"type": "node", "id": 5335707477, "lat": 19.4687443, "lon": -99.139518, "tags": {"name": "La Raza", "network": "STC Metro", "opening_hours": "Mo-Fr 05:00-24:00; Sa 06:00-24:00; Su 07:00-24:00", "operator": "Sistema de Transporte Colectivo", "railway": "station", "station": "subway", "wheelchair": "yes", "wikidata": "Q3429492", "wikimedia_commons": "Category:Estaci\u00f3n La Raza (Metro de M\u00e9xico)", "wikipedia": "es:La Raza (estaci\u00f3n)"}}, {"type": "node", "id": 5335749332, "lat": 19.402049, "lon": -99.1874725, "tags": {"indoor": "yes", "level": "-2", "location": "underground", "name": "Tacubaya", "network": "STC Metro", "opening_hours": "Mo-Fr 05:00-24:00; Sa 06:00-24:00; Su 07:00-24:00", "operator": "Sistema de Transporte Colectivo", "public_transport": "station", "railway": "station", "station": "subway", "subway": "yes", "wikidata": "Q2744158", "wikimedia_commons": "Category:Estaci\u00f3n Tacubaya (Metro de M\u00e9xico)", "wikipedia": "es:Tacubaya (estaci\u00f3n)"}}, {"type": "node", "id": 5335750526, "lat": 19.4129786, "lon": -99.18199, "tags": {"name": "Juanacatl\u00e1n", "network": "STC Metro", "opening_hours": "Mo-Fr 05:00-24:00; Sa 06:00-24:00; Su 07:00-24:00", "operator": "Sistema de Transporte Colectivo", "public_transport": "station", "railway": "station", "station": "subway", "subway": "yes", "wikidata": "Q3356938", "wikimedia_commons": "Category:Estaci\u00f3n Juanacatl\u00e1n (Metro de M\u00e9xico)", "wikipedia": "es:Juanacatl\u00e1n (estaci\u00f3n)"}}, {"type": "node", "id": 5335762554, "lat": 19.420702, "lon": -99.1768378, "tags": {"name": "Chapultepec", "network": "STC Metro", "public_transport": "station", "railway": "station", "station": "subway", "subway": "yes", "wikidata": "Q3357035", "wikimedia_commons": "Category:Estaci\u00f3n Chapultepec (Metro de M\u00e9xico)", "wikipedia": "es:Chapultepec (estaci\u00f3n)"}}, {"type": "node", "id": 5335789644, "lat": 19.4259177, "lon": -99.1330004, "tags": {"name": "Pino Su\u00e1rez", "network": "STC Metro", "opening_hours": "Mo-Fr 05:00-24:00; Sa 06:00-24:00; Su 07:00-24:00", "operator": "Sistema de Transporte Colectivo", "public_transport": "station", "railway": "station", "station": "subway", "subway": "yes", "wheelchair": "yes", "wikidata": "Q3357008", "wikimedia_commons": "Category:Estaci\u00f3n Pino Su\u00e1rez (Metro de M\u00e9xico)", "wikipedia": "es:Pino Su\u00e1rez (estaci\u00f3n)"}}, {"type": "node", "id": 5337579689, "lat": 19.4295765, "lon": -99.1209047, "tags": {"name": "Candelaria L1", "network": "STC Metro", "network:wikidata": "Q735042", "operator": "Sistema de Transporte Colectivo", "public_transport": "station", "railway": "station", "station": "subway", "subway": "yes"}}, {"type": "node", "id": 5337596249, "lat": 19.4231214, "lon": -99.1023994, "tags": {"name": "Balbuena", "network": "STC Metro", "public_transport": "station", "railway": "station", "station": "subway", "subway": "yes", "wheelchair": "yes", "wikidata": "Q3356881", "wikimedia_commons": "Category:Estaci\u00f3n Balbuena (Metro de M\u00e9xico)", "wikipedia": "es:Balbuena (estaci\u00f3n)"}}, {"type": "node", "id": 5339522597, "lat": 19.4586893, "lon": -99.2030401, "tags": {"name": "Panteones", "network": "STC Metro", "public_transport": "station", "railway": "station", "station": "subway", "subway": "yes", "wikidata": "Q3357000", "wikimedia_commons": "Category:Estaci\u00f3n Panteones (Metro de M\u00e9xico)", "wikipedia": "es:Panteones (estaci\u00f3n)"}}, {"type": "node", "id": 5339524622, "lat": 19.458901, "lon": -99.1871316, "tags": {"name": "Tacuba", "network": "STC Metro", "public_transport": "station", "railway": "station", "station": "subway", "subway": "yes", "wikidata": "Q3356901", "wikimedia_commons": "Category:Estaci\u00f3n Tacuba (Metro de M\u00e9xico)", "wikipedia": "es:Tacuba (estaci\u00f3n)"}}, {"type": "node", "id": 5339538498, "lat": 19.4572284, "lon": -99.1814675, "tags": {"name": "Cuitl\u00e1huac", "network": "STC Metro", "public_transport": "station", "railway": "station", "station": "subway", "subway": "yes", "wikidata": "Q3357029", "wikimedia_commons": "Category:Estaci\u00f3n Cuitl\u00e1huac (Metro de M\u00e9xico)", "wikipedia": "es:Cuitl\u00e1huac (estaci\u00f3n)"}}, {"type": "node", "id": 5339541353, "lat": 19.4528599, "lon": -99.1754624, "tags": {"name": "Popotla", "network": "STC Metro", "public_transport": "station", "railway": "station", "station": "subway", "subway": "yes", "wikidata": "Q3356929", "wikimedia_commons": "Category:Estaci\u00f3n Popotla (Metro de M\u00e9xico)", "wikipedia": "es:Popotla (estaci\u00f3n)"}}, {"type": "node", "id": 5339546329, "lat": 19.4445654, "lon": -99.1673519, "tags": {"name": "Normal", "network": "STC Metro", "public_transport": "station", "railway": "station", "station": "subway", "subway": "yes", "wikidata": "Q3356995", "wikimedia_commons": "Category:Estaci\u00f3n Normal (Metro de M\u00e9xico)", "wikipedia": "es:Normal (estaci\u00f3n)"}}, {"type": "node", "id": 5339546600, "lat": 19.4391338, "lon": -99.1539905, "tags": {"name": "Revoluci\u00f3n", "network": "STC Metro", "public_transport": "station", "railway": "station", "station": "subway", "subway": "yes", "wikidata": "Q3357042", "wikimedia_commons": "Category:Estaci\u00f3n Revoluci\u00f3n (Metro de M\u00e9xico)", "wikipedia": "es:Revoluci\u00f3n (estaci\u00f3n)"}}, {"type": "node", "id": 5339549119, "lat": 19.4419205, "lon": -99.160696, "tags": {"name": "San Cosme", "network": "STC Metro", "public_transport": "station", "railway": "station", "station": "subway", "subway": "yes", "wikidata": "Q3356972", "wikimedia_commons": "Category:Estaci\u00f3n San Cosme (Metro de M\u00e9xico)", "wikipedia": "es:San Cosme (estaci\u00f3n)"}}, {"type": "node", "id": 5339555634, "lat": 19.4325, "lon": -99.1322452, "tags": {"level": "-1", "name": "Z\u00f3calo/Tenochtitlan", "network": "STC Metro", "opening_hours": "Mo-Fr 05:00-24:00; Sa 06:00-24:00; Su 07:00-24:00", "operator": "Sistema de Transporte Colectivo", "public_transport": "station", "railway": "station", "station": "subway", "subway": "yes", "wheelchair": "limited", "wikidata": "Q3356920", "wikimedia_commons": "Category:Estaci\u00f3n Z\u00f3calo/Tenochtitlan (Metro de M\u00e9xico)", "wikipedia": "es:Z\u00f3calo/Tenochtitlan (estaci\u00f3n)"}}, {"type": "node", "id": 5339567361, "lat": 19.4160351, "lon": -99.1345491, "tags": {"name": "San Antonio Abad", "network": "STC Metro", "public_transport": "station", "railway": "station", "station": "subway", "subway": "yes", "wheelchair": "no", "wikidata": "Q3356897", "wikimedia_commons": "Category:Estaci\u00f3n San Antonio Abad (Metro de M\u00e9xico)", "wikipedia": "es:San Antonio Abad (estaci\u00f3n)"}}, {"type": "node", "id": 5339640805, "lat": 19.4090955, "lon": -99.1355234, "tags": {"name": "Chabacano", "network": "STC Metro", "public_transport": "station", "railway": "station", "station": "subway", "subway": "yes", "wheelchair": "yes", "wikidata": "Q3317707", "wikimedia_commons": "Category:Estaci\u00f3n Chabacano (Metro de M\u00e9xico)", "wikipedia": "es:Chabacano (estaci\u00f3n)"}}, {"type": "node", "id": 5358301208, "lat": 19.3177274, "lon": -99.0746315, "tags": {"name": "Perif\u00e9rico Oriente", "network": "STC Metro", "opening_hours": "Mo-Fr 05:00-24:00; Sa 06:00-24:00; Su 07:00-24:00", "operator": "Sistema de Transporte Colectivo", "public_transport": "station", "railway": "station", "station": "subway", "subway": "yes", "wheelchair": "yes", "wikidata": "Q6072488", "wikimedia_commons": "Category:Estaci\u00f3n Perif\u00e9rico Oriente (Metro de M\u00e9xico)", "wikipedia": "es:Perif\u00e9rico Oriente (estaci\u00f3n)"}}, {"type": "node", "id": 5358430107, "lat": 19.4152415, "lon": -99.0745031, "tags": {"name": "Pantitl\u00e1n", "network": "STC Metro", "opening_hours": "Mo-Fr 05:00-24:00; Sa 06:00-24:00; Su 07:00-24:00", "operator": "Sistema de Transporte Colectivo", "public_transport": "station", "railway": "station", "station": "subway", "subway": "yes", "wheelchair": "yes", "wikidata": "Q3352997", "wikimedia_commons": "Category:Estaci\u00f3n Pantitl\u00e1n (Metro de M\u00e9xico)", "wikipedia": "es:Pantitl\u00e1n (estaci\u00f3n)"}}, {"type": "node", "id": 5358443126, "lat": 19.4300375, "lon": -99.1141346, "tags": {"name": "San L\u00e1zaro", "network": "STC Metro", "opening_hours": "Mo-Fr 05:00-24:00; Sa 06:00-24:00; Su 07:00-24:00", "operator": "Sistema de Transporte Colectivo", "public_transport": "station", "railway": "station", "station": "subway", "subway": "yes", "toilets:wheelchair": "yes", "wheelchair": "yes", "wikidata": "Q3356984", "wikimedia_commons": "Category:Estaci\u00f3n San L\u00e1zaro (Metro de M\u00e9xico)", "wikipedia": "es:San L\u00e1zaro (estaci\u00f3n)"}}, {"type": "node", "id": 5358459287, "lat": 19.4439202, "lon": -99.1388026, "tags": {"name": "Garibaldi-Lagunilla", "network": "STC Metro", "network:wikidata": "Q735042", "opening_hours": "Mo-Fr 05:00-24:00; Sa 06:00-24:00; Su 07:00-24:00", "operator": "Sistema de Transporte Colectivo", "public_transport": "station", "railway": "station", "station": "subway", "subway": "yes", "wikidata": "Q1147620", "wikimedia_commons": "Category:Estaci\u00f3n Garibaldi / Lagunilla (Metro de M\u00e9xico)", "wikipedia": "es:Garibaldi-Lagunilla (estaci\u00f3n)"}}, {"type": "node", "id": 5358462886, "lat": 19.4456761, "lon": -99.087175, "tags": {"name": "Ocean\u00eda", "network": "STC Metro", "network:wikidata": "Q735042", "opening_hours": "Mo-Fr 05:00-24:00; Sa 06:00-24:00; Su 07:00-24:00", "operator": "Sistema de Transporte Colectivo", "public_transport": "station", "railway": "station", "start_date": "1981", "station": "subway", "subway": "yes", "wheelchair": "yes", "wikidata": "Q522857", "wikimedia_commons": "Category:Estaci\u00f3n Ocean\u00eda (Metro de M\u00e9xico)", "wikipedia": "es:Ocean\u00eda (estaci\u00f3n)"}}, {"type": "node", "id": 5363864103, "lat": 19.4827528, "lon": -99.1068373, "tags": {"name": "Mart\u00edn Carrera", "network": "STC Metro", "network:wikidata": "Q735042", "opening_hours": "Mo-Fr 05:00-24:00; Sa 06:00-24:00; Su 07:00-24:00", "operator": "Sistema de Transporte Colectivo", "public_transport": "station", "railway": "station", "station": "subway", "subway": "yes", "wheelchair": "yes", "wikidata": "Q6824623", "wikimedia_commons": "Category:Estaci\u00f3n Mart\u00edn Carrera (Metro de M\u00e9xico)", "wikipedia": "es:Mart\u00edn Carrera (estaci\u00f3n)"}}, {"type": "node", "id": 5382498627, "lat": 19.5046746, "lon": -99.1999321, "tags": {"name": "El Rosario", "network": "STC Metro", "opening_hours": "Mo-Fr 05:00-24:00; Sa 06:00-24:00; Su 07:00-24:00", "operator": "Sistema de Transporte Colectivo", "public_transport": "station", "railway": "station", "station": "subway", "subway": "yes", "wheelchair": "yes"}}, {"type": "node", "id": 5382514908, "lat": 19.4843428, "lon": -99.1250883, "tags": {"name": "Deportivo 18 de Marzo", "network": "STC Metro", "opening_hours": "Mo-Fr 05:00-24:00; Sa 06:00-24:00; Su 07:00-24:00", "operator": "Sistema de Transporte Colectivo", "public_transport": "station", "railway": "station", "station": "subway", "subway": "yes", "wikidata": "Q3431319", "wikimedia_commons": "Category:Estaci\u00f3n Deportivo 18 de Marzo (Metro de M\u00e9xico)", "wikipedia": "es:Deportivo 18 de Marzo (estaci\u00f3n)"}}, {"type": "node", "id": 5383897872, "lat": 19.40367, "lon": -99.1215493, "tags": {"name": "Santa Anita", "network": "STC Metro", "opening_hours": "Mo-Fr 05:00-24:00; Sa 06:00-24:00; Su 07:00-24:00", "operator": "Sistema de Transporte Colectivo", "public_transport": "station", "railway": "station", "station": "subway", "subway": "yes", "wikidata": "Q6824703", "wikimedia_commons": "Category:Estaci\u00f3n Santa Anita (Metro de M\u00e9xico)", "wikipedia": "es:Santa Anita (estaci\u00f3n)"}}, {"type": "node", "id": 5383914298, "lat": 19.4397067, "lon": -99.1190037, "tags": {"name": "Morelos", "network": "STC Metro", "opening_hours": "Mo-Fr 05:00-24:00; Sa 06:00-24:00; Su 07:00-24:00", "operator": "Sistema de Transporte Colectivo", "public_transport": "station", "railway": "station", "station": "subway", "subway": "yes", "wikidata": "Q9035123", "wikimedia_commons": "Category:Estaci\u00f3n Morelos (Metro de M\u00e9xico)", "wikipedia": "es:Morelos (estaci\u00f3n)"}}, {"type": "node", "id": 5383932843, "lat": 19.4065257, "lon": -99.1551569, "tags": {"name": "Centro M\u00e9dico", "network": "STC Metro", "opening_hours": "Mo-Fr 05:00-24:00; Sa 06:00-24:00; Su 07:00-24:00", "operator": "Sistema de Transporte Colectivo", "public_transport": "station", "railway": "station", "station": "subway", "subway": "yes", "wikidata": "Q5810513", "wikimedia_commons": "Category:Estaci\u00f3n Centro M\u00e9dico (Metro de M\u00e9xico)", "wikipedia": "es:Centro M\u00e9dico (estaci\u00f3n)"}}, {"type": "node", "id": 5838999962, "lat": 19.4092623, "lon": -99.135002}, {"type": "node", "id": 5838999965, "lat": 19.4092197, "lon": -99.1350086}, {"type": "node", "id": 5838999975, "lat": 19.4092053, "lon": -99.1349004}, {"type": "node", "id": 5838999976, "lat": 19.4091049, "lon": -99.1349155}, {"type": "node", "id": 5838999977, "lat": 19.4091194, "lon": -99.1350241}, {"type": "node", "id": 5838999978, "lat": 19.4090699, "lon": -99.1350317}, {"type": "node", "id": 5838999979, "lat": 19.4090553, "lon": -99.1349224}, {"type": "node", "id": 5838999980, "lat": 19.4089549, "lon": -99.1349374}, {"type": "node", "id": 5838999981, "lat": 19.4089696, "lon": -99.1350472}, {"type": "node", "id": 6256741338, "lat": 19.4023055, "lon": -99.1865323}, {"type": "node", "id": 6256741339, "lat": 19.4023157, "lon": -99.1865272}, {"type": "node", "id": 6256741341, "lat": 19.4022817, "lon": -99.1864631}, {"type": "node", "id": 6256741342, "lat": 19.402272, "lon": -99.18647}, {"type": "node", "id": 6256741343, "lat": 19.4022651, "lon": -99.1864799}, {"type": "node", "id": 6256741344, "lat": 19.4022616, "lon": -99.1864917}, {"type": "node", "id": 6256741345, "lat": 19.4023239, "lon": -99.1865189}, {"type": "node", "id": 6256741346, "lat": 19.4023152, "lon": -99.1864658}, {"type": "node", "id": 6256741347, "lat": 19.4023045, "lon": -99.1864608}, {"type": "node", "id": 6256741348, "lat": 19.4022929, "lon": -99.1864599}, {"type": "node", "id": 6256741349, "lat": 19.4022661, "lon": -99.1865155}, {"type": "node", "id": 6256741350, "lat": 19.4022734, "lon": -99.1865247}, {"type": "node", "id": 6256741351, "lat": 19.4022831, "lon": -99.186531}, {"type": "node", "id": 6256741352, "lat": 19.4022942, "lon": -99.1865336}, {"type": "node", "id": 6406950274, "lat": 19.3981643, "lon": -99.2001667}, {"type": "node", "id": 6572510416, "lat": 19.2976326, "lon": -99.1506935, "tags": {"light_rail": "yes", "name": "Huipulco", "public_transport": "station", "railway": "station", "station": "light_rail", "wikidata": "Q5904760", "wikimedia_commons": "Category:Estaci\u00f3n Huipulco (tren ligero de la Ciudad de M\u00e9xico)", "wikipedia": "es:Huipulco (estaci\u00f3n)"}}, {"type": "node", "id": 6572510418, "lat": 19.3018345, "lon": -99.1470604, "tags": {"light_rail": "yes", "name": "Estadio Azteca", "public_transport": "station", "railway": "station", "station": "light_rail"}}, {"type": "node", "id": 6577130616, "lat": 19.3984611, "lon": -99.2002404}, {"type": "node", "id": 6577130617, "lat": 19.3983588, "lon": -99.2006635}, {"type": "node", "id": 6577130618, "lat": 19.3980606, "lon": -99.2005869}, {"type": "node", "id": 6949058012, "lat": 19.44738, "lon": -99.1520066, "tags": {"addr:city": "Ciudad de M\u00e9xico", "name": "Buenavista", "network": "FC Suburbano de M\u00e9xico", "operator": "Ferrocarriles Suburbanos", "operator:wikidata": "Q122709670", "public_transport": "station", "railway": "station", "toilets:wheelchair": "yes", "train": "yes", "wheelchair": "yes", "wikidata": "Q54867396", "wikimedia_commons": "Category:Buenavista Station", "wikipedia": "es:Buenavista (estaci\u00f3n Ferrocarril Suburbano de la Zona Metropolitana del Valle de M\u00e9xico)"}}, {"type": "node", "id": 7007923225, "lat": 19.4917527, "lon": -99.1710681, "tags": {"name": "Fortuna", "network": "FC Suburbano de M\u00e9xico", "operator": "Ferrocarriles Suburbanos", "operator:wikidata": "Q122709670", "public_transport": "station", "railway": "station", "wheelchair": "yes"}}, {"type": "node", "id": 7364482552, "lat": 19.3555105, "lon": -99.1013043, "tags": {"name": "Atlalilco", "railway": "station", "station": "subway"}}, {"type": "node", "id": 7393104448, "lat": 19.3876178, "lon": -99.1392575, "tags": {"name": "Metro Villa de Cort\u00e9s", "network": "STC", "public_transport": "station", "railway": "station", "station": "subway", "subway": "yes"}}, {"type": "node", "id": 7887964505, "lat": 19.4281885, "lon": -99.1196945}, {"type": "node", "id": 8307507296, "lat": 19.4614991, "lon": -99.0613307}, {"type": "node", "id": 8307507297, "lat": 19.4614865, "lon": -99.0613738}, {"type": "node", "id": 8307507298, "lat": 19.4618124, "lon": -99.0614835}, {"type": "node", "id": 8307507299, "lat": 19.4618276, "lon": -99.0614328}, {"type": "node", "id": 9048690791, "lat": 19.3849905, "lon": -99.2373488}, {"type": "node", "id": 9048690792, "lat": 19.3848349, "lon": -99.2373441}, {"type": "node", "id": 9048690793, "lat": 19.3848855, "lon": -99.23544}, {"type": "node", "id": 9048690794, "lat": 19.3850415, "lon": -99.2354446}, {"type": "node", "id": 9867671342, "lat": 19.384995, "lon": -99.2354432}, {"type": "node", "id": 10171375840, "lat": 19.4136617, "lon": -99.1532797, "tags": {"name": "Hospital General", "network": "STC Metro", "platforms": "2", "public_transport": "station", "railway": "station", "station": "subway", "subway": "yes", "toilets:wheelchair": "yes", "wheelchair": "yes", "wikidata": "Q6824588", "wikimedia_commons": "Category:Estaci\u00f3n Hospital General (Metro de M\u00e9xico)", "wikipedia": "es:Hospital General (estaci\u00f3n)"}}, {"type": "node", "id": 10173855113, "lat": 19.2999294, "lon": -99.0459579, "tags": {"name": "Nopalera", "network": "STC Metro", "opening_hours": "Mo-Fr 05:00-24:00; Sa 06:00-24:00; Su 07:00-24:00", "operator": "Sistema de Transporte Colectivo", "public_transport": "station", "railway": "station", "source": "Esri World Imagery (2023-07-24)", "start_date": "2012-10-30", "station": "subway", "subway": "yes", "wheelchair": "yes", "wikidata": "Q6044683", "wikimedia_commons": "Category:Estaci\u00f3n Nopalera (Metro de M\u00e9xico)", "wikipedia": "es:Nopalera (estaci\u00f3n)"}}, {"type": "node", "id": 10186972399, "lat": 19.4076054, "lon": -99.15543}, {"type": "node", "id": 10186972400, "lat": 19.4075978, "lon": -99.155301}, {"type": "node", "id": 10564807710, "lat": 19.3960312, "lon": -99.156033, "tags": {"name": "Etiop\u00eda/Plaza de la Transparencia", "network": "STC Metro", "network:wikidata": "Q735042", "public_transport": "station", "railway": "station", "station": "subway", "subway": "yes", "wikidata": "Q3429486", "wikimedia_commons": "Category:Estaci\u00f3n Etiop\u00eda / Plaza de la Transparencia (Metro de M\u00e9xico)", "wikipedia": "es:Etiop\u00eda-Plaza de la Transparencia (estaci\u00f3n)"}}, {"type": "node", "id": 10617177085, "lat": 19.4466527, "lon": -99.1526936}, {"type": "node", "id": 10822915441, "lat": 19.4292941, "lon": -99.1327544, "tags": {"railway": "subway_entrance"}}, {"type": "node", "id": 10932517612, "lat": 19.4592593, "lon": -99.0744795}, {"type": "node", "id": 10932517613, "lat": 19.4592339, "lon": -99.0745474}, {"type": "node", "id": 10932517614, "lat": 19.4592057, "lon": -99.0745355}, {"type": "node", "id": 10932517615, "lat": 19.4591656, "lon": -99.0746425}, {"type": "node", "id": 10932517616, "lat": 19.4591364, "lon": -99.0746302}, {"type": "node", "id": 10932517617, "lat": 19.4591123, "lon": -99.0746943}, {"type": "node", "id": 10932517618, "lat": 19.4590501, "lon": -99.0746681}, {"type": "node", "id": 10932517619, "lat": 19.4590711, "lon": -99.0746119}, {"type": "node", "id": 10932517620, "lat": 19.459, "lon": -99.0745819}, {"type": "node", "id": 10932517621, "lat": 19.4590362, "lon": -99.0744853}, {"type": "node", "id": 10932517622, "lat": 19.4589512, "lon": -99.0744495}, {"type": "node", "id": 10932517623, "lat": 19.4589832, "lon": -99.0743641}, {"type": "node", "id": 10947619374, "lat": 19.429899, "lon": -99.1209684}, {"type": "node", "id": 10947619375, "lat": 19.4303483, "lon": -99.120951}, {"type": "node", "id": 10947619376, "lat": 19.4303509, "lon": -99.1207887}, {"type": "node", "id": 10947619377, "lat": 19.4298945, "lon": -99.120801}, {"type": "node", "id": 10947619378, "lat": 19.4290495, "lon": -99.1207338}, {"type": "node", "id": 10947619379, "lat": 19.4290001, "lon": -99.1202966}, {"type": "node", "id": 10947619380, "lat": 19.4289331, "lon": -99.1196139}, {"type": "node", "id": 10947619381, "lat": 19.4289222, "lon": -99.1195371}, {"type": "node", "id": 10947619382, "lat": 19.4291788, "lon": -99.1194973}, {"type": "node", "id": 10947619383, "lat": 19.4292092, "lon": -99.1198168}, {"type": "node", "id": 10947619384, "lat": 19.4292741, "lon": -99.1198098}, {"type": "node", "id": 10947619385, "lat": 19.4292434, "lon": -99.1194873}, {"type": "node", "id": 10947619386, "lat": 19.4292189, "lon": -99.1192296}, {"type": "node", "id": 10947619387, "lat": 19.4291858, "lon": -99.1188815}, {"type": "node", "id": 10947619388, "lat": 19.429121, "lon": -99.1188884}, {"type": "node", "id": 10947619389, "lat": 19.4291543, "lon": -99.1192396}, {"type": "node", "id": 10947619390, "lat": 19.4282006, "lon": -99.1193874}, {"type": "node", "id": 10947619391, "lat": 19.4281279, "lon": -99.1193986}, {"type": "node", "id": 10947619392, "lat": 19.4280903, "lon": -99.1196658}, {"type": "node", "id": 10947619393, "lat": 19.4280977, "lon": -99.1197092}, {"type": "node", "id": 10947619394, "lat": 19.4280527, "lon": -99.1199986}, {"type": "node", "id": 10947619395, "lat": 19.4281497, "lon": -99.11998}, {"type": "node", "id": 10947619396, "lat": 19.4281832, "lon": -99.1196515}, {"type": "node", "id": 10947619397, "lat": 19.4286141, "lon": -99.1195848}, {"type": "node", "id": 10947619398, "lat": 19.4289817, "lon": -99.1208026}, {"type": "node", "id": 10947619399, "lat": 19.4289136, "lon": -99.1208029}, {"type": "node", "id": 10947619400, "lat": 19.4289237, "lon": -99.1209801}, {"type": "node", "id": 10947619401, "lat": 19.4292785, "lon": -99.1209838}, {"type": "node", "id": 10947619402, "lat": 19.4280616, "lon": -99.1198571}, {"type": "node", "id": 10947619403, "lat": 19.4281375, "lon": -99.1198895}, {"type": "node", "id": 10947619404, "lat": 19.4281633, "lon": -99.1191647}, {"type": "node", "id": 10947660406, "lat": 19.4286224, "lon": -99.1197159}, {"type": "node", "id": 10947660407, "lat": 19.4288686, "lon": -99.1196871}, {"type": "node", "id": 11013265297, "lat": 19.2860695, "lon": -99.0142154, "tags": {"name": "Tlahuac", "public_transport": "station", "railway": "station", "station": "subway", "subway": "yes", "wheelchair": "yes"}}, {"type": "node", "id": 11059788206, "lat": 19.3062608, "lon": -99.0651959, "tags": {"name": "Tezonco", "network": "STC Metro", "opening_hours": "Mo-Fr 05:00-24:00; Sa 06:00-24:00; Su 07:00-24:00", "operator": "Sistema de Transporte Colectivo", "public_transport": "station", "railway": "station", "source": "Esri World Imagery (2021-05-04)", "start_date": "2012-10-30", "station": "subway", "subway": "yes", "wheelchair": "yes", "wikidata": "Q6143783", "wikimedia_commons": "Category:Estaci\u00f3n Tezonco (Metro de M\u00e9xico)", "wikipedia": "es:Tezonco (estaci\u00f3n)"}}, {"type": "node", "id": 11059788207, "lat": 19.3042837, "lon": -99.0594631, "tags": {"name": "Olivos", "network": "STC Metro", "opening_hours": "Mo-Fr 05:00-24:00; Sa 06:00-24:00; Su 07:00-24:00", "operator": "Sistema de Transporte Colectivo", "public_transport": "station", "railway": "station", "source": "Esri World Imagery (2021-05-04)", "start_date": "2012-10-30", "station": "subway", "subway": "yes", "wikidata": "Q6050104", "wikimedia_commons": "Category:Estaci\u00f3n Olivos (Metro de M\u00e9xico)", "wikipedia": "es:Olivos (estaci\u00f3n)"}}, {"type": "node", "id": 11093005922, "lat": 19.3644384, "lon": -99.2679302}, {"type": "node", "id": 11093005923, "lat": 19.3629829, "lon": -99.2689984}, {"type": "node", "id": 11093005924, "lat": 19.3631815, "lon": -99.2693069, "tags": {"noexit": "yes"}}, {"type": "node", "id": 11093005925, "lat": 19.3646437, "lon": -99.2682445}, {"type": "node", "id": 11123979412, "lat": 19.4321904, "lon": -99.1325888}, {"type": "node", "id": 11123979413, "lat": 19.4321413, "lon": -99.1325958}, {"type": "node", "id": 11123979416, "lat": 19.43305, "lon": -99.132492}, {"type": "node", "id": 11123979417, "lat": 19.4330043, "lon": -99.1324981}, {"type": "node", "id": 11166740914, "lat": 19.2966699, "lon": -99.0342124, "tags": {"name": "Zapotitl\u00e1n", "network": "STC Metro", "opening_hours": "Mo-Fr 05:00-24:00; Sa 06:00-24:00; Su 07:00-24:00", "operator": "Sistema de Transporte Colectivo", "public_transport": "station", "railway": "station", "station": "subway", "subway": "yes", "wikidata": "Q9097529", "wikimedia_commons": "Category:Estaci\u00f3n Zapotitl\u00e1n (Metro de M\u00e9xico)", "wikipedia": "es:Zapotitl\u00e1n (estaci\u00f3n)"}}, {"type": "node", "id": 11232636379, "lat": 19.4023292, "lon": -99.1865082}, {"type": "node", "id": 11232636380, "lat": 19.4023309, "lon": -99.1864963}, {"type": "node", "id": 11232636381, "lat": 19.402329, "lon": -99.1864845}, {"type": "node", "id": 11232636382, "lat": 19.4023235, "lon": -99.1864739}, {"type": "node", "id": 11232636383, "lat": 19.4022619, "lon": -99.186504}, {"type": "node", "id": 11278142984, "lat": 19.4314319, "lon": -99.1325123}, {"type": "node", "id": 11278142985, "lat": 19.4315112, "lon": -99.132502}, {"type": "node", "id": 11278142986, "lat": 19.4315796, "lon": -99.1325267}, {"type": "node", "id": 11278142987, "lat": 19.4313723, "lon": -99.1325539}, {"type": "node", "id": 11278142988, "lat": 19.4313684, "lon": -99.1325207}, {"type": "node", "id": 11278142989, "lat": 19.4315757, "lon": -99.1324934}, {"type": "node", "id": 11323110136, "lat": 19.4236015, "lon": -99.1633188, "tags": {"internet_access": "no", "name": "Insurgentes", "network": "STC Metro", "public_transport": "station", "railway": "station", "station": "subway", "subway": "yes", "wheelchair": "yes", "wikidata": "Q3301776", "wikimedia_commons": "Category:Estaci\u00f3n Insurgentes (Metro de M\u00e9xico)", "wikipedia": "es:Insurgentes (estaci\u00f3n)"}}, {"type": "node", "id": 11628046427, "lat": 19.4021224, "lon": -99.1880841}, {"type": "node", "id": 11628046428, "lat": 19.4020611, "lon": -99.1880675}, {"type": "node", "id": 11628046429, "lat": 19.4020334, "lon": -99.1881825}, {"type": "node", "id": 11628046430, "lat": 19.4020947, "lon": -99.188199}, {"type": "node", "id": 11635609286, "lat": 19.432998, "lon": -99.1324404}, {"type": "node", "id": 11635609287, "lat": 19.4321172, "lon": -99.1325521}, {"type": "node", "id": 11635609288, "lat": 19.4320665, "lon": -99.1325585}, {"type": "node", "id": 11635609289, "lat": 19.4320583, "lon": -99.1324843}, {"type": "node", "id": 11635609290, "lat": 19.4320027, "lon": -99.1324912}, {"type": "node", "id": 11635609291, "lat": 19.4319863, "lon": -99.1323419}, {"type": "node", "id": 11635609292, "lat": 19.4318317, "lon": -99.132361}, {"type": "node", "id": 11635609293, "lat": 19.4318228, "lon": -99.1322795}, {"type": "node", "id": 11635609294, "lat": 19.4319771, "lon": -99.1322604}, {"type": "node", "id": 11635609295, "lat": 19.4319704, "lon": -99.1321989}, {"type": "node", "id": 11635609296, "lat": 19.4330656, "lon": -99.132106}, {"type": "node", "id": 11635609297, "lat": 19.4331286, "lon": -99.132138}, {"type": "node", "id": 11635609298, "lat": 19.4332387, "lon": -99.1321264}, {"type": "node", "id": 11635609299, "lat": 19.4332426, "lon": -99.1321615}, {"type": "node", "id": 11635609300, "lat": 19.4334065, "lon": -99.1321411}, {"type": "node", "id": 11635609301, "lat": 19.4334463, "lon": -99.132501}, {"type": "node", "id": 11635609302, "lat": 19.4334245, "lon": -99.1325037}, {"type": "node", "id": 11635609303, "lat": 19.4333892, "lon": -99.1321846}, {"type": "node", "id": 11635609304, "lat": 19.4330176, "lon": -99.1322281}, {"type": "node", "id": 11635655999, "lat": 19.4314716, "lon": -99.1321863}, {"type": "node", "id": 11635656000, "lat": 19.4313925, "lon": -99.1321973}, {"type": "node", "id": 11635656003, "lat": 19.4315357, "lon": -99.1321781}, {"type": "node", "id": 11635656004, "lat": 19.4313284, "lon": -99.1322054}, {"type": "node", "id": 11635656005, "lat": 19.4313245, "lon": -99.1321721}, {"type": "node", "id": 11635656006, "lat": 19.4315318, "lon": -99.1321448}, {"type": "node", "id": 11635656013, "lat": 19.4262555, "lon": -99.133056}, {"type": "node", "id": 11635656014, "lat": 19.4262506, "lon": -99.1330058}, {"type": "node", "id": 11635656015, "lat": 19.4308286, "lon": -99.1323374}, {"type": "node", "id": 11635656016, "lat": 19.431326, "lon": -99.1323337}, {"type": "node", "id": 11635656017, "lat": 19.4314093, "lon": -99.1323315}, {"type": "node", "id": 11635656018, "lat": 19.4314893, "lon": -99.1323275}, {"type": "node", "id": 11635656019, "lat": 19.4318245, "lon": -99.1322952}, {"type": "node", "id": 11635656020, "lat": 19.4318293, "lon": -99.1323394}, {"type": "node", "id": 11635656021, "lat": 19.4314943, "lon": -99.1323676}, {"type": "node", "id": 11635656022, "lat": 19.4314147, "lon": -99.1323751}, {"type": "node", "id": 11635656023, "lat": 19.4308325, "lon": -99.1323818}, {"type": "node", "id": 11635656024, "lat": 19.4292464, "lon": -99.1326173}, {"type": "node", "id": 11635656025, "lat": 19.4292616, "lon": -99.1327259}, {"type": "node", "id": 11635656026, "lat": 19.4293103, "lon": -99.1327182}, {"type": "node", "id": 11635656027, "lat": 19.4293141, "lon": -99.1327513}, {"type": "node", "id": 11635656028, "lat": 19.4292166, "lon": -99.132766}, {"type": "node", "id": 11635656029, "lat": 19.4291992, "lon": -99.1326266}, {"type": "node", "id": 11635656030, "lat": 19.4293124, "lon": -99.1327362, "tags": {"highway": "elevator"}}, {"type": "node", "id": 11635656034, "lat": 19.4292759, "lon": -99.1327571}, {"type": "node", "id": 11701102557, "lat": 19.425618, "lon": -99.1252118}, {"type": "node", "id": 11701102558, "lat": 19.4255518, "lon": -99.1247697}, {"type": "node", "id": 11701102559, "lat": 19.4253198, "lon": -99.1248106}, {"type": "node", "id": 11701102560, "lat": 19.425386, "lon": -99.1252534}, {"type": "node", "id": 11701102561, "lat": 19.4256062, "lon": -99.1254931}, {"type": "node", "id": 11701102562, "lat": 19.4254797, "lon": -99.1255144}, {"type": "node", "id": 11701102563, "lat": 19.4252346, "lon": -99.123878}, {"type": "node", "id": 11701102564, "lat": 19.4253646, "lon": -99.1238562}, {"type": "node", "id": 11701102565, "lat": 19.4255654, "lon": -99.1252207}, {"type": "node", "id": 11701102566, "lat": 19.4255023, "lon": -99.1247781}, {"type": "node", "id": 11701102567, "lat": 19.4253726, "lon": -99.1248017}, {"type": "node", "id": 11701102568, "lat": 19.4254393, "lon": -99.1252445}, {"type": "node", "id": 11701200530, "lat": 19.4852562, "lon": -99.1035541}, {"type": "node", "id": 11701200531, "lat": 19.485399, "lon": -99.1034534}, {"type": "node", "id": 11701200532, "lat": 19.485463, "lon": -99.1035555}, {"type": "node", "id": 11701200533, "lat": 19.4853718, "lon": -99.1036198}, {"type": "node", "id": 11701200534, "lat": 19.4854248, "lon": -99.1037043}, {"type": "node", "id": 11701200535, "lat": 19.4854193, "lon": -99.1038047}, {"type": "node", "id": 11701200536, "lat": 19.4854745, "lon": -99.1038827}, {"type": "node", "id": 11701200537, "lat": 19.4854321, "lon": -99.1039156}, {"type": "node", "id": 11701200538, "lat": 19.4853741, "lon": -99.1038339}, {"type": "node", "id": 11701200539, "lat": 19.4853752, "lon": -99.103744}, {"type": "node", "id": 11701200540, "lat": 19.4847715, "lon": -99.1051935}, {"type": "node", "id": 11701200541, "lat": 19.4847271, "lon": -99.1051314}, {"type": "node", "id": 11701200542, "lat": 19.4848283, "lon": -99.1050497}, {"type": "node", "id": 11701200543, "lat": 19.4847363, "lon": -99.1047777}, {"type": "node", "id": 11701200544, "lat": 19.4849309, "lon": -99.1050655}, {"type": "node", "id": 11701200545, "lat": 19.4830554, "lon": -99.1058465}, {"type": "node", "id": 11701200546, "lat": 19.48361, "lon": -99.1054147}, {"type": "node", "id": 11701200547, "lat": 19.4842952, "lon": -99.1063561}, {"type": "node", "id": 11701200548, "lat": 19.484231, "lon": -99.1064083}, {"type": "node", "id": 11701200549, "lat": 19.483586, "lon": -99.1055474}, {"type": "node", "id": 11701200550, "lat": 19.4837875, "lon": -99.1067474}, {"type": "node", "id": 11701200551, "lat": 19.4852679, "lon": -99.1045593}, {"type": "node", "id": 11701200552, "lat": 19.4840687, "lon": -99.1055158}, {"type": "node", "id": 11701200553, "lat": 19.4841117, "lon": -99.1055754}, {"type": "node", "id": 11701200554, "lat": 19.483872, "lon": -99.1057702}, {"type": "node", "id": 11701200555, "lat": 19.4837749, "lon": -99.1056437}, {"type": "node", "id": 11701200556, "lat": 19.4847835, "lon": -99.1048457}, {"type": "node", "id": 11701200557, "lat": 19.4837272, "lon": -99.1067942}, {"type": "node", "id": 11701200558, "lat": 19.4831638, "lon": -99.1058816}, {"type": "node", "id": 11701200559, "lat": 19.4847607, "lon": -99.1049556}, {"type": "node", "id": 11701200560, "lat": 19.4848238, "lon": -99.1049154}, {"type": "node", "id": 11701200561, "lat": 19.4851753, "lon": -99.1044369}, {"type": "node", "id": 11701220206, "lat": 19.4393052, "lon": -99.1201508}, {"type": "node", "id": 11701220207, "lat": 19.4392861, "lon": -99.1199294}, {"type": "node", "id": 11701220208, "lat": 19.4394729, "lon": -99.1199112}, {"type": "node", "id": 11701220209, "lat": 19.4399283, "lon": -99.120312}, {"type": "node", "id": 11701220210, "lat": 19.4399954, "lon": -99.1202263}, {"type": "node", "id": 11701220211, "lat": 19.4393766, "lon": -99.1196818}, {"type": "node", "id": 11701220212, "lat": 19.4393702, "lon": -99.1195042}, {"type": "node", "id": 11701220213, "lat": 19.4394825, "lon": -99.1193827}, {"type": "node", "id": 11701220214, "lat": 19.4394457, "lon": -99.1193446}, {"type": "node", "id": 11701220215, "lat": 19.4399101, "lon": -99.1188441}, {"type": "node", "id": 11701220216, "lat": 19.4397711, "lon": -99.1188514}, {"type": "node", "id": 11701220217, "lat": 19.4397748, "lon": -99.118876}, {"type": "node", "id": 11701220218, "lat": 19.4393062, "lon": -99.1193442}, {"type": "node", "id": 11701220219, "lat": 19.4390036, "lon": -99.1193536}, {"type": "node", "id": 11701220220, "lat": 19.4387614, "lon": -99.1191405}, {"type": "node", "id": 11701220221, "lat": 19.4386944, "lon": -99.1192261}, {"type": "node", "id": 11701220222, "lat": 19.4391502, "lon": -99.1196272}, {"type": "node", "id": 11701220223, "lat": 19.4391592, "lon": -99.1198363}, {"type": "node", "id": 11701220224, "lat": 19.439231, "lon": -99.1199584}, {"type": "node", "id": 11701220225, "lat": 19.4392481, "lon": -99.1201563}, {"type": "node", "id": 11701330706, "lat": 19.4020104, "lon": -99.188278}, {"type": "node", "id": 11701330707, "lat": 19.4020871, "lon": -99.1882308}, {"type": "node", "id": 11701330708, "lat": 19.4023663, "lon": -99.1878097}, {"type": "node", "id": 11701330709, "lat": 19.4023024, "lon": -99.187762}, {"type": "node", "id": 11701330710, "lat": 19.4025268, "lon": -99.1874236}, {"type": "node", "id": 11701330711, "lat": 19.4025992, "lon": -99.1874776}, {"type": "node", "id": 11701330712, "lat": 19.4027186, "lon": -99.1872975}, {"type": "node", "id": 11701330713, "lat": 19.4026576, "lon": -99.187252}, {"type": "node", "id": 11701330714, "lat": 19.4026268, "lon": -99.1872984}, {"type": "node", "id": 11701330715, "lat": 19.4025744, "lon": -99.1872593}, {"type": "node", "id": 11701330716, "lat": 19.4026663, "lon": -99.187121}, {"type": "node", "id": 11701330717, "lat": 19.4027226, "lon": -99.1871631}, {"type": "node", "id": 11701330718, "lat": 19.4026984, "lon": -99.1871995}, {"type": "node", "id": 11701330719, "lat": 19.4027526, "lon": -99.18724}, {"type": "node", "id": 11701330720, "lat": 19.4027784, "lon": -99.1872012}, {"type": "node", "id": 11701330721, "lat": 19.4030117, "lon": -99.1873759}, {"type": "node", "id": 11701330722, "lat": 19.402961, "lon": -99.1874521}, {"type": "node", "id": 11701330723, "lat": 19.4030113, "lon": -99.1874898}, {"type": "node", "id": 11701330724, "lat": 19.4030369, "lon": -99.1874514}, {"type": "node", "id": 11701330725, "lat": 19.4030759, "lon": -99.1874807}, {"type": "node", "id": 11701330726, "lat": 19.402982, "lon": -99.1876215}, {"type": "node", "id": 11701330727, "lat": 19.4029452, "lon": -99.1875939}, {"type": "node", "id": 11701330728, "lat": 19.4029711, "lon": -99.1875552}, {"type": "node", "id": 11701330729, "lat": 19.4029182, "lon": -99.1875154}, {"type": "node", "id": 11701330730, "lat": 19.4023227, "lon": -99.1884066}, {"type": "node", "id": 11701330731, "lat": 19.4023538, "lon": -99.1884299}, {"type": "node", "id": 11701330732, "lat": 19.4023982, "lon": -99.1883634}, {"type": "node", "id": 11701330733, "lat": 19.4026387, "lon": -99.188341}, {"type": "node", "id": 11701330734, "lat": 19.4026424, "lon": -99.1883863}, {"type": "node", "id": 11701330735, "lat": 19.4024114, "lon": -99.1884077}, {"type": "node", "id": 11701330736, "lat": 19.4023306, "lon": -99.1885254}, {"type": "node", "id": 11701330739, "lat": 19.4020401, "lon": -99.1883009}, {"type": "node", "id": 11701330740, "lat": 19.4022727, "lon": -99.1884806}, {"type": "node", "id": 11701381063, "lat": 19.4003399, "lon": -99.1885201}, {"type": "node", "id": 11701381064, "lat": 19.4002616, "lon": -99.1883715}, {"type": "node", "id": 11701381065, "lat": 19.4019441, "lon": -99.1873831}, {"type": "node", "id": 11701381066, "lat": 19.4020206, "lon": -99.1875337}, {"type": "node", "id": 11701381067, "lat": 19.4007309, "lon": -99.1884009}, {"type": "node", "id": 11701381068, "lat": 19.4009262, "lon": -99.1882894}, {"type": "node", "id": 11701408969, "lat": 19.4009575, "lon": -99.188351}, {"type": "node", "id": 11701408970, "lat": 19.4013954, "lon": -99.188101}, {"type": "node", "id": 11701408971, "lat": 19.4013663, "lon": -99.1880437}, {"type": "node", "id": 11701408972, "lat": 19.4015092, "lon": -99.1879621}, {"type": "node", "id": 11701408973, "lat": 19.4014889, "lon": -99.1879221}, {"type": "node", "id": 11701408974, "lat": 19.4017592, "lon": -99.1877678}, {"type": "node", "id": 11701408975, "lat": 19.4013126, "lon": -99.1876341}, {"type": "node", "id": 11701408976, "lat": 19.4010839, "lon": -99.1877677}, {"type": "node", "id": 11701408977, "lat": 19.4007676, "lon": -99.1880312}, {"type": "node", "id": 11701408978, "lat": 19.4006291, "lon": -99.1881702}, {"type": "node", "id": 11701408982, "lat": 19.4009934, "lon": -99.1879014}, {"type": "node", "id": 11701408983, "lat": 19.4009745, "lon": -99.1878643}, {"type": "node", "id": 11701408984, "lat": 19.4007511, "lon": -99.1879927}, {"type": "node", "id": 11701408985, "lat": 19.4005285, "lon": -99.1882133}, {"type": "node", "id": 11701408986, "lat": 19.4005885, "lon": -99.1883728}, {"type": "node", "id": 11701408987, "lat": 19.4006502, "lon": -99.18849}, {"type": "node", "id": 11701408988, "lat": 19.4005593, "lon": -99.1885438}, {"type": "node", "id": 11701408989, "lat": 19.4005776, "lon": -99.1885786}, {"type": "node", "id": 11701408990, "lat": 19.4006839, "lon": -99.1885156}, {"type": "node", "id": 11701408991, "lat": 19.4006902, "lon": -99.1884786}, {"type": "node", "id": 11701408992, "lat": 19.400642, "lon": -99.1883836}, {"type": "node", "id": 11701408993, "lat": 19.4007041, "lon": -99.1883482}, {"type": "node", "id": 11701408994, "lat": 19.4018275, "lon": -99.1879024}, {"type": "node", "id": 11701408995, "lat": 19.4019774, "lon": -99.1878168}, {"type": "node", "id": 11701408996, "lat": 19.4019514, "lon": -99.1877656}, {"type": "node", "id": 11701408997, "lat": 19.4018441, "lon": -99.1878269}, {"type": "node", "id": 11701408998, "lat": 19.401799, "lon": -99.1877381}, {"type": "node", "id": 11701408999, "lat": 19.4018534, "lon": -99.187707}, {"type": "node", "id": 11701409000, "lat": 19.4018227, "lon": -99.1876467}, {"type": "node", "id": 11701409001, "lat": 19.4019095, "lon": -99.1874029}, {"type": "node", "id": 11701409002, "lat": 19.4019541, "lon": -99.1872937}, {"type": "node", "id": 11701409003, "lat": 19.401915, "lon": -99.1872728}, {"type": "node", "id": 11701409004, "lat": 19.4018476, "lon": -99.1874392}, {"type": "node", "id": 11701409005, "lat": 19.4017013, "lon": -99.1875242}, {"type": "node", "id": 11701409006, "lat": 19.4016908, "lon": -99.1875038}, {"type": "node", "id": 11701409007, "lat": 19.4017815, "lon": -99.1874511}, {"type": "node", "id": 11701409008, "lat": 19.4017737, "lon": -99.1874361}, {"type": "node", "id": 11701409009, "lat": 19.4016516, "lon": -99.1875072}, {"type": "node", "id": 11701409010, "lat": 19.4016695, "lon": -99.1875416}, {"type": "node", "id": 11701409011, "lat": 19.4013588, "lon": -99.187723}, {"type": "node", "id": 11701409012, "lat": 19.4011384, "lon": -99.1878726}, {"type": "node", "id": 11701434445, "lat": 19.4026656, "lon": -99.1871096}, {"type": "node", "id": 11701434446, "lat": 19.4027215, "lon": -99.1870019}, {"type": "node", "id": 11701434447, "lat": 19.4023958, "lon": -99.1860841}, {"type": "node", "id": 11701434448, "lat": 19.4023024, "lon": -99.1860813}, {"type": "node", "id": 11701434449, "lat": 19.4022939, "lon": -99.1864089}, {"type": "node", "id": 11701434450, "lat": 19.4018904, "lon": -99.1872597}, {"type": "node", "id": 11701434451, "lat": 19.4019657, "lon": -99.1872999}, {"type": "node", "id": 11701434452, "lat": 19.4023873, "lon": -99.1864105}, {"type": "node", "id": 11701434453, "lat": 19.4020786, "lon": -99.1868617}, {"type": "node", "id": 11701434454, "lat": 19.4018794, "lon": -99.1867493}, {"type": "node", "id": 11701434455, "lat": 19.4019176, "lon": -99.1866729}, {"type": "node", "id": 11701434456, "lat": 19.4021153, "lon": -99.1867884}, {"type": "node", "id": 11701434457, "lat": 19.4021658, "lon": -99.1866776}, {"type": "node", "id": 11701434458, "lat": 19.4019682, "lon": -99.1865623}, {"type": "node", "id": 11701434459, "lat": 19.4020104, "lon": -99.1864782}, {"type": "node", "id": 11701434460, "lat": 19.4022095, "lon": -99.1865907}, {"type": "node", "id": 11701434461, "lat": 19.402328, "lon": -99.1870111}, {"type": "node", "id": 11701434462, "lat": 19.4021489, "lon": -99.1869096}, {"type": "node", "id": 11701434463, "lat": 19.4021885, "lon": -99.186831}, {"type": "node", "id": 11701434464, "lat": 19.4023663, "lon": -99.1869349}, {"type": "node", "id": 11701434465, "lat": 19.4022992, "lon": -99.1865963}, {"type": "node", "id": 11701434466, "lat": 19.4022255, "lon": -99.1865545}, {"type": "node", "id": 11701434467, "lat": 19.4020007, "lon": -99.1864239}, {"type": "node", "id": 11701434468, "lat": 19.4018232, "lon": -99.1867703}, {"type": "node", "id": 11701436769, "lat": 19.4020572, "lon": -99.1869069}, {"type": "node", "id": 11701436770, "lat": 19.4019777, "lon": -99.1872746}, {"type": "node", "id": 11701436771, "lat": 19.4024549, "lon": -99.187532}, {"type": "node", "id": 11701436772, "lat": 19.4024816, "lon": -99.1874918}, {"type": "node", "id": 11701436773, "lat": 19.4019995, "lon": -99.1872287}, {"type": "node", "id": 11701436774, "lat": 19.402135, "lon": -99.1869428}, {"type": "node", "id": 11701436775, "lat": 19.4023417, "lon": -99.187069}, {"type": "node", "id": 11701436776, "lat": 19.4024007, "lon": -99.1869549}, {"type": "node", "id": 11701436777, "lat": 19.4024554, "lon": -99.1868466}, {"type": "node", "id": 11701436778, "lat": 19.4025192, "lon": -99.1867226}, {"type": "node", "id": 11701436779, "lat": 19.402416, "lon": -99.1868236}, {"type": "node", "id": 11701436780, "lat": 19.4022382, "lon": -99.1867198}, {"type": "node", "id": 11701436781, "lat": 19.4022827, "lon": -99.1866318}, {"type": "node", "id": 11701436782, "lat": 19.4024617, "lon": -99.1867332}, {"type": "node", "id": 11701436784, "lat": 19.4018823, "lon": -99.1866523}, {"type": "node", "id": 11701436785, "lat": 19.4019376, "lon": -99.1865444}, {"type": "node", "id": 11701436786, "lat": 19.4015139, "lon": -99.1864373}, {"type": "node", "id": 11701436787, "lat": 19.4015697, "lon": -99.1863298}, {"type": "node", "id": 11702200094, "lat": 19.4396626, "lon": -99.1551834}, {"type": "node", "id": 11702200095, "lat": 19.4395151, "lon": -99.1552511}, {"type": "node", "id": 11702200096, "lat": 19.4389143, "lon": -99.1537794}, {"type": "node", "id": 11702200097, "lat": 19.4390619, "lon": -99.1537117}, {"type": "node", "id": 11702200098, "lat": 19.4394433, "lon": -99.1543676}, {"type": "node", "id": 11702200099, "lat": 19.4393856, "lon": -99.1540406}, {"type": "node", "id": 11702200100, "lat": 19.4394965, "lon": -99.1543453}, {"type": "node", "id": 11702200101, "lat": 19.4393119, "lon": -99.1543241}, {"type": "node", "id": 11702200102, "lat": 19.4393468, "lon": -99.1541973}, {"type": "node", "id": 11702200103, "lat": 19.4392885, "lon": -99.154028}, {"type": "node", "id": 11702200104, "lat": 19.4391636, "lon": -99.1539608}, {"type": "node", "id": 11702200105, "lat": 19.4390091, "lon": -99.1540118}, {"type": "node", "id": 11702200106, "lat": 19.4391565, "lon": -99.1543724}, {"type": "node", "id": 11702200107, "lat": 19.4393045, "lon": -99.1540213}, {"type": "node", "id": 11702200108, "lat": 19.4393754, "lon": -99.1541853}, {"type": "node", "id": 11702200109, "lat": 19.4394041, "lon": -99.1542623}, {"type": "node", "id": 11702200110, "lat": 19.4394571, "lon": -99.1542395}, {"type": "node", "id": 11702206860, "lat": 19.4306667, "lon": -99.1144298}, {"type": "node", "id": 11702206861, "lat": 19.4306115, "lon": -99.1145716}, {"type": "node", "id": 11702206862, "lat": 19.4293226, "lon": -99.1140082}, {"type": "node", "id": 11702206863, "lat": 19.429376, "lon": -99.1138704}, {"type": "node", "id": 11702206864, "lat": 19.4302674, "lon": -99.1142549}, {"type": "node", "id": 11702206865, "lat": 19.4301731, "lon": -99.1140048}, {"type": "node", "id": 11702206866, "lat": 19.4299255, "lon": -99.1141097}, {"type": "node", "id": 11702206867, "lat": 19.4299115, "lon": -99.1142646}, {"type": "node", "id": 11702206868, "lat": 19.4299972, "lon": -99.1144804}, {"type": "node", "id": 11702251769, "lat": 19.4301981, "lon": -99.1143906}, {"type": "node", "id": 11702251770, "lat": 19.430297, "lon": -99.1142679}, {"type": "node", "id": 11702259410, "lat": 19.4327731, "lon": -99.1476423}, {"type": "node", "id": 11702259411, "lat": 19.4328214, "lon": -99.1479222}, {"type": "node", "id": 11702259412, "lat": 19.4341746, "lon": -99.1476556}, {"type": "node", "id": 11702259413, "lat": 19.434127, "lon": -99.1473803}, {"type": "node", "id": 11702265424, "lat": 19.3965719, "lon": -99.1560609}, {"type": "node", "id": 11702265425, "lat": 19.3965623, "lon": -99.1559098}, {"type": "node", "id": 11702265426, "lat": 19.3952416, "lon": -99.1560041}, {"type": "node", "id": 11702265427, "lat": 19.3952512, "lon": -99.1561554}, {"type": "node", "id": 11702265428, "lat": 19.3962086, "lon": -99.1558551}, {"type": "node", "id": 11702265429, "lat": 19.3962314, "lon": -99.1561756}, {"type": "node", "id": 11702265430, "lat": 19.3955862, "lon": -99.1562273}, {"type": "node", "id": 11702265431, "lat": 19.3955634, "lon": -99.1559067}, {"type": "node", "id": 11702265432, "lat": 19.3963279, "lon": -99.1560783}, {"type": "node", "id": 11702265433, "lat": 19.3960069, "lon": -99.1561935}, {"type": "node", "id": 11702265434, "lat": 19.3960321, "lon": -99.1565381}, {"type": "node", "id": 11702265435, "lat": 19.396248, "lon": -99.1564184}, {"type": "node", "id": 11702265436, "lat": 19.3962633, "lon": -99.1564546}, {"type": "node", "id": 11702265437, "lat": 19.396035, "lon": -99.1565771}, {"type": "node", "id": 11702265438, "lat": 19.3958554, "lon": -99.1565933}, {"type": "node", "id": 11702265439, "lat": 19.3955811, "lon": -99.1564161}, {"type": "node", "id": 11702265440, "lat": 19.3956004, "lon": -99.1563865}, {"type": "node", "id": 11702265441, "lat": 19.395852, "lon": -99.1565471}, {"type": "node", "id": 11702265442, "lat": 19.3958273, "lon": -99.15621}, {"type": "node", "id": 11702265443, "lat": 19.3954603, "lon": -99.1561404}, {"type": "node", "id": 11702265444, "lat": 19.3954482, "lon": -99.1559893}, {"type": "node", "id": 11702265445, "lat": 19.3958045, "lon": -99.1558874}, {"type": "node", "id": 11702265446, "lat": 19.3957785, "lon": -99.1555458}, {"type": "node", "id": 11702265447, "lat": 19.3956651, "lon": -99.1555864}, {"type": "node", "id": 11702265448, "lat": 19.3956576, "lon": -99.1555647}, {"type": "node", "id": 11702265449, "lat": 19.3957761, "lon": -99.1555236}, {"type": "node", "id": 11702265450, "lat": 19.3959585, "lon": -99.1555054}, {"type": "node", "id": 11702265451, "lat": 19.3960687, "lon": -99.1555342}, {"type": "node", "id": 11702265452, "lat": 19.396062, "lon": -99.1555625}, {"type": "node", "id": 11702265453, "lat": 19.3959586, "lon": -99.1555338}, {"type": "node", "id": 11702265454, "lat": 19.3959835, "lon": -99.155874}, {"type": "node", "id": 11702265455, "lat": 19.396317, "lon": -99.1559273}, {"type": "node", "id": 11903071166, "lat": 19.4591315, "lon": -99.0746433}, {"type": "node", "id": 11903071175, "lat": 19.4590667, "lon": -99.0746751}, {"type": "node", "id": 12007629431, "lat": 19.4910651, "lon": -99.1738131}, {"type": "node", "id": 12007629432, "lat": 19.4909367, "lon": -99.1739033}, {"type": "node", "id": 12007629433, "lat": 19.4908475, "lon": -99.1744183}, {"type": "node", "id": 12007629434, "lat": 19.4907148, "lon": -99.17439}, {"type": "node", "id": 12007629435, "lat": 19.4906431, "lon": -99.174797}, {"type": "node", "id": 12007629436, "lat": 19.4904629, "lon": -99.1747616}, {"type": "node", "id": 12007629437, "lat": 19.490483, "lon": -99.1746696}, {"type": "node", "id": 12007629438, "lat": 19.4904229, "lon": -99.1746554}, {"type": "node", "id": 12007629439, "lat": 19.4904062, "lon": -99.1744732}, {"type": "node", "id": 12007629440, "lat": 19.4903462, "lon": -99.174459}, {"type": "node", "id": 12007629441, "lat": 19.4903278, "lon": -99.1745599}, {"type": "node", "id": 12007629442, "lat": 19.4902477, "lon": -99.1745457}, {"type": "node", "id": 12007629443, "lat": 19.4903745, "lon": -99.1738237}, {"type": "node", "id": 12007629444, "lat": 19.4905547, "lon": -99.1738556}, {"type": "node", "id": 12007629445, "lat": 19.4906231, "lon": -99.1733831}, {"type": "node", "id": 12007629446, "lat": 19.4908145, "lon": -99.1734094}, {"type": "node", "id": 12007629447, "lat": 19.4907536, "lon": -99.173855}, {"type": "node", "id": 12007629448, "lat": 19.4908747, "lon": -99.1738831}, {"type": "node", "id": 12007629449, "lat": 19.4908956, "lon": -99.1737628}, {"type": "node", "id": 12007629450, "lat": 19.4909616, "lon": -99.173778}, {"type": "node", "id": 12007629451, "lat": 19.4909759, "lon": -99.1737091}, {"type": "node", "id": 12007629452, "lat": 19.4910441, "lon": -99.1737173}, {"type": "node", "id": 12007629459, "lat": 19.4910194, "lon": -99.1737143}, {"type": "node", "id": 12010317010, "lat": 19.3917789, "lon": -99.0470562}, {"type": "node", "id": 12010317011, "lat": 19.3916385, "lon": -99.0471471}, {"type": "node", "id": 12010317012, "lat": 19.3909131, "lon": -99.0455522}, {"type": "node", "id": 12029778168, "lat": 19.4020345, "lon": -99.1869818}, {"type": "node", "id": 12029808169, "lat": 19.4020387, "lon": -99.1869933}, {"type": "node", "id": 12029808170, "lat": 19.402046, "lon": -99.1870025}, {"type": "node", "id": 12029808171, "lat": 19.4020557, "lon": -99.1870088}, {"type": "node", "id": 12029808172, "lat": 19.4020668, "lon": -99.1870114}, {"type": "node", "id": 12029808173, "lat": 19.4020781, "lon": -99.1870101}, {"type": "node", "id": 12029808174, "lat": 19.4020883, "lon": -99.187005}, {"type": "node", "id": 12029808175, "lat": 19.4020965, "lon": -99.1869967}, {"type": "node", "id": 12029808176, "lat": 19.4021018, "lon": -99.186986}, {"type": "node", "id": 12029808177, "lat": 19.4021035, "lon": -99.1869741}, {"type": "node", "id": 12029808178, "lat": 19.4021016, "lon": -99.1869623}, {"type": "node", "id": 12029808179, "lat": 19.4020961, "lon": -99.1869517}, {"type": "node", "id": 12029808180, "lat": 19.4020878, "lon": -99.1869436}, {"type": "node", "id": 12029808181, "lat": 19.4020771, "lon": -99.1869386}, {"type": "node", "id": 12029808182, "lat": 19.4020655, "lon": -99.1869377}, {"type": "node", "id": 12029808183, "lat": 19.4020543, "lon": -99.1869409}, {"type": "node", "id": 12029808184, "lat": 19.4020446, "lon": -99.1869478}, {"type": "node", "id": 12029808185, "lat": 19.4020377, "lon": -99.1869577}, {"type": "node", "id": 12029808186, "lat": 19.4020342, "lon": -99.1869695}, {"type": "node", "id": 12029808195, "lat": 19.4023916, "lon": -99.1862464}, {"type": "node", "id": 12029808196, "lat": 19.4022982, "lon": -99.1862438}, {"type": "node", "id": 12029808197, "lat": 19.4023933, "lon": -99.1861815}, {"type": "node", "id": 12029808198, "lat": 19.4022999, "lon": -99.1861784}, {"type": "node", "id": 12029936495, "lat": 19.4557606, "lon": -99.1432838}, {"type": "node", "id": 12029936496, "lat": 19.4557681, "lon": -99.1431337}, {"type": "node", "id": 12029936497, "lat": 19.4544197, "lon": -99.1430577}, {"type": "node", "id": 12029936498, "lat": 19.4544122, "lon": -99.1432081}, {"type": "node", "id": 12029936503, "lat": 19.4548965, "lon": -99.1430846}, {"type": "node", "id": 12029936504, "lat": 19.4551735, "lon": -99.1431002}, {"type": "node", "id": 12029936505, "lat": 19.455207, "lon": -99.1432527}, {"type": "node", "id": 12029936506, "lat": 19.4549304, "lon": -99.1432372}, {"type": "node", "id": 12029976955, "lat": 19.4825401, "lon": -99.1062713}, {"type": "node", "id": 12029976956, "lat": 19.482505, "lon": -99.1062828}, {"type": "node", "id": 12029976957, "lat": 19.4825935, "lon": -99.1066621}, {"type": "node", "id": 12029976958, "lat": 19.4824228, "lon": -99.1067086}, {"type": "node", "id": 12029976959, "lat": 19.4825328, "lon": -99.1071628}, {"type": "node", "id": 12029976960, "lat": 19.4826997, "lon": -99.1071173}, {"type": "node", "id": 12029976961, "lat": 19.482853, "lon": -99.1077742}, {"type": "node", "id": 12029976962, "lat": 19.4830406, "lon": -99.107725}, {"type": "node", "id": 12029976963, "lat": 19.4829466, "lon": -99.1073217}, {"type": "node", "id": 12029976964, "lat": 19.4831061, "lon": -99.1072781}, {"type": "node", "id": 12029976965, "lat": 19.4829912, "lon": -99.1068049}, {"type": "node", "id": 12029976966, "lat": 19.482836, "lon": -99.1068472}, {"type": "node", "id": 12029976967, "lat": 19.4826929, "lon": -99.1062335}, {"type": "node", "id": 12029976968, "lat": 19.4830951, "lon": -99.1059007}, {"type": "node", "id": 12030019723, "lat": 19.4596435, "lon": -99.1890385}, {"type": "node", "id": 12030019724, "lat": 19.4595063, "lon": -99.1890716}, {"type": "node", "id": 12030019725, "lat": 19.4592026, "lon": -99.1875733}, {"type": "node", "id": 12030019726, "lat": 19.4593325, "lon": -99.1875427}, {"type": "node", "id": 12030019727, "lat": 19.4589348, "lon": -99.1881859}, {"type": "node", "id": 12030019728, "lat": 19.4590013, "lon": -99.1884952}, {"type": "node", "id": 12030019729, "lat": 19.4593721, "lon": -99.1884449}, {"type": "node", "id": 12030019730, "lat": 19.4595067, "lon": -99.188399}, {"type": "node", "id": 12030019731, "lat": 19.4594298, "lon": -99.1880082}, {"type": "node", "id": 12030019732, "lat": 19.4592963, "lon": -99.1880231}, {"type": "node", "id": 12030019733, "lat": 19.4592855, "lon": -99.1884183}, {"type": "node", "id": 12030019734, "lat": 19.4586252, "lon": -99.1872161}, {"type": "node", "id": 12030019735, "lat": 19.4576565, "lon": -99.1874883}, {"type": "node", "id": 12030019736, "lat": 19.4575958, "lon": -99.1872072}, {"type": "node", "id": 12030019737, "lat": 19.4585732, "lon": -99.1869671}, {"type": "node", "id": 12030019738, "lat": 19.4587983, "lon": -99.1871111}, {"type": "node", "id": 12030019739, "lat": 19.4574874, "lon": -99.1874627}, {"type": "node", "id": 12030019740, "lat": 19.4574519, "lon": -99.1873}, {"type": "node", "id": 12030019741, "lat": 19.4587696, "lon": -99.1869794}, {"type": "node", "id": 12030019742, "lat": 19.4585631, "lon": -99.1884693}, {"type": "node", "id": 12030019743, "lat": 19.4585351, "lon": -99.1883368}, {"type": "node", "id": 12030019744, "lat": 19.4589456, "lon": -99.1882359}, {"type": "node", "id": 12030019745, "lat": 19.458974, "lon": -99.1883681}, {"type": "node", "id": 12030019746, "lat": 19.4584645, "lon": -99.1886301}, {"type": "node", "id": 12030019747, "lat": 19.4581876, "lon": -99.1873582}, {"type": "node", "id": 12030019748, "lat": 19.4576426, "lon": -99.1874247}, {"type": "node", "id": 12030019749, "lat": 19.4576077, "lon": -99.1872617}, {"type": "node", "id": 12030019750, "lat": 19.4585857, "lon": -99.1870245}, {"type": "node", "id": 12030019751, "lat": 19.4586123, "lon": -99.1871567}, {"type": "node", "id": 12030019752, "lat": 19.4582998, "lon": -99.1872958}, {"type": "node", "id": 12030019760, "lat": 19.4586344, "lon": -99.1884523}, {"type": "node", "id": 12030019761, "lat": 19.4586065, "lon": -99.1883199}, {"type": "node", "id": 12030051882, "lat": 19.4584363, "lon": -99.1872624}, {"type": "node", "id": 12030051884, "lat": 19.4583773, "lon": -99.1870152}, {"type": "node", "id": 12030051885, "lat": 19.4578785, "lon": -99.1874339}, {"type": "node", "id": 12030051888, "lat": 19.4577288, "lon": -99.1874705}, {"type": "node", "id": 12030051890, "lat": 19.4578095, "lon": -99.1871547}, {"type": "node", "id": 12031530669, "lat": 19.4585159, "lon": -99.1882884}, {"type": "node", "id": 12031530711, "lat": 19.4592088, "lon": -99.1881168}, {"type": "node", "id": 12060211833, "lat": 19.4085063, "lon": -99.134996}, {"type": "node", "id": 12060211834, "lat": 19.4083466, "lon": -99.1349844}, {"type": "node", "id": 12060211835, "lat": 19.4084473, "lon": -99.1334207}, {"type": "node", "id": 12060211836, "lat": 19.4086073, "lon": -99.1334322}, {"type": "node", "id": 12060211837, "lat": 19.4085951, "lon": -99.1336214}, {"type": "node", "id": 12060211838, "lat": 19.4084347, "lon": -99.1336165}, {"type": "node", "id": 12060211839, "lat": 19.4085418, "lon": -99.1344467}, {"type": "node", "id": 12060211840, "lat": 19.4083835, "lon": -99.134402}, {"type": "node", "id": 12060211841, "lat": 19.4082341, "lon": -99.1342243}, {"type": "node", "id": 12060211842, "lat": 19.4082605, "lon": -99.1336931}, {"type": "node", "id": 12060211843, "lat": 19.4087964, "lon": -99.133797}, {"type": "node", "id": 12060211844, "lat": 19.4089246, "lon": -99.1350541}, {"type": "node", "id": 12060211845, "lat": 19.4088032, "lon": -99.1339503}, {"type": "node", "id": 12060211847, "lat": 19.4091029, "lon": -99.1339029}, {"type": "node", "id": 12061829970, "lat": 19.4091187, "lon": -99.1340113}, {"type": "node", "id": 12061829977, "lat": 19.408241, "lon": -99.1340712}, {"type": "node", "id": 12061830050, "lat": 19.4091079, "lon": -99.1339372}, {"type": "node", "id": 12147005150, "lat": 19.4836613, "lon": -99.1056479}, {"type": "node", "id": 12149273643, "lat": 19.3848796, "lon": -99.2373454}, {"type": "node", "id": 12149273645, "lat": 19.3849298, "lon": -99.2354413}, {"type": "node", "id": 12158474191, "lat": 19.4091806, "lon": -99.1344381}, {"type": "node", "id": 12158474196, "lat": 19.4088428, "lon": -99.1344903}, {"type": "node", "id": 12158474197, "lat": 19.4092524, "lon": -99.1349334}, {"type": "node", "id": 12158474198, "lat": 19.4092105, "lon": -99.1349394}, {"type": "node", "id": 12158474199, "lat": 19.4091102, "lon": -99.1349555}, {"type": "node", "id": 12158474200, "lat": 19.4090608, "lon": -99.1349634}, {"type": "node", "id": 12158485901, "lat": 19.4089605, "lon": -99.1349795}, {"type": "node", "id": 12158485902, "lat": 19.4089148, "lon": -99.1349869}, {"type": "node", "id": 12307021668, "lat": 19.435551, "lon": -99.1371341, "tags": {"layer": "-1", "location": "underground", "name": "Allende", "network": "STC Metro", "network:wikidata": "Q735042", "opening_hours": "Mo-Fr 05:00-24:00; Sa 06:00-24:00; Su 07:00-24:00", "operator": "Sistema de Transporte Colectivo", "railway": "station", "station": "subway", "wikidata": "Q3287760", "wikimedia_commons": "Category:Estaci\u00f3n Allende (Metro de M\u00e9xico)", "wikipedia": "es:Allende (estaci\u00f3n)"}}, {"type": "node", "id": 12526124489, "lat": 19.4361649, "lon": -99.1406403, "tags": {"name": "Bellas Artes", "network": "STC Metro", "network:wikidata": "Q735042", "public_transport": "station", "railway": "station", "station": "subway", "subway": "yes", "wikidata": "Q2541953", "wikimedia_commons": "Category:Estaci\u00f3n Bellas Artes (Metro de M\u00e9xico)", "wikipedia": "es:Bellas Artes (estaci\u00f3n del Metro de Ciudad de M\u00e9xico)"}}, {"type": "node", "id": 12536496310, "lat": 19.5006199, "lon": -99.1491893, "tags": {"name": "Polit\u00e9cnico", "network": "STC Metro", "opening_hours": "Mo-Fr 05:00-24:00; Sa 06:00-24:00; Su 07:00-24:00", "operator": "Sistema de Transporte Colectivo", "public_transport": "station", "railway": "station", "station": "subway", "subway": "yes", "wheelchair": "yes", "wikidata": "Q3431375", "wikimedia_commons": "Category:Estaci\u00f3n Polit\u00e9cnico (Metro de M\u00e9xico)", "wikipedia": "es:Polit\u00e9cnico (estaci\u00f3n)"}}, {"type": "node", "id": 12602265863, "lat": 19.3706329, "lon": -99.158782, "tags": {"name": "Parque de los Venados", "network": "STC Metro", "opening_hours": "Mo-Fr 05:00-24:00; Sa 06:00-24:00; Su 07:00-24:00", "operator": "Sistema de Transporte Colectivo", "public_transport": "station", "railway": "station", "station": "subway", "subway": "yes", "wheelchair": "yes", "wikidata": "Q6062821", "wikimedia_commons": "Category:Estaci\u00f3n Parque de los Venados (Metro de M\u00e9xico)", "wikipedia": "es:Parque de los venados (estaci\u00f3n)"}}, {"type": "node", "id": 12602265886, "lat": 19.373258, "lon": -99.1770894, "tags": {"layer": "-1", "level": "-2", "name": "Insurgentes Sur", "network": "Metro CDMX", "opening_hours": "Mo-Fr 05:00-00:00; Sa 06:00-00:00; Su 07:00-00:00", "operator": "Sistema de Transporte Colectivo", "public_transport": "stop_position", "railway": "stop", "station": "subway", "subway": "yes", "wikidata": "Q5918521", "wikimedia_commons": "Category:Estaci\u00f3n Insurgentes Sur (Metro de M\u00e9xico)", "wikipedia": "es:Insurgentes Sur (estaci\u00f3n)"}}, {"type": "node", "id": 12603540631, "lat": 19.3735718, "lon": -99.1784173, "tags": {"name": "Metro Insurgentes Sur", "network": "Metro CDMX", "operator": "Sistema de Transporte Colectivo", "public_transport": "station", "railway": "station", "station": "subway", "subway": "yes", "wikidata": "Q5918521", "wikimedia_commons": "Category:Estaci\u00f3n Insurgentes Sur (Metro de M\u00e9xico)", "wikipedia": "es:Insurgentes Sur (estaci\u00f3n)"}}, {"type": "node", "id": 12606218672, "lat": 19.3751745, "lon": -99.1867888}, {"type": "node", "id": 12606218673, "lat": 19.3750688, "lon": -99.18682}, {"type": "node", "id": 12606218674, "lat": 19.3750758, "lon": -99.1868468}, {"type": "node", "id": 12606218676, "lat": 19.376179, "lon": -99.1863168}, {"type": "node", "id": 12606218677, "lat": 19.3761443, "lon": -99.1861875}, {"type": "node", "id": 12606218678, "lat": 19.3761101, "lon": -99.1861978}, {"type": "node", "id": 12606218681, "lat": 19.3761983, "lon": -99.1863884}, {"type": "node", "id": 12606218688, "lat": 19.3761851, "lon": -99.1863392}, {"type": "node", "id": 12606218692, "lat": 19.3761297, "lon": -99.1868391}, {"type": "node", "id": 12606218693, "lat": 19.3760612, "lon": -99.1867998}, {"type": "node", "id": 12606218695, "lat": 19.3761132, "lon": -99.1868712}, {"type": "node", "id": 12606344292, "lat": 19.3902239, "lon": -99.1967858, "tags": {"construction:railway": "station", "name": "\u00c1lvaro Obreg\u00f3n", "station": "subway", "subway": "yes"}}, {"type": "node", "id": 12606344296, "lat": 19.3822241, "lon": -99.2002985, "tags": {"construction:railway": "station", "name": "Valent\u00edn Campa", "station": "subway", "subway": "yes"}}, {"type": "node", "id": 12606344847, "lat": 19.3736891, "lon": -99.1788049, "tags": {"layer": "-1", "level": "-2", "name": "Insurgentes Sur", "network": "Metro CDMX", "opening_hours": "Mo-Fr 05:00-00:00; Sa 06:00-00:00; Su 07:00-00:00", "operator": "Sistema de Transporte Colectivo", "public_transport": "stop_position", "railway": "stop", "station": "subway", "subway": "yes"}}, {"type": "node", "id": 12606344851, "lat": 19.3732785, "lon": -99.1770847, "tags": {"layer": "-1", "level": "-2", "name": "Insurgentes Sur", "network": "Metro CDMX", "opening_hours": "Mo-Fr 05:00-00:00; Sa 06:00-00:00; Su 07:00-00:00", "operator": "Sistema de Transporte Colectivo", "public_transport": "stop_position", "railway": "stop", "station": "subway", "subway": "yes", "wikidata": "Q5918521", "wikimedia_commons": "Category:Estaci\u00f3n Insurgentes Sur (Metro de M\u00e9xico)", "wikipedia": "es:Insurgentes Sur (estaci\u00f3n)"}}, {"type": "node", "id": 12608812922, "lat": 19.3760581, "lon": -99.1871082}, {"type": "node", "id": 12621387840, "lat": 19.4388716, "lon": -99.1541733}, {"type": "node", "id": 12621387841, "lat": 19.4388948, "lon": -99.1541653}, {"type": "node", "id": 12621388054, "lat": 19.4387236, "lon": -99.1543105}, {"type": "node", "id": 12621388055, "lat": 19.4387408, "lon": -99.1543665}, {"type": "node", "id": 12641694118, "lat": 19.4066372, "lon": -99.1566471}, {"type": "node", "id": 12641694119, "lat": 19.4064368, "lon": -99.1565981}, {"type": "node", "id": 12641694120, "lat": 19.4064544, "lon": -99.1558649}, {"type": "node", "id": 12641694121, "lat": 19.4063773, "lon": -99.1558625}, {"type": "node", "id": 12641694122, "lat": 19.4063806, "lon": -99.1557259}, {"type": "node", "id": 12641694123, "lat": 19.406402, "lon": -99.1556032}, {"type": "node", "id": 12641694124, "lat": 19.4063702, "lon": -99.1555961}, {"type": "node", "id": 12641694125, "lat": 19.4064051, "lon": -99.155427}, {"type": "node", "id": 12641694126, "lat": 19.4064971, "lon": -99.1554328}, {"type": "node", "id": 12641694127, "lat": 19.4064991, "lon": -99.1553186}, {"type": "node", "id": 12641694128, "lat": 19.4065956, "lon": -99.1553231}, {"type": "node", "id": 12641694129, "lat": 19.4065932, "lon": -99.1554357}, {"type": "node", "id": 12641694130, "lat": 19.4066807, "lon": -99.1554404}, {"type": "node", "id": 12641694131, "lat": 19.4067034, "lon": -99.1554155}, {"type": "node", "id": 12641694132, "lat": 19.4067272, "lon": -99.15544}, {"type": "node", "id": 12641694133, "lat": 19.4068222, "lon": -99.1553361}, {"type": "node", "id": 12641694134, "lat": 19.40689, "lon": -99.1554058}, {"type": "node", "id": 12641694135, "lat": 19.406833, "lon": -99.1554681}, {"type": "node", "id": 12641694136, "lat": 19.4068579, "lon": -99.1554937}, {"type": "node", "id": 12641694137, "lat": 19.4067741, "lon": -99.1555852}, {"type": "node", "id": 12641694138, "lat": 19.4067543, "lon": -99.1555648}, {"type": "node", "id": 12641694139, "lat": 19.4066648, "lon": -99.1556625}, {"type": "node", "id": 12641694140, "lat": 19.4066323, "lon": -99.1563066}, {"type": "node", "id": 12641694141, "lat": 19.4066573, "lon": -99.1563084}, {"type": "node", "id": 12641694142, "lat": 19.4066169, "lon": -99.1566421}, {"type": "node", "id": 12641694143, "lat": 19.4064646, "lon": -99.1566049}, {"type": "node", "id": 12641694144, "lat": 19.4066122, "lon": -99.1567281}, {"type": "node", "id": 12641694145, "lat": 19.4064606, "lon": -99.1566873}, {"type": "node", "id": 12641694146, "lat": 19.4067527, "lon": -99.1568083}, {"type": "node", "id": 12641694147, "lat": 19.4067621, "lon": -99.1567729}, {"type": "node", "id": 12641694148, "lat": 19.4063733, "lon": -99.1567109}, {"type": "node", "id": 12641694149, "lat": 19.4063784, "lon": -99.1566723}, {"type": "node", "id": 12641694150, "lat": 19.4065655, "lon": -99.1567522}, {"type": "node", "id": 12641694151, "lat": 19.4064741, "lon": -99.1567289}, {"type": "node", "id": 12641694152, "lat": 19.4064736, "lon": -99.1567587}, {"type": "node", "id": 12641694153, "lat": 19.4065649, "lon": -99.1567802}, {"type": "node", "id": 12641694166, "lat": 19.4080591, "lon": -99.1550203}, {"type": "node", "id": 12641694167, "lat": 19.4080653, "lon": -99.155133}, {"type": "node", "id": 12641694168, "lat": 19.4078355, "lon": -99.155545}, {"type": "node", "id": 12641694169, "lat": 19.4076164, "lon": -99.1555594}, {"type": "node", "id": 12641694170, "lat": 19.4076199, "lon": -99.1556193}, {"type": "node", "id": 12641694171, "lat": 19.4075626, "lon": -99.1556231}, {"type": "node", "id": 12641694172, "lat": 19.4075516, "lon": -99.1554337}, {"type": "node", "id": 12641694173, "lat": 19.4064546, "lon": -99.1549118}, {"type": "node", "id": 12641694174, "lat": 19.4063576, "lon": -99.1550554}, {"type": "node", "id": 12641694175, "lat": 19.4063251, "lon": -99.1550296}, {"type": "node", "id": 12641694176, "lat": 19.4064334, "lon": -99.154875}, {"type": "node", "id": 12641694177, "lat": 19.4066885, "lon": -99.1548717}, {"type": "node", "id": 12641694178, "lat": 19.4067822, "lon": -99.1547425}, {"type": "node", "id": 12641694179, "lat": 19.4068592, "lon": -99.154801}, {"type": "node", "id": 12641694180, "lat": 19.40698, "lon": -99.1546266}, {"type": "node", "id": 12641694181, "lat": 19.4070581, "lon": -99.1546873}, {"type": "node", "id": 12641694182, "lat": 19.4068941, "lon": -99.1549219}, {"type": "node", "id": 12641694183, "lat": 19.4068238, "lon": -99.1548673}, {"type": "node", "id": 12641694184, "lat": 19.4067889, "lon": -99.1549181}, {"type": "node", "id": 12641694185, "lat": 19.4068394, "lon": -99.1553068}, {"type": "node", "id": 12641694186, "lat": 19.406822, "lon": -99.155071}, {"type": "node", "id": 12641694187, "lat": 19.4078317, "lon": -99.1549875}, {"type": "node", "id": 12641694188, "lat": 19.4068322, "lon": -99.1552086}, {"type": "node", "id": 12641694189, "lat": 19.4067377, "lon": -99.1552153}, {"type": "node", "id": 12641694190, "lat": 19.4067294, "lon": -99.1551031}, {"type": "node", "id": 12641694191, "lat": 19.406824, "lon": -99.1550973}, {"type": "node", "id": 12641694192, "lat": 19.4066204, "lon": -99.154906}, {"type": "node", "id": 12641694193, "lat": 19.4069621, "lon": -99.1550594}, {"type": "node", "id": 12641694194, "lat": 19.4078353, "lon": -99.1550343}, {"type": "node", "id": 12641694195, "lat": 19.4080069, "lon": -99.1550236}, {"type": "node", "id": 12641694196, "lat": 19.4080032, "lon": -99.1549608}, {"type": "node", "id": 12641694197, "lat": 19.408138, "lon": -99.1549499}, {"type": "node", "id": 12641694198, "lat": 19.4081399, "lon": -99.1549817}, {"type": "node", "id": 12641694199, "lat": 19.4080313, "lon": -99.1549894}, {"type": "node", "id": 12641694200, "lat": 19.4080335, "lon": -99.1550219}, {"type": "node", "id": 12641697801, "lat": 19.4078851, "lon": -99.1551442}, {"type": "node", "id": 12641697802, "lat": 19.4078169, "lon": -99.1552263}, {"type": "node", "id": 12641697803, "lat": 19.4075419, "lon": -99.1552485}, {"type": "node", "id": 12641697804, "lat": 19.4069788, "lon": -99.1552952}, {"type": "node", "id": 12641747633, "lat": 19.483591, "lon": -99.1246508}, {"type": "node", "id": 12641747634, "lat": 19.4831503, "lon": -99.1247493}, {"type": "node", "id": 12641747635, "lat": 19.4833336, "lon": -99.1256722}, {"type": "node", "id": 12641747636, "lat": 19.4847003, "lon": -99.1253843}, {"type": "node", "id": 12641747637, "lat": 19.4846269, "lon": -99.1252874}, {"type": "node", "id": 12641747638, "lat": 19.4845787, "lon": -99.1253288}, {"type": "node", "id": 12641747639, "lat": 19.4837032, "lon": -99.1252069}, {"type": "node", "id": 12641747640, "lat": 19.4833915, "lon": -99.1246955}, {"type": "node", "id": 12641747641, "lat": 19.4832844, "lon": -99.124176}, {"type": "node", "id": 12641747642, "lat": 19.4831531, "lon": -99.1242065}, {"type": "node", "id": 12641747643, "lat": 19.4832599, "lon": -99.1247249}, {"type": "node", "id": 12641747644, "lat": 19.4833226, "lon": -99.1257195}, {"type": "node", "id": 12641747645, "lat": 19.4833768, "lon": -99.125731}, {"type": "node", "id": 12641747646, "lat": 19.483396, "lon": -99.1256293}, {"type": "node", "id": 12641747647, "lat": 19.4832976, "lon": -99.1251444}, {"type": "node", "id": 12641747648, "lat": 19.4833446, "lon": -99.125136}, {"type": "node", "id": 12641747649, "lat": 19.48344, "lon": -99.125599}, {"type": "node", "id": 12641747650, "lat": 19.4835715, "lon": -99.1255685}, {"type": "node", "id": 12641747651, "lat": 19.4834773, "lon": -99.1251118}, {"type": "node", "id": 12641747652, "lat": 19.4836037, "lon": -99.1250842}, {"type": "node", "id": 12641747653, "lat": 19.4836421, "lon": -99.1252877}, {"type": "node", "id": 12641747654, "lat": 19.48377, "lon": -99.1253984}, {"type": "node", "id": 12641747655, "lat": 19.4845519, "lon": -99.1255073}, {"type": "node", "id": 12641747656, "lat": 19.4857093, "lon": -99.1250843}, {"type": "node", "id": 12641747657, "lat": 19.4856309, "lon": -99.1249734}, {"type": "node", "id": 12641747658, "lat": 19.485767, "lon": -99.1249945}, {"type": "node", "id": 12641747659, "lat": 19.4857318, "lon": -99.1249462}, {"type": "node", "id": 12641747660, "lat": 19.4845267, "lon": -99.1260131}, {"type": "node", "id": 12641747661, "lat": 19.4844891, "lon": -99.125969}, {"type": "node", "id": 12641747662, "lat": 19.4844536, "lon": -99.1260731}, {"type": "node", "id": 12641747663, "lat": 19.4844194, "lon": -99.1260261}, {"type": "node", "id": 12641747664, "lat": 19.4848303, "lon": -99.1249525}, {"type": "node", "id": 12641747665, "lat": 19.4848277, "lon": -99.1250021}, {"type": "node", "id": 12641747666, "lat": 19.4855147, "lon": -99.1259101}, {"type": "node", "id": 12641747667, "lat": 19.4855563, "lon": -99.125916}, {"type": "node", "id": 12641747668, "lat": 19.4854402, "lon": -99.1259754}, {"type": "node", "id": 12641747669, "lat": 19.4850855, "lon": -99.1258905}, {"type": "node", "id": 12641747670, "lat": 19.484767, "lon": -99.1251675}, {"type": "node", "id": 12641747671, "lat": 19.4853433, "lon": -99.1258042}, {"type": "node", "id": 12641747672, "lat": 19.4849015, "lon": -99.1252156}, {"type": "node", "id": 12641747673, "lat": 19.484729, "lon": -99.1253613}, {"type": "node", "id": 12641747674, "lat": 19.4851056, "lon": -99.1258628}, {"type": "node", "id": 12641747675, "lat": 19.485239, "lon": -99.1258924}, {"type": "node", "id": 12641747676, "lat": 19.484716, "lon": -99.1251004}, {"type": "node", "id": 12641747677, "lat": 19.4847723, "lon": -99.1250532}, {"type": "node", "id": 12641747678, "lat": 19.4847475, "lon": -99.12502}, {"type": "node", "id": 12641747679, "lat": 19.4846537, "lon": -99.1250965}, {"type": "node", "id": 12641747680, "lat": 19.4846329, "lon": -99.1250677}, {"type": "node", "id": 12641747681, "lat": 19.4849045, "lon": -99.1248464}, {"type": "node", "id": 12641747682, "lat": 19.4849253, "lon": -99.1248751}, {"type": "node", "id": 12641747683, "lat": 19.4851229, "lon": -99.1253901}, {"type": "node", "id": 12641747684, "lat": 19.4852075, "lon": -99.1254955}, {"type": "node", "id": 12641747685, "lat": 19.4856472, "lon": -99.1258396}, {"type": "node", "id": 12641747686, "lat": 19.4856675, "lon": -99.1258668}, {"type": "node", "id": 12641747687, "lat": 19.4853892, "lon": -99.1261005}, {"type": "node", "id": 12641747688, "lat": 19.485369, "lon": -99.1260734}, {"type": "node", "id": 12641747689, "lat": 19.4854573, "lon": -99.1259992}, {"type": "node", "id": 12641747690, "lat": 19.4849478, "lon": -99.1257082}, {"type": "node", "id": 12641747691, "lat": 19.4848651, "lon": -99.1256016}, {"type": "node", "id": 12641747692, "lat": 19.485149, "lon": -99.1255453}, {"type": "node", "id": 12641747693, "lat": 19.4849741, "lon": -99.1256877}, {"type": "node", "id": 12641747694, "lat": 19.4850669, "lon": -99.125436}, {"type": "node", "id": 12641747695, "lat": 19.4848927, "lon": -99.1255793}, {"type": "node", "id": 12650366086, "lat": 19.4698865, "lon": -99.1370077}, {"type": "node", "id": 12650366087, "lat": 19.4703848, "lon": -99.136191}, {"type": "node", "id": 12650366088, "lat": 19.4705094, "lon": -99.1361483}, {"type": "node", "id": 12650366089, "lat": 19.4693748, "lon": -99.1367148}, {"type": "node", "id": 12650366090, "lat": 19.4696619, "lon": -99.1366751}, {"type": "node", "id": 12650366094, "lat": 19.4681787, "lon": -99.1384188}, {"type": "node", "id": 12650366095, "lat": 19.4691737, "lon": -99.1376201}, {"type": "node", "id": 12650366096, "lat": 19.4689714, "lon": -99.1371885}, {"type": "node", "id": 12650366097, "lat": 19.4693031, "lon": -99.1366658}, {"type": "node", "id": 12650366098, "lat": 19.4695877, "lon": -99.1366258}, {"type": "node", "id": 12650366099, "lat": 19.4696111, "lon": -99.1365924}, {"type": "node", "id": 12650366100, "lat": 19.4700872, "lon": -99.1366842}, {"type": "node", "id": 12650378201, "lat": 19.4705287, "lon": -99.1362167}, {"type": "node", "id": 12650378202, "lat": 19.4704087, "lon": -99.1362566}, {"type": "node", "id": 12650378203, "lat": 19.4701349, "lon": -99.1367171}, {"type": "node", "id": 12650378204, "lat": 19.4700258, "lon": -99.1368869}, {"type": "node", "id": 12650378205, "lat": 19.4699304, "lon": -99.137038}, {"type": "node", "id": 12650378206, "lat": 19.4699827, "lon": -99.1368574}, {"type": "node", "id": 12650378207, "lat": 19.4696811, "lon": -99.1366457}, {"type": "node", "id": 12650378208, "lat": 19.4690678, "lon": -99.137181}, {"type": "node", "id": 12650378209, "lat": 19.4692831, "lon": -99.1376513}, {"type": "node", "id": 12650378210, "lat": 19.4682261, "lon": -99.1384844}, {"type": "node", "id": 12653975751, "lat": 19.4259744, "lon": -99.1489774}, {"type": "node", "id": 12653975752, "lat": 19.4257074, "lon": -99.1493194}, {"type": "node", "id": 12653975753, "lat": 19.4270129, "lon": -99.1488354}, {"type": "node", "id": 12653975754, "lat": 19.4269154, "lon": -99.148847}, {"type": "node", "id": 12653975755, "lat": 19.4268952, "lon": -99.1487096}, {"type": "node", "id": 12653975756, "lat": 19.4266538, "lon": -99.148868}, {"type": "node", "id": 12653975757, "lat": 19.4266195, "lon": -99.1488355}, {"type": "node", "id": 12653975758, "lat": 19.4262633, "lon": -99.1489005}, {"type": "node", "id": 12653975759, "lat": 19.4262488, "lon": -99.1489251}, {"type": "node", "id": 12653975760, "lat": 19.4259832, "lon": -99.1490291}, {"type": "node", "id": 12653975761, "lat": 19.426111, "lon": -99.1490043}, {"type": "node", "id": 12653975762, "lat": 19.4261151, "lon": -99.1490269}, {"type": "node", "id": 12653975763, "lat": 19.4259872, "lon": -99.1490526}, {"type": "node", "id": 12653975764, "lat": 19.4259702, "lon": -99.1490802}, {"type": "node", "id": 12653975765, "lat": 19.4256727, "lon": -99.1491386}, {"type": "node", "id": 12653975766, "lat": 19.4260019, "lon": -99.1492633}, {"type": "node", "id": 12653975767, "lat": 19.4260255, "lon": -99.149277}, {"type": "node", "id": 12653975768, "lat": 19.4262996, "lon": -99.1492218}, {"type": "node", "id": 12653975769, "lat": 19.4263226, "lon": -99.1492349}, {"type": "node", "id": 12653975770, "lat": 19.426638, "lon": -99.1491666}, {"type": "node", "id": 12653975771, "lat": 19.427059, "lon": -99.1491298}, {"type": "node", "id": 12653975772, "lat": 19.4261032, "lon": -99.1489528}, {"type": "node", "id": 12653975773, "lat": 19.426898, "lon": -99.1501778}, {"type": "node", "id": 12653975774, "lat": 19.4268376, "lon": -99.1498675}, {"type": "node", "id": 12653975775, "lat": 19.4269088, "lon": -99.149422}, {"type": "node", "id": 12653975776, "lat": 19.4267957, "lon": -99.1491765}, {"type": "node", "id": 12653975777, "lat": 19.426735, "lon": -99.148771}, {"type": "node", "id": 12653975778, "lat": 19.4269076, "lon": -99.148794}, {"type": "node", "id": 12653975779, "lat": 19.4270453, "lon": -99.1486462}, {"type": "node", "id": 12653975780, "lat": 19.4273555, "lon": -99.1487325}, {"type": "node", "id": 12653975781, "lat": 19.4274513, "lon": -99.1487158}, {"type": "node", "id": 12653975782, "lat": 19.4274309, "lon": -99.1485991}, {"type": "node", "id": 12653975783, "lat": 19.4274783, "lon": -99.1485909}, {"type": "node", "id": 12653975784, "lat": 19.4275504, "lon": -99.1490284}, {"type": "node", "id": 12653975785, "lat": 19.4276601, "lon": -99.1490081}, {"type": "node", "id": 12653975786, "lat": 19.4276727, "lon": -99.1490856}, {"type": "node", "id": 12653975787, "lat": 19.4273126, "lon": -99.1491533}, {"type": "node", "id": 12653975788, "lat": 19.4272475, "lon": -99.1494196}, {"type": "node", "id": 12653975789, "lat": 19.4271385, "lon": -99.1494706}, {"type": "node", "id": 12653975790, "lat": 19.4270174, "lon": -99.1499266}, {"type": "node", "id": 12653975791, "lat": 19.4269694, "lon": -99.1499118}, {"type": "node", "id": 12653975792, "lat": 19.4267967, "lon": -99.1498542}, {"type": "node", "id": 12653975793, "lat": 19.4267651, "lon": -99.1501377}, {"type": "node", "id": 12653975794, "lat": 19.427563, "lon": -99.1491056}, {"type": "node", "id": 12653975799, "lat": 19.427248, "lon": -99.1488738}, {"type": "node", "id": 12653975800, "lat": 19.4274567, "lon": -99.1487589}, {"type": "node", "id": 12654040301, "lat": 19.4273531, "lon": -99.1487758}, {"type": "node", "id": 12654040302, "lat": 19.4270588, "lon": -99.1486955}, {"type": "node", "id": 12654040303, "lat": 19.4272693, "lon": -99.1490803}, {"type": "node", "id": 12654040304, "lat": 19.4275001, "lon": -99.1490377}, {"type": "node", "id": 12654040305, "lat": 19.4271988, "lon": -99.1490572}, {"type": "node", "id": 12654040306, "lat": 19.4272204, "lon": -99.1488655}, {"type": "node", "id": 12654040307, "lat": 19.4272518, "lon": -99.1487481}, {"type": "node", "id": 12654040308, "lat": 19.427135, "lon": -99.1488397}, {"type": "node", "id": 12654040309, "lat": 19.427164, "lon": -99.1487242}, {"type": "node", "id": 12654040310, "lat": 19.4270917, "lon": -99.1488265}, {"type": "node", "id": 12654040311, "lat": 19.4270176, "lon": -99.1488656}, {"type": "node", "id": 12654040312, "lat": 19.4270873, "lon": -99.148858}, {"type": "node", "id": 12654040313, "lat": 19.4270907, "lon": -99.1488914}, {"type": "node", "id": 12654040314, "lat": 19.4270231, "lon": -99.1489007}, {"type": "node", "id": 12654040315, "lat": 19.426913, "lon": -99.1488473}, {"type": "node", "id": 12654040316, "lat": 19.4269173, "lon": -99.1488791}, {"type": "node", "id": 12654040317, "lat": 19.4269223, "lon": -99.1489158}, {"type": "node", "id": 12657126260, "lat": 19.426921, "lon": -99.1433856, "tags": {"name": "Salto del Agua", "network": "STC Metro", "opening_hours": "Mo-Fr 05:00-24:00; Sa 06:00-24:00; Su 07:00-24:00", "operator": "Sistema de Transporte Colectivo", "public_transport": "stop_position", "railway": "stop", "station": "subway", "subway": "yes"}}, {"type": "node", "id": 12657176074, "lat": 19.4459701, "lon": -99.1516235}, {"type": "node", "id": 12657176075, "lat": 19.446125, "lon": -99.1515951}, {"type": "node", "id": 12657176076, "lat": 19.446367, "lon": -99.1530831}, {"type": "node", "id": 12657176077, "lat": 19.4462123, "lon": -99.1531114}, {"type": "node", "id": 12657176079, "lat": 19.446046, "lon": -99.1525691}, {"type": "node", "id": 12657176080, "lat": 19.4466113, "lon": -99.1524629}, {"type": "node", "id": 12657176081, "lat": 19.4464238, "lon": -99.1524987}, {"type": "node", "id": 12657176082, "lat": 19.4463471, "lon": -99.1520795}, {"type": "node", "id": 12657176083, "lat": 19.4463097, "lon": -99.1520859}, {"type": "node", "id": 12657176084, "lat": 19.4463281, "lon": -99.1521892}, {"type": "node", "id": 12657176085, "lat": 19.4462247, "lon": -99.1522082}, {"type": "node", "id": 12657176086, "lat": 19.4460713, "lon": -99.1522455}, {"type": "node", "id": 12657176087, "lat": 19.4459093, "lon": -99.152275}, {"type": "node", "id": 12657176088, "lat": 19.4458937, "lon": -99.152179}, {"type": "node", "id": 12657176089, "lat": 19.4458666, "lon": -99.152185}, {"type": "node", "id": 12657176090, "lat": 19.4458895, "lon": -99.1523129}, {"type": "node", "id": 12657176091, "lat": 19.4459994, "lon": -99.1522932}, {"type": "node", "id": 12657176092, "lat": 19.445971, "lon": -99.1526491}, {"type": "node", "id": 12657176093, "lat": 19.4460403, "lon": -99.1527373}, {"type": "node", "id": 12657176094, "lat": 19.4460627, "lon": -99.1527162}, {"type": "node", "id": 12657176095, "lat": 19.4460064, "lon": -99.1526522}, {"type": "node", "id": 12657176096, "lat": 19.4460874, "lon": -99.1525623}, {"type": "node", "id": 12657176097, "lat": 19.4461218, "lon": -99.1525555}, {"type": "node", "id": 12657176098, "lat": 19.4463144, "lon": -99.1527596}, {"type": "node", "id": 12657400185, "lat": 19.3760604, "lon": -99.1873042}, {"type": "node", "id": 12657400186, "lat": 19.3757252, "lon": -99.1874037}, {"type": "node", "id": 12657400187, "lat": 19.3756097, "lon": -99.1869669}, {"type": "node", "id": 12657400188, "lat": 19.3755084, "lon": -99.1869167}, {"type": "node", "id": 12657400189, "lat": 19.3754535, "lon": -99.1869329}, {"type": "node", "id": 12657400190, "lat": 19.3754178, "lon": -99.1867972}, {"type": "node", "id": 12657400191, "lat": 19.3750883, "lon": -99.1868945}, {"type": "node", "id": 12657400192, "lat": 19.3754902, "lon": -99.1866955}, {"type": "node", "id": 12657400193, "lat": 19.3755324, "lon": -99.1866123}, {"type": "node", "id": 12657400194, "lat": 19.3752985, "lon": -99.1857525}, {"type": "node", "id": 12657400195, "lat": 19.3755006, "lon": -99.1856907}, {"type": "node", "id": 12657400196, "lat": 19.3757358, "lon": -99.1865553}, {"type": "node", "id": 12657400197, "lat": 19.3758245, "lon": -99.1865931}, {"type": "node", "id": 12657400198, "lat": 19.3761868, "lon": -99.1864838}, {"type": "node", "id": 12657400199, "lat": 19.3762317, "lon": -99.1865129}, {"type": "node", "id": 12657400200, "lat": 19.3759025, "lon": -99.1866123}, {"type": "node", "id": 12657431201, "lat": 19.3759331, "lon": -99.1867261}, {"type": "node", "id": 12657431202, "lat": 19.3761561, "lon": -99.1868962}, {"type": "node", "id": 12657431203, "lat": 19.3762022, "lon": -99.187067}, {"type": "node", "id": 12657431206, "lat": 19.3769112, "lon": -99.1874592}, {"type": "node", "id": 12657431207, "lat": 19.3769257, "lon": -99.1876038}, {"type": "node", "id": 12657431208, "lat": 19.3755492, "lon": -99.187758}, {"type": "node", "id": 12657431209, "lat": 19.3755348, "lon": -99.1876137}, {"type": "node", "id": 12657431210, "lat": 19.3764975, "lon": -99.1877219}, {"type": "node", "id": 12657431211, "lat": 19.3764609, "lon": -99.187439}, {"type": "node", "id": 12657431212, "lat": 19.3759604, "lon": -99.1874985}, {"type": "node", "id": 12657431213, "lat": 19.3760038, "lon": -99.1877802}, {"type": "node", "id": 12657431214, "lat": 19.3755751, "lon": -99.1884789}, {"type": "node", "id": 12657431215, "lat": 19.3756006, "lon": -99.1881682}, {"type": "node", "id": 12657431216, "lat": 19.3755692, "lon": -99.1881653}, {"type": "node", "id": 12657431217, "lat": 19.3755438, "lon": -99.188476}, {"type": "node", "id": 12657431218, "lat": 19.3763105, "lon": -99.1874579}, {"type": "node", "id": 12657431220, "lat": 19.3762009, "lon": -99.1874696}, {"type": "node", "id": 12657431221, "lat": 19.3759391, "lon": -99.1875684}, {"type": "node", "id": 12657431222, "lat": 19.3759542, "lon": -99.1877127}, {"type": "node", "id": 12657431223, "lat": 19.3761897, "lon": -99.1877582}, {"type": "node", "id": 12657431224, "lat": 19.3762378, "lon": -99.1881961}, {"type": "node", "id": 12657431225, "lat": 19.3755911, "lon": -99.1882846}, {"type": "node", "id": 12657431226, "lat": 19.3755878, "lon": -99.1883246}, {"type": "node", "id": 12657431227, "lat": 19.3762765, "lon": -99.1882294}, {"type": "node", "id": 12657431228, "lat": 19.3762733, "lon": -99.1881918}, {"type": "node", "id": 12657431229, "lat": 19.3763081, "lon": -99.1877442}, {"type": "node", "id": 12657431230, "lat": 19.3765213, "lon": -99.1876491}, {"type": "node", "id": 12657431231, "lat": 19.3765058, "lon": -99.1875048}, {"type": "node", "id": 12657431232, "lat": 19.3763044, "lon": -99.1877103}, {"type": "node", "id": 12657431233, "lat": 19.3763004, "lon": -99.1876738}, {"type": "node", "id": 12657431234, "lat": 19.3764935, "lon": -99.1876522}, {"type": "node", "id": 12657431235, "lat": 19.376482, "lon": -99.1876903}, {"type": "node", "id": 12657431237, "lat": 19.3764953, "lon": -99.1876703}, {"type": "node", "id": 12657431238, "lat": 19.376525, "lon": -99.1876838}, {"type": "node", "id": 12657431239, "lat": 19.3762804, "lon": -99.1874927}, {"type": "node", "id": 12657431240, "lat": 19.3762843, "lon": -99.1875281}, {"type": "node", "id": 12657431241, "lat": 19.3764817, "lon": -99.1875059}, {"type": "node", "id": 12657431242, "lat": 19.3764798, "lon": -99.1874876}, {"type": "node", "id": 12657431243, "lat": 19.3764628, "lon": -99.187471}, {"type": "node", "id": 12657431244, "lat": 19.3765027, "lon": -99.1874749}, {"type": "node", "id": 12657431245, "lat": 19.3761621, "lon": -99.1875074}, {"type": "node", "id": 12657431246, "lat": 19.3761659, "lon": -99.1875418}, {"type": "node", "id": 12657431247, "lat": 19.3759669, "lon": -99.1875642}, {"type": "node", "id": 12657431248, "lat": 19.3759651, "lon": -99.1875459}, {"type": "node", "id": 12657431249, "lat": 19.3759784, "lon": -99.1875259}, {"type": "node", "id": 12657431250, "lat": 19.3761859, "lon": -99.187724}, {"type": "node", "id": 12657431251, "lat": 19.3761819, "lon": -99.1876875}, {"type": "node", "id": 12657431252, "lat": 19.3759843, "lon": -99.1877097}, {"type": "node", "id": 12657431253, "lat": 19.3759861, "lon": -99.187728}, {"type": "node", "id": 12657431254, "lat": 19.3760031, "lon": -99.1877446}, {"type": "node", "id": 12657431255, "lat": 19.3759568, "lon": -99.1877357}, {"type": "node", "id": 12657431256, "lat": 19.3759355, "lon": -99.1875347}, {"type": "node", "id": 12662561163, "lat": 19.4094101, "lon": -99.1219076, "tags": {"name": "Jamaica", "network": "STC Metro", "network:wikidata": "Q735042", "public_transport": "station", "railway": "station", "station": "subway", "subway": "yes", "wikidata": "Q3377006", "wikimedia_commons": "Category:Estaci\u00f3n Jamaica (Metro de M\u00e9xico)", "wikipedia": "es:Jamaica (estaci\u00f3n del Metro de Ciudad de M\u00e9xico)"}}, {"type": "node", "id": 12679525779, "lat": 19.3600503, "lon": -99.1432067, "tags": {"name": "Ermita", "network": "STC Metro", "network:wikidata": "Q735042", "railway": "station", "station": "subway", "wikidata": "Q5256668", "wikimedia_commons": "Category:Estaci\u00f3n Ermita (Metro de M\u00e9xico)", "wikipedia": "es:Ermita (estaci\u00f3n)"}}, {"type": "node", "id": 12736564590, "lat": 19.4374065, "lon": -99.1466643, "tags": {"name": "Hidalgo", "network": "STC Metro", "network:wikidata": "Q735042", "public_transport": "station", "railway": "station", "station": "subway", "subway": "yes", "wikidata": "Q2541914", "wikimedia_commons": "Category:Estaci\u00f3n Hidalgo (Metro de M\u00e9xico)", "wikipedia": "es:Hidalgo (estaci\u00f3n)"}}, {"type": "node", "id": 12785180677, "lat": 19.4315049, "lon": -99.1412928, "tags": {"name": "San Juan de Letr\u00e1n", "network": "STC Metro", "operator": "Sistema de Transporte Colectivo", "public_transport": "stop_position", "railway": "stop", "station": "subway", "subway": "yes"}}, {"type": "node", "id": 13037068477, "lat": 19.4269635, "lon": -99.1433804, "tags": {"name": "Salto del Agua", "network": "STC Metro", "opening_hours": "Mo-Fr 05:00-24:00; Sa 06:00-24:00; Su 07:00-24:00", "operator": "Sistema de Transporte Colectivo", "public_transport": "stop_position", "railway": "stop", "station": "subway", "subway": "yes"}}, {"type": "node", "id": 13051011608, "lat": 19.4321255, "lon": -99.1325879}, {"type": "node", "id": 13051011612, "lat": 19.4322512, "lon": -99.1321837}, {"type": "node", "id": 13051026065, "lat": 19.4321931, "lon": -99.1321896, "tags": {"name": "Z\u00f3calo", "network": "STC Metro", "railway": "subway_entrance"}}, {"type": "node", "id": 13051026066, "lat": 19.4331231, "lon": -99.1321}, {"type": "node", "id": 13051026068, "lat": 19.4330623, "lon": -99.1320683}, {"type": "node", "id": 13051026070, "lat": 19.4322527, "lon": -99.1322011}, {"type": "node", "id": 13051026071, "lat": 19.4321952, "lon": -99.1322071}, {"type": "node", "id": 13051026072, "lat": 19.4321919, "lon": -99.1321694}, {"type": "node", "id": 13051026073, "lat": 19.4322494, "lon": -99.1321637}, {"type": "node", "id": 13052463137, "lat": 19.3847837, "lon": -99.2359735}, {"type": "node", "id": 13052463138, "lat": 19.3847824, "lon": -99.2360556}, {"type": "node", "id": 13052463139, "lat": 19.3851059, "lon": -99.2360616}, {"type": "node", "id": 13052463140, "lat": 19.3851072, "lon": -99.2359794}, {"type": "node", "id": 13071664544, "lat": 19.4330078, "lon": -99.1475957}, {"type": "node", "id": 13071664545, "lat": 19.4337284, "lon": -99.1474609}, {"type": "node", "id": 13073420176, "lat": 19.4315775, "lon": -99.1325087}, {"type": "node", "id": 13073420177, "lat": 19.4313703, "lon": -99.132537}, {"type": "node", "id": 13073420178, "lat": 19.4315336, "lon": -99.1321608}, {"type": "node", "id": 13073420179, "lat": 19.4313266, "lon": -99.1321896}, {"type": "node", "id": 13088804896, "lat": 19.4614841, "lon": -99.0621829}, {"type": "node", "id": 13088804897, "lat": 19.4619231, "lon": -99.0606639}, {"type": "node", "id": 13088839314, "lat": 19.4614156, "lon": -99.0621367}, {"type": "node", "id": 13088839315, "lat": 19.461842, "lon": -99.0606728}, {"type": "node", "id": 13089350843, "lat": 19.4616807, "lon": -99.061347, "tags": {"name": "Villa de Arag\u00f3n", "network": "STC Metro", "opening_hours": "Mo-Fr 05:00-24:00; Sa 06:00-24:00; Su 07:00-24:00", "operator": "Sistema de Transporte Colectivo", "public_transport": "station", "railway": "station", "start_date": "1999", "station": "subway", "subway": "yes", "wheelchair": "yes", "wikidata": "Q6824768", "wikimedia_commons": "Category:Estaci\u00f3n Villa de Arag\u00f3n (Metro de M\u00e9xico)", "wikipedia": "es:Villa de Arag\u00f3n (estaci\u00f3n)"}}, {"type": "node", "id": 13089350844, "lat": 19.4580731, "lon": -99.06934, "tags": {"name": "Bosque de Arag\u00f3n", "network": "STC Metro", "opening_hours": "Mo-Fr 05:00-24:00; Sa 06:00-24:00; Su 07:00-24:00", "operator": "Sistema de Transporte Colectivo", "public_transport": "station", "railway": "station", "start_date": "1999", "station": "subway", "subway": "yes", "wikidata": "Q6824508", "wikimedia_commons": "Category:Estaci\u00f3n Bosque de Arag\u00f3n (Metro de M\u00e9xico)", "wikipedia": "es:Bosque de Arag\u00f3n (estaci\u00f3n)"}}, {"type": "node", "id": 13089350845, "lat": 19.4510853, "lon": -99.0791851, "tags": {"name": "Deportivo Ocean\u00eda", "network": "STC Metro", "opening_hours": "Mo-Fr 05:00-24:00; Sa 06:00-24:00; Su 07:00-24:00", "operator": "Sistema de Transporte Colectivo", "public_transport": "station", "railway": "station", "start_date": "1999", "station": "subway", "subway": "yes", "wikidata": "Q6824555", "wikimedia_commons": "Category:Estaci\u00f3n Deportivo Ocean\u00eda (Metro de M\u00e9xico)", "wikipedia": "es:Deportivo Ocean\u00eda (estaci\u00f3n)"}}, {"type": "node", "id": 13092458094, "lat": 19.40722, "lon": -99.0824754, "tags": {"name": "Puebla", "network": "STC Metro", "opening_hours": "Mo-Fr 05:00-24:00; Sa 06:00-24:00; Su 07:00-24:00", "operator": "Sistema de Transporte Colectivo", "public_transport": "station", "railway": "station", "station": "subway", "subway": "yes", "wikidata": "Q6824679", "wikimedia_commons": "Category:Estaci\u00f3n Puebla (Metro de M\u00e9xico)", "wikipedia": "es:Puebla (estaci\u00f3n)"}}, {"type": "node", "id": 13092458095, "lat": 19.4084666, "lon": -99.0913474, "tags": {"name": "Ciudad Deportiva", "network": "STC Metro", "opening_hours": "Mo-Fr 05:00-24:00; Sa 06:00-24:00; Su 07:00-24:00", "operator": "Sistema de Transporte Colectivo", "public_transport": "station", "railway": "station", "station": "subway", "subway": "yes", "wheelchair": "yes", "wikidata": "Q6824544", "wikimedia_commons": "Category:Estaci\u00f3n Ciudad Deportiva (Metro de M\u00e9xico)", "wikipedia": "es:Ciudad Deportiva (estaci\u00f3n)"}}, {"type": "node", "id": 13092458096, "lat": 19.4085614, "lon": -99.1030767, "tags": {"name": "Vel\u00f3dromo", "network": "STC Metro", "opening_hours": "Mo-Fr 05:00-24:00; Sa 06:00-24:00; Su 07:00-24:00", "operator": "Sistema de Transporte Colectivo", "public_transport": "station", "railway": "station", "station": "subway", "subway": "yes", "wheelchair": "yes", "wikidata": "Q6824767", "wikimedia_commons": "Category:Estaci\u00f3n Vel\u00f3dromo (Metro de M\u00e9xico)", "wikipedia": "es:Vel\u00f3dromo (estaci\u00f3n)"}}, {"type": "node", "id": 13092458099, "lat": 19.4153788, "lon": -99.0723213, "tags": {"name": "Pantitl\u00e1n", "operator": "Sistema de Transporte Colectivo", "public_transport": "station", "railway": "station", "station": "subway", "subway": "yes"}}, {"type": "node", "id": 13092458100, "lat": 19.4152764, "lon": -99.0719377, "tags": {"name": "Pantitl\u00e1n", "network": "L\u00ednea A", "operator": "Sistema de Transporte Colectivo", "public_transport": "station", "railway": "station", "station": "subway", "subway": "yes"}}, {"type": "node", "id": 13092535103, "lat": 19.4407943, "lon": -99.0943848, "tags": {"name": "Romero Rubio", "network": "STC Metro", "opening_hours": "Mo-Fr 05:00-24:00; Sa 06:00-24:00; Su 07:00-24:00", "operator": "Sistema de Transporte Colectivo", "public_transport": "station", "railway": "station", "station": "subway", "subway": "yes", "wikidata": "Q6824691", "wikimedia_commons": "Category:Estaci\u00f3n Romero Rubio (Metro de M\u00e9xico)", "wikipedia": "es:Romero Rubio (estaci\u00f3n)"}}, {"type": "node", "id": 13092535120, "lat": 19.4366168, "lon": -99.1036908, "tags": {"name": "Ricardo Flores Mag\u00f3n", "network": "STC Metro", "opening_hours": "Mo-Fr 05:00-24:00; Sa 06:00-24:00; Su 07:00-24:00", "operator": "Sistema de Transporte Colectivo", "public_transport": "station", "railway": "station", "station": "subway", "subway": "yes", "wikidata": "Q601519", "wikimedia_commons": "Category:Estaci\u00f3n Ricardo Flores Mag\u00f3n (Metro de M\u00e9xico)", "wikipedia": "es:Ricardo Flores Mag\u00f3n (estaci\u00f3n)"}}, {"type": "node", "id": 13094174901, "lat": 19.4427945, "lon": -99.1241748, "tags": {"name": "Tepito", "network": "STC Metro", "opening_hours": "Mo-Fr 05:00-24:00; Sa 06:00-24:00; Su 07:00-24:00", "operator": "Sistema de Transporte Colectivo", "public_transport": "station", "railway": "station", "station": "subway", "subway": "yes", "wikidata": "Q5402969", "wikimedia_commons": "Category:Estaci\u00f3n Tepito (Metro de M\u00e9xico)", "wikipedia": "es:Tepito (estaci\u00f3n)"}}, {"type": "node", "id": 13094174905, "lat": 19.4432839, "lon": -99.1318379, "tags": {"name": "Lagunilla", "network": "STC Metro", "opening_hours": "Mo-Fr 05:00-24:00; Sa 06:00-24:00; Su 07:00-24:00", "operator": "Sistema de Transporte Colectivo", "public_transport": "station", "railway": "station", "station": "subway", "subway": "yes", "wikidata": "Q6824610", "wikimedia_commons": "Category:Estaci\u00f3n Lagunilla (Metro de M\u00e9xico)", "wikipedia": "es:Lagunilla (estaci\u00f3n)"}}, {"type": "node", "id": 13094174915, "lat": 19.4461432, "lon": -99.1523648, "tags": {"name": "Buenavista", "network": "STC Metro", "opening_hours": "Mo-Fr 05:00-24:00; Sa 06:00-24:00; Su 07:00-24:00", "operator": "Sistema de Transporte Colectivo", "public_transport": "station", "railway": "station", "station": "subway", "subway": "yes", "wheelchair": "yes", "wikidata": "Q3431142", "wikimedia_commons": "Category:Estaci\u00f3n Buenavista (Metro de M\u00e9xico)", "wikipedia": "es:Buenavista (estaci\u00f3n)"}}, {"type": "node", "id": 13094516124, "lat": 19.4242775, "lon": -99.0880008, "tags": {"name": "Hangares", "network": "STC Metro", "opening_hours": "Mo-Fr 05:00-24:00; Sa 06:00-24:00; Su 07:00-24:00", "operator": "Sistema de Transporte Colectivo", "public_transport": "station", "railway": "station", "station": "subway", "subway": "yes", "wikidata": "Q6824582", "wikimedia_commons": "Category:Estaci\u00f3n Hangares (Metro de M\u00e9xico)", "wikipedia": "es:Hangares (estaci\u00f3n)"}}, {"type": "node", "id": 13094516125, "lat": 19.4339894, "lon": -99.0882569, "tags": {"name": "Terminal A\u00e9rea", "network": "STC Metro", "opening_hours": "Mo-Fr 05:00-24:00; Sa 06:00-24:00; Su 07:00-24:00", "operator": "Sistema de Transporte Colectivo", "public_transport": "station", "railway": "station", "station": "subway", "subway": "yes", "wikidata": "Q6824733", "wikimedia_commons": "Category:Estaci\u00f3n Terminal A\u00e9rea (Metro de M\u00e9xico)", "wikipedia": "es:Terminal A\u00e9rea (estaci\u00f3n)"}}, {"type": "node", "id": 13094516128, "lat": 19.4447282, "lon": -99.0867166, "tags": {"name": "Ocean\u00eda", "network": "STC Metro", "public_transport": "station", "railway": "station", "station": "subway", "subway": "yes", "wikidata": "Q522857", "wikimedia_commons": "Category:Estaci\u00f3n Ocean\u00eda (Metro de M\u00e9xico)", "wikipedia": "es:Ocean\u00eda (estaci\u00f3n)"}}, {"type": "node", "id": 13094516129, "lat": 19.4512592, "lon": -99.0962392, "tags": {"name": "Arag\u00f3n", "network": "STC Metro", "opening_hours": "Mo-Fr 05:00-24:00; Sa 06:00-24:00; Su 07:00-24:00", "operator": "Sistema de Transporte Colectivo", "public_transport": "station", "railway": "station", "station": "subway", "subway": "yes", "wikidata": "Q6824481", "wikimedia_commons": "Category:Estaci\u00f3n Arag\u00f3n (Metro de M\u00e9xico)", "wikipedia": "es:Arag\u00f3n (estaci\u00f3n)"}}, {"type": "node", "id": 13094535905, "lat": 19.4551068, "lon": -99.1135125, "tags": {"name": "Consulado", "network": "STC Metro", "network:wikidata": "Q735042", "public_transport": "station", "railway": "station", "station": "subway", "subway": "yes", "wikidata": "Q6824549", "wikimedia_commons": "Category:Estaci\u00f3n Consulado (Metro de M\u00e9xico)", "wikipedia": "es:Consulado (estaci\u00f3n)"}}, {"type": "node", "id": 13094535906, "lat": 19.4555288, "lon": -99.1140041, "tags": {"name": "Consulado L5", "network": "STC Metro", "network:wikidata": "Q735042", "public_transport": "stop_position", "railway": "stop", "station": "subway", "subway": "yes"}}, {"type": "node", "id": 13094535910, "lat": 19.4513845, "lon": -99.1052987, "tags": {"name": "Eduardo Molina", "network": "STC Metro", "opening_hours": "Mo-Fr 05:00-24:00; Sa 06:00-24:00; Su 07:00-24:00", "operator": "Sistema de Transporte Colectivo", "public_transport": "station", "railway": "station", "station": "subway", "subway": "yes", "wikidata": "Q6824560", "wikimedia_commons": "Category:Estaci\u00f3n Eduardo Molina (Metro de M\u00e9xico)", "wikipedia": "es:Eduardo Molina (estaci\u00f3n)"}}, {"type": "node", "id": 13096079164, "lat": 19.425671, "lon": -99.1545829, "tags": {"name": "Cuauht\u00e9moc", "network": "STC Metro", "network:wikidata": "Q735042", "public_transport": "station", "railway": "station", "station": "subway", "subway": "yes", "wikidata": "Q3356912", "wikimedia_commons": "Category:Estaci\u00f3n Cuauht\u00e9moc (Metro de M\u00e9xico)", "wikipedia": "es:Cuauht\u00e9moc (estaci\u00f3n del Metro de la Ciudad de M\u00e9xico)"}}, {"type": "node", "id": 13096157850, "lat": 19.4690311, "lon": -99.1360476}, {"type": "node", "id": 13096157851, "lat": 19.4703324, "lon": -99.1369567}, {"type": "node", "id": 13096157853, "lat": 19.4690039, "lon": -99.1360914}, {"type": "node", "id": 13096157856, "lat": 19.4696943, "lon": -99.1365468, "tags": {"name": "La Raza", "public_transport": "station", "railway": "station", "station": "subway", "subway": "yes"}}, {"type": "node", "id": 13096157888, "lat": 19.4789381, "lon": -99.1406076, "tags": {"name": "Autobuses del Norte", "network": "STC Metro", "opening_hours": "Mo-Fr 05:00-24:00; Sa 06:00-24:00; Su 07:00-24:00", "operator": "Sistema de Transporte Colectivo", "public_transport": "station", "railway": "station", "station": "subway", "subway": "yes", "wheelchair": "yes", "wikidata": "Q6824496", "wikimedia_commons": "Category:Estaci\u00f3n Autobuses del Norte (Metro de M\u00e9xico)", "wikipedia": "es:Autobuses del Norte (estaci\u00f3n)"}}, {"type": "node", "id": 13096174704, "lat": 19.4894066, "lon": -99.1447315, "tags": {"name": "Instituto del Petr\u00f3leo", "network": "STC Metro", "public_transport": "station", "railway": "station", "station": "subway", "subway": "yes", "wikidata": "Q6824591", "wikimedia_commons": "Category:Estaci\u00f3n Instituto del Petr\u00f3leo (Metro de M\u00e9xico)", "wikipedia": "es:Instituto del Petr\u00f3leo (estaci\u00f3n)"}}, {"type": "node", "id": 13099792390, "lat": 19.4162951, "lon": -99.0747848, "tags": {"name": "Pantitl\u00e1n", "operator": "Sistema de Transporte Colectivo", "public_transport": "station", "railway": "station", "station": "subway", "subway": "yes", "wheelchair": "yes"}}, {"type": "node", "id": 13100444139, "lat": 19.4580517, "lon": -99.1139258, "tags": {"name": "Consulado L4", "network": "STC Metro", "network:wikidata": "Q735042", "public_transport": "station", "railway": "station", "station": "subway", "subway": "yes", "wikidata": "Q6824549", "wikimedia_commons": "Category:Estaci\u00f3n Consulado (Metro de M\u00e9xico)", "wikipedia": "es:Consulado (estaci\u00f3n)"}}, {"type": "node", "id": 13122123327, "lat": 19.4266434, "lon": -99.149189}, {"type": "node", "id": 13126295750, "lat": 19.4393122, "lon": -99.153786}, {"type": "node", "id": 13126295751, "lat": 19.4394102, "lon": -99.1540296}, {"type": "node", "id": 13193634255, "lat": 19.4083515, "lon": -99.1126643, "tags": {"layer": "-2", "name": "Mixiuhca", "network": "STC Metro", "network:wikidata": "Q735042", "public_transport": "station", "railway": "station", "station": "subway", "subway": "yes"}}, {"type": "way", "id": 217355642, "nodes": [2266277422, 2266277428, 13088804896, 2266277426, 13088839314, 2266277424, 2266277429, 8307507297, 2266277430, 2266277421, 2266277420, 2266277432, 8307507296, 2266277423, 2266277425, 13088839315, 2266277431, 13088804897, 2266277433, 2266277427, 8307507299, 2266277419, 2266277434, 8307507298, 2266277422], "tags": {"building": "yes", "covered": "roof", "layer": "1", "name": "Metro Villa de Arag\u00f3n LB", "network": "STC Metro", "network:wikidata": "Q735042", "public_transport": "station", "railway": "station", "station": "subway", "subway": "yes"}}, {"type": "way", "id": 217419203, "nodes": [2266867577, 2266867582, 2266867589, 6577130618, 2266867580, 2266867571, 6406950274, 2266867593, 2266867579, 2266867595, 2266867581, 6577130616, 2266867578, 2266867575, 6577130617, 2266867601, 2266867577], "tags": {"building": "transportation", "name": "Observatorio", "network": "STC Metro", "public_transport": "station", "railway": "station", "station": "subway", "subway": "yes", "wikidata": "Q388460", "wikipedia": "es:Observatorio (estaci\u00f3n)"}}, {"type": "way", "id": 217801323, "nodes": [2271070944, 2271070943, 2271070942, 2271070945, 2271070944], "tags": {"building": "transportation", "layer": "1", "name": "Indios Verdes", "network": "STC Metro", "network:wikidata": "Q735042", "public_transport": "station", "railway": "station", "station": "subway", "subway": "yes", "wikidata": "Q3431052", "wikipedia": "es:Indios Verdes (estaci\u00f3n)"}}, {"type": "way", "id": 217802099, "nodes": [2271077239, 2271077220, 2271077258, 2271077254, 2271077239], "tags": {"building": "transportation", "name": "Potrero", "network": "STC Metro", "public_transport": "station", "railway": "station", "station": "subway", "subway": "yes", "wikidata": "Q6824678", "wikipedia": "es:Potrero (estaci\u00f3n)"}}, {"type": "way", "id": 668144612, "nodes": [11232636383, 6256741349, 6256741350, 6256741351, 6256741352, 6256741338, 6256741339, 6256741345, 11232636379, 11232636380, 11232636381, 11232636382, 6256741346, 6256741347, 6256741348, 6256741341, 6256741342, 6256741343, 6256741344, 11232636383], "tags": {"building:part": "yes", "window": "skylight"}}, {"type": "way", "id": 977916473, "nodes": [9048690791, 4575550185, 12149273643, 9048690792, 9048690793, 12149273645, 9867671342, 9048690794, 9048690791], "tags": {"building": "construction", "layer": "1", "name": "Estaci\u00f3n Vasco de Quiroga", "network": "Tren Interurbano M\u00e9xico-Toluca", "opening_date": "2025-12", "public_transport": "station", "railway": "station", "train": "yes"}}, {"type": "way", "id": 1176704055, "nodes": [10932517612, 10932517613, 10932517614, 10932517615, 10932517616, 11903071166, 10932517617, 11903071175, 10932517618, 10932517619, 10932517620, 10932517621, 10932517622, 10932517623, 10932517612], "tags": {"alt_name": "Tren esc\u00e9nico", "building": "yes", "name": "Estaci\u00f3n de Tren Bosque San Juan de Aragon", "public_transport": "station", "railway": "station", "train": "yes"}}, {"type": "way", "id": 1178449762, "nodes": [2266097738, 2266097735, 2266072021, 10947619374, 10947619375, 10947619376, 10947619377, 2266072030, 2266097741, 2266097743, 2266097736, 10947619378, 10947619379, 10947619380, 10947619381, 10947619382, 10947619383, 10947619384, 10947619385, 2266078290, 2266078294, 10947619386, 10947619387, 10947619388, 10947619389, 10947619390, 10947619404, 4233846659, 10947619391, 4233846671, 4233846672, 10947619392, 10947619393, 10947619402, 4233846663, 10947619394, 10947619395, 10947619403, 7887964505, 10947619396, 10947619397, 10947660406, 10947660407, 10947619398, 10947619399, 10947619400, 10947619401, 2266072053, 2266097737, 2266097740, 2266097738], "tags": {"layer": "-2", "name": "Candelaria", "network": "STC Metro", "network:wikidata": "Q735042", "public_transport": "station", "railway": "station", "station": "subway", "subway": "yes"}}, {"type": "way", "id": 1195187887, "nodes": [11093005925, 11093005922, 11093005923, 11093005924, 11093005925], "tags": {"building": "train_station", "construction": "transportation", "name": "Estaci\u00f3n Santa Fe", "network": "Tren Interurbano M\u00e9xico-Toluca", "nohousenumber": "yes", "public_transport": "station", "railway": "station", "train": "yes", "wikidata": "Q65166566"}}, {"type": "way", "id": 1251764016, "nodes": [11635609288, 11635609289, 11635609290, 11635609291, 11635609292, 11635656020, 11635656019, 11635609293, 11635609294, 11635609295, 13051026072, 13051026065, 13051026071, 13051026070, 13051011612, 13051026073, 13051026068, 2811939109, 11635609296, 13051026066, 11635609297, 11635609298, 11635609299, 11635609300, 11635609301, 2811939110, 11635609302, 11635609303, 11635609304, 11123979416, 2811939107, 11123979417, 11635609286, 11635609287, 11123979412, 11123979413, 13051011608, 11635609288], "tags": {"area": "yes", "layer": "-1", "level": "-1", "location": "underground", "name": "Z\u00f3calo/Tenochtitlan", "network": "STC Metro", "network:wikidata": "Q735042", "operator": "STC", "public_transport": "platform", "railway": "platform", "station": "subway", "subway": "yes"}}, {"type": "way", "id": 1251768783, "nodes": [11635656013, 11635656014, 11635656015, 11635656016, 11635656017, 11635656000, 11635656004, 13073420179, 11635656005, 11635656006, 13073420178, 11635656003, 11635655999, 11635656018, 11635656019, 11635656020, 11635656021, 11278142985, 11278142989, 13073420176, 11278142986, 11278142987, 13073420177, 11278142988, 11278142984, 11635656022, 11635656023, 11635656024, 11635656025, 11635656026, 11635656030, 11635656027, 10822915441, 11635656034, 11635656028, 11635656029, 11635656013], "tags": {"alt_name": "Pasaje Pino Su\u00e1rez - Z\u00f3calo", "area": "yes", "layer": "-1", "level": "-1", "loc_name": "Pasaje de los Libros", "location": "underground", "name": "Pasaje Z\u00f3calo - Pino Su\u00e1rez", "public_transport": "platform", "railway": "platform", "station": "subway", "subway": "yes"}}, {"type": "way", "id": 1258708454, "nodes": [11701102561, 11701102565, 11701102557, 11701102558, 11701102566, 11701102564, 11701102563, 11701102567, 11701102559, 11701102560, 11701102568, 11701102562, 11701102561], "tags": {"name": "La Merced", "network": "STC Metro", "network:wikidata": "Q735042", "public_transport": "station", "railway": "station", "station": "subway", "subway": "yes"}}, {"type": "way", "id": 1258715942, "nodes": [11701200557, 11701200550, 11701200558, 11701200549, 12147005150, 11701200548, 11701200547, 11701200554, 11701200553, 11701200552, 11701200559, 11701200542, 11701200541, 11701200540, 11701200544, 11701200560, 11701200551, 11701200561, 2266104547, 2266104543, 11701200536, 11701200535, 11701200534, 11701200533, 11701200532, 11701200531, 11701200530, 11701200539, 11701200538, 11701200537, 2266104544, 2266104546, 11701200543, 11701200556, 11701200555, 11701200546, 11701200545, 12029976968, 11701200557], "tags": {"location": "underground", "name": "Mart\u00edn Carrera", "network": "STC Metro", "network:wikidata": "Q735042", "public_transport": "station", "railway": "station", "station": "subway", "subway": "yes", "wikidata": "Q6824623", "wikipedia": "es:Mart\u00edn Carrera (estaci\u00f3n)"}}, {"type": "way", "id": 1258721563, "nodes": [11701220206, 11701220207, 11701220208, 11701220209, 11701220210, 11701220211, 11701220212, 11701220213, 11701220214, 11701220215, 2266099010, 11701220216, 11701220217, 11701220218, 11701220219, 11701220220, 11701220221, 11701220222, 11701220223, 11701220224, 11701220225, 11701220206], "tags": {"name": "Morelos LB", "network": "STC Metro", "network:wikidata": "Q735042", "public_transport": "station", "railway": "station", "station": "subway", "subway": "yes"}}, {"type": "way", "id": 1258735833, "nodes": [11701330706, 11628046429, 11628046428, 11628046427, 11628046430, 11701330707, 11701330708, 11701330709, 11701436771, 11701436772, 11701330710, 11701330711, 11701330712, 11701330713, 11701330714, 11701330715, 11701330716, 11701330717, 11701330718, 11701330719, 11701330720, 11701330721, 11701330722, 11701330723, 11701330724, 11701330725, 11701330726, 11701330727, 11701330728, 11701330729, 11701330730, 11701330731, 11701330732, 11701330733, 11701330734, 11701330735, 11701330736, 11701330740, 11701330739, 11701330706], "tags": {"name": "Tacubaya L1", "network": "STC Metro", "network:wikidata": "Q735042", "public_transport": "station", "railway": "station", "station": "subway", "subway": "yes"}}, {"type": "way", "id": 1258748282, "nodes": [11701408982, 11701408983, 11701408984, 11701408985, 11701381064, 11701381063, 11701408986, 11701408987, 11701408988, 11701408989, 11701408990, 11701408991, 11701408992, 11701408993, 11701381067, 11701381068, 11701408969, 11701408970, 11701408971, 11701408972, 11701408973, 11701408974, 11701408994, 11701408995, 11701408996, 11701408997, 11701408998, 11701408999, 11701409000, 11701381066, 11701381065, 11701409001, 11701409002, 11701409003, 11701409004, 11701409005, 11701409006, 11701409007, 11701409008, 11701409009, 11701409010, 11701409011, 11701408975, 11701408976, 11701409012, 11701408978, 11701408977, 11701408982], "tags": {"name": "Tacubaya L9", "network": "STC Metro", "network:wikidata": "Q735042", "public_transport": "station", "railway": "station", "station": "subway", "subway": "yes"}}, {"type": "way", "id": 1258752685, "nodes": [11701434453, 11701434454, 11701434455, 11701434456, 11701434453]}, {"type": "way", "id": 1258752686, "nodes": [11701434457, 11701434458, 11701434459, 11701434460, 11701434457]}, {"type": "way", "id": 1258752687, "nodes": [11701434461, 11701434462, 11701434463, 11701434464, 11701434461]}, {"type": "way", "id": 1258752688, "nodes": [11701434465, 11701434452, 12029808195, 12029808197, 11701434447, 11701434448, 12029808198, 12029808196, 11701434449, 11701434466, 11701434467, 11701436785, 11701436787, 11701436786, 11701436784, 11701434468, 11701436769, 11701434450, 11701409003, 11701409002, 11701434451, 11701436770, 11701436771, 11701436772, 11701436773, 11701436774, 11701436775, 11701436776, 11701434445, 11701434446, 11701436777, 11701436778, 11701434465]}, {"type": "way", "id": 1258752689, "nodes": [11701436779, 11701436780, 11701436781, 11701436782, 11701436779]}, {"type": "way", "id": 1258845242, "nodes": [11702200094, 11702200095, 11702200106, 2266969666, 2266969654, 12621388055, 12621388054, 2266969658, 12621387840, 12621387841, 2266969660, 11702200105, 11702200096, 11702200097, 11702200104, 11702200103, 11702200107, 2266969648, 13126295750, 2266969650, 2266969646, 13126295751, 11702200099, 11702200110, 11702200100, 11702200098, 11702200109, 11702200108, 11702200102, 11702200101, 11702200094], "tags": {"layer": "-1", "name": "Revoluci\u00f3n", "public_transport": "station", "railway": "station", "station": "subway", "subway": "yes"}}, {"type": "way", "id": 1258849166, "nodes": [11702206860, 11702251770, 11702206864, 11702206865, 11702206866, 11702206863, 11702206862, 11702206867, 11702206868, 11702251769, 11702206861, 11702206860], "tags": {"name": "San L\u00e1zaro L1", "public_transport": "station", "railway": "station", "station": "subway", "subway": "yes"}}, {"type": "way", "id": 1258850656, "nodes": [11702265424, 11702265432, 11702265429, 11702265433, 11702265434, 11702265435, 11702265436, 11702265437, 11702265438, 11702265439, 11702265440, 11702265441, 11702265442, 11702265430, 11702265443, 11702265427, 11702265426, 11702265444, 11702265431, 11702265445, 11702265446, 11702265447, 11702265448, 11702265449, 11702265450, 11702265451, 11702265452, 11702265453, 11702265454, 11702265428, 11702265455, 11702265425, 11702265424], "tags": {"name": "Etiop\u00eda", "public_transport": "station", "railway": "station", "station": "subway", "subway": "yes"}}, {"type": "way", "id": 1258852271, "nodes": [2271094761, 13071664544, 11702259410, 11702259411, 2271094766, 2271094770, 2271094764, 2271094762, 11702259412, 11702259413, 13071664545, 2271094767, 2271094768, 2271094763, 2271094761], "tags": {"name": "Ju\u00e1rez", "network": "STC Metro", "network:wikidata": "Q735042", "public_transport": "station", "railway": "station", "station": "subway", "subway": "yes"}}, {"type": "way", "id": 1295836661, "nodes": [12007629431, 12007629432, 12007629433, 12007629434, 12007629435, 12007629436, 12007629437, 12007629438, 12007629439, 12007629440, 12007629441, 12007629442, 12007629443, 12007629444, 12007629445, 12007629446, 12007629447, 12007629448, 12007629449, 12007629450, 12007629451, 12007629459, 12007629452, 12007629431], "tags": {"location": "underground", "name": "Ferrer\u00eda/Arena Ciudad de M\u00e9xico", "public_transport": "station", "railway": "station", "station": "subway", "subway": "yes", "wheelchair": "no"}}, {"type": "way", "id": 1296140498, "nodes": [12010317012, 1155521764, 12010317011, 12010317010, 12010317012], "tags": {"area": "yes", "name": "Tepalcates", "network": "STC Metro", "opening_hours": "Mo-Fr 05:00-24:00; Sa 06:00-24:00; Su 07:00-24:00", "operator": "Sistema de Transporte Colectivo", "public_transport": "station", "railway": "station", "station": "subway", "subway": "yes", "wheelchair": "yes", "wikidata": "Q6824730", "wikipedia": "es:Tepalcates (estaci\u00f3n)"}}, {"type": "way", "id": 1298633689, "nodes": [12029778168, 12029808169, 12029808170, 12029808171, 12029808172, 12029808173, 12029808174, 12029808175, 12029808176, 12029808177, 12029808178, 12029808179, 12029808180, 12029808181, 12029808182, 12029808183, 12029808184, 12029808185, 12029808186, 12029778168], "tags": {"building:part": "yes", "window": "skylight"}}, {"type": "way", "id": 1298647771, "nodes": [12029936498, 12029936497, 12029936503, 2271087260, 2271087262, 12029936504, 12029936496, 12029936495, 12029936505, 2271087225, 4805301872, 12029936506, 12029936498], "tags": {"name": "Tlatelolco", "network": "STC Metro", "network:wikidata": "Q735042", "public_transport": "station", "railway": "station", "station": "subway", "subway": "yes"}}, {"type": "way", "id": 1298657310, "nodes": [11701200545, 12029976955, 12029976956, 12029976957, 12029976958, 12029976959, 12029976960, 12029976961, 12029976962, 12029976963, 12029976964, 12029976965, 12029976966, 12029976967, 12029976968, 11701200545], "tags": {"name": "Mart\u00edn Carrera", "network": "STC Metro", "network:wikidata": "Q735042", "public_transport": "station", "railway": "station", "station": "subway", "subway": "yes"}}, {"type": "way", "id": 1298660154, "nodes": [12030019727, 12030019744, 12030019745, 12030019728, 12030019733, 12030019729, 12030019724, 12030019723, 12030019730, 2270291510, 2270291528, 2270291512, 2270291523, 12030019731, 12030019726, 12030019725, 12030019732, 12031530711, 12030019727], "tags": {"name": "Tacuba L2", "network": "STC Metro", "network:wikidata": "Q735042", "public_transport": "station", "railway": "station", "station": "subway", "subway": "yes"}}, {"type": "way", "id": 1298660155, "nodes": [12030019728, 12030019746, 12030019747, 12030051885, 12030051888, 12030019735, 12030019748, 12030019739, 12030019740, 12030019749, 12030019736, 12030051890, 12030051884, 12030019737, 12030019750, 12030019741, 12030019738, 12030019751, 12030019734, 12030051882, 12030019752, 12031530669, 2270291557, 12030019727, 12030019744, 12030019761, 12030019743, 12030019742, 12030019760, 12030019745, 12030019728], "tags": {"name": "Tacuba L7", "network": "STC Metro", "network:wikidata": "Q735042", "public_transport": "station", "railway": "station", "station": "subway", "subway": "yes"}}, {"type": "way", "id": 1302146391, "nodes": [12060211833, 12060211834, 4523950460, 12060211840, 12060211841, 12061829977, 12060211842, 12060211838, 12060211835, 12060211836, 12060211837, 12060211843, 12060211845, 12060211847, 12061830050, 12061829970, 12158474191, 12158474197, 5838999962, 5838999965, 12158474198, 5838999975, 5838999976, 12158474199, 5838999977, 5838999978, 12158474200, 5838999979, 5838999980, 12158485901, 5838999981, 12060211844, 12158485902, 12158474196, 4523950477, 4523950474, 12060211839, 12060211833], "tags": {"layer": "-1", "name": "Chabacano L9", "public_transport": "station", "railway": "station", "station": "subway", "subway": "yes"}}, {"type": "way", "id": 1365082943, "nodes": [12641694118, 12641694142, 12641694144, 12641694147, 12641694146, 12641694150, 12641694153, 12641694152, 12641694151, 12641694148, 12641694149, 12641694145, 12641694143, 12641694119, 12641694120, 12641694121, 12641694122, 12641694123, 12641694124, 12641694125, 12641694126, 12641694127, 12641694128, 12641694129, 12641694130, 12641694131, 12641694132, 12641694133, 12641694134, 12641694135, 12641694136, 12641694137, 12641694138, 12641694139, 12641694140, 12641694141, 12641694118], "tags": {"name": "Centro M\u00e9dico L9", "network": "STC Metro", "network:wikidata": "Q735042", "public_transport": "station", "station": "subway", "subway": "yes"}}, {"type": "way", "id": 1365082945, "nodes": [12641694133, 12641694185, 12641694188, 12641694189, 12641694190, 12641694191, 12641694186, 12641694192, 12641694173, 12641694174, 12641694175, 12641694176, 12641694177, 12641694178, 12641694179, 12641694180, 12641694181, 12641694182, 12641694183, 12641694184, 12641694193, 12641694187, 12641694194, 12641694195, 12641694196, 12641694197, 12641694198, 12641694199, 12641694200, 12641694166, 12641694167, 12641697801, 12641697802, 12641694168, 12641694169, 12641694170, 12641694171, 12641694172, 10186972399, 10186972400, 12641697803, 12641697804, 12641694134, 12641694133], "tags": {"name": "Centro M\u00e9dico L3", "network": "STC Metro", "network:wikidata": "Q735042", "public_transport": "station", "station": "subway", "subway": "yes"}}, {"type": "way", "id": 1365089734, "nodes": [12641747636, 12641747637, 12641747638, 12641747639, 12641747633, 12641747640, 12641747641, 12641747642, 12641747643, 12641747634, 12641747635, 12641747644, 12641747645, 12641747646, 12641747647, 12641747648, 12641747649, 12641747650, 12641747651, 12641747652, 12641747653, 12641747654, 12641747655, 12641747636], "tags": {"name": "Deportivo 18 de Marzo L6", "network": "STC Metro", "network:wikidata": "Q735042", "public_transport": "station", "railway": "station", "station": "subway", "subway": "yes"}}, {"type": "way", "id": 1365089735, "nodes": [12641747636, 12641747637, 12641747670, 12641747676, 12641747677, 12641747678, 12641747679, 12641747680, 12641747681, 12641747682, 12641747664, 12641747665, 12641747683, 12641747657, 2271074590, 12641747659, 12641747658, 2271074573, 12641747656, 12641747684, 12641747666, 12641747667, 12641747685, 12641747686, 12641747687, 12641747688, 12641747689, 12641747668, 12641747669, 12641747690, 2271074580, 12641747660, 12641747662, 12641747663, 12641747661, 2271074576, 12641747691, 12641747636]}, {"type": "way", "id": 1365089736, "nodes": [12641747671, 12641747692, 12641747693, 12641747674, 12641747675, 12641747671]}, {"type": "way", "id": 1365089737, "nodes": [12641747694, 12641747695, 12641747673, 12641747672, 12641747694]}, {"type": "way", "id": 1366029271, "nodes": [12650366094, 12650366095, 12650366096, 12650366097, 12650366098, 12650366099, 2272074909, 2272074906, 2272074923, 13096157853, 13096157850, 2272074915, 2272074913, 2272074938, 12650366100, 12650366087, 12650366088, 12650378201, 12650378202, 12650378203, 2272074937, 2272074934, 2272074914, 13096157851, 313766837, 2272074912, 2272074900, 2272074931, 12650378204, 12650378205, 12650366086, 12650378206, 12650378207, 12650366090, 12650366089, 12650378208, 12650378209, 12650378210, 12650366094], "tags": {"name": "La Raza L5", "network": "STC Metro", "network:wikidata": "Q735042", "public_transport": "station", "railway": "station", "station": "subway", "subway": "yes"}}, {"type": "way", "id": 1366368534, "nodes": [12653975753, 12653975754, 12653975778, 12653975755, 5144887286, 5144887283, 5144887284, 5144887285, 12653975777, 12653975756, 12653975757, 12653975758, 12653975759, 12653975772, 12653975751, 12653975760, 12653975761, 12653975762, 12653975763, 12653975764, 12653975765, 12653975752, 12653975766, 12653975767, 12653975768, 12653975769, 12653975770, 13122123327, 2266886791, 2266886810, 2266886806, 2266886813, 12653975771, 12654040314, 12654040311, 12653975753], "tags": {"area": "yes", "layer": "-1", "level": "-1", "location": "underground", "name": "Balderas L3", "network": "STC Metro", "network:wikidata": "Q735042", "operator": "STC", "public_transport": "platform", "railway": "platform", "station": "subway", "subway": "yes"}}, {"type": "way", "id": 1366368536, "nodes": [12653975773, 12653975793, 12653975774, 12653975792, 12653975775, 2266886806, 2266886810, 2266886791, 12653975776, 12653975777, 5144887285, 5144887284, 5144887283, 5144887286, 12653975755, 12653975778, 12653975779, 12653975780, 12653975781, 12653975782, 12653975783, 12653975784, 12653975785, 12653975786, 12653975794, 12653975787, 12653975788, 12653975789, 12653975790, 12653975791, 12653975773]}, {"type": "way", "id": 1366368538, "nodes": [12653975800, 12654040304, 12654040303, 12654040305, 12653975799, 12654040306, 12654040307, 12654040301, 12653975800]}, {"type": "way", "id": 1366368539, "nodes": [12654040308, 12654040309, 12654040302, 12654040315, 12654040310, 12654040308]}, {"type": "way", "id": 1366368540, "nodes": [12654040316, 12654040312, 12654040313, 12654040317, 12654040316]}, {"type": "way", "id": 1366670740, "nodes": [10617177085, 12657176080, 12657176081, 12657176082, 12657176083, 12657176084, 12657176085, 12657176075, 12657176074, 12657176086, 12657176087, 12657176088, 12657176089, 12657176090, 12657176091, 12657176079, 12657176092, 12657176093, 12657176094, 12657176095, 12657176096, 12657176097, 12657176077, 12657176076, 12657176098, 10617177085], "tags": {"layer": "-1", "name": "Buenavista", "network": "STC Metro", "network:wikidata": "Q735042", "public_transport": "station", "railway": "station", "station": "subway", "subway": "yes"}}, {"type": "way", "id": 1366694389, "nodes": [12657400185, 12657400186, 12657400187, 12657400188, 12657400189, 12657400190, 12657400191, 12606218674, 12606218673, 12606218672, 12657400192, 12657400193, 12657400194, 12657400195, 12657400196, 12657400197, 12657400198, 4613728134, 12606218678, 12606218677, 12606218676, 12606218688, 12606218681, 4613728136, 12657400199, 12657400200, 12657431201, 12606218693, 12606218692, 12606218695, 12657431202, 12657431203, 331418390, 12608812922, 331418399, 12657400185], "tags": {"addr:city": "Mexico City", "addr:postcode": "03700", "addr:state": "CDMX", "name": "Mixcoac L12", "network": "Metro CDMX", "network:wikidata": "Q735042", "opening_hours": "Mo-Fr 05:00-00:00; Sa 06:00-00:00; Su 07:00-00:00", "public_transport": "station", "railway": "station", "station": "subway", "subway": "yes"}}, {"type": "way", "id": 1366694390, "nodes": [12657431218, 12657431203, 331418399, 331418396, 331418388, 12657431220, 12657431212, 12657431256, 12657431221, 12657431209, 12657431208, 12657431222, 12657431255, 12657431213, 12657431223, 12657431224, 12657431225, 12657431215, 12657431216, 12657431217, 12657431214, 12657431226, 12657431227, 12657431228, 331992519, 331992518, 331992517, 331992516, 12657431229, 12657431210, 12657431238, 12657431230, 12657431207, 12657431206, 12657431231, 12657431244, 12657431211, 12657431218]}, {"type": "way", "id": 1366694391, "nodes": [12657431232, 12657431233, 12657431234, 12657431237, 12657431235, 12657431232]}, {"type": "way", "id": 1366694392, "nodes": [12657431239, 12657431240, 12657431241, 12657431242, 12657431243, 12657431239]}, {"type": "way", "id": 1366694393, "nodes": [12657431245, 12657431246, 12657431247, 12657431248, 12657431249, 12657431245]}, {"type": "way", "id": 1366694394, "nodes": [12657431250, 12657431251, 12657431252, 12657431253, 12657431254, 12657431250]}, {"type": "way", "id": 1420448997, "nodes": [13052463137, 13052463138, 13052463139, 13052463140, 13052463137], "tags": {"building": "construction", "public_transport": "station", "railway": "station", "train": "yes"}}, {"type": "relation", "id": 17318665, "members": [{"type": "way", "ref": 1258752688, "role": "outer"}, {"type": "way", "ref": 1258752687, "role": "inner"}, {"type": "way", "ref": 1258752689, "role": "inner"}, {"type": "way", "ref": 1258752686, "role": "inner"}, {"type": "way", "ref": 1258752685, "role": "inner"}, {"type": "way", "ref": 668144612, "role": "inner"}, {"type": "way", "ref": 1298633689, "role": "inner"}], "tags": {"name": "Tacubaya L7", "network": "STC Metro", "network:wikidata": "Q735042", "public_transport": "station", "railway": "station", "station": "subway", "subway": "yes", "type": "multipolygon"}}, {"type": "relation", "id": 18789884, "members": [{"type": "way", "ref": 1365089735, "role": "outer"}, {"type": "way", "ref": 1365089737, "role": "inner"}, {"type": "way", "ref": 1365089736, "role": "inner"}], "tags": {"name": "Deportivo 18 de Marzo L3", "network": "STC Metro", "network:wikidata": "Q735042", "public_transport": "station", "railway": "station", "station": "subway", "subway": "yes", "type": "multipolygon"}}, {"type": "relation", "id": 18810571, "members": [{"type": "way", "ref": 1366368536, "role": "outer"}, {"type": "way", "ref": 1366368539, "role": "inner"}, {"type": "way", "ref": 1366368540, "role": "inner"}, {"type": "way", "ref": 1366368538, "role": "inner"}], "tags": {"layer": "-1", "level": "-1", "location": "underground", "name": "Balderas L1", "network": "STC Metro", "network:wikidata": "Q735042", "operator": "STC", "public_transport": "platform", "railway": "platform", "station": "subway", "subway": "yes", "type": "multipolygon"}}, {"type": "relation", "id": 18815542, "members": [{"type": "way", "ref": 1366694390, "role": "outer"}, {"type": "way", "ref": 1366694391, "role": "inner"}, {"type": "way", "ref": 1366694394, "role": "inner"}, {"type": "way", "ref": 1366694393, "role": "inner"}, {"type": "way", "ref": 1366694392, "role": "inner"}], "tags": {"name": "Mixcoac L7", "network": "STC Metro", "network:wikidata": "Q735042", "public_transport": "station", "railway": "station", "station": "subway", "subway": "yes", "type": "multipolygon"}}]}